address,address-text,deliverable,end-date,entry-date,hazardous-substances,hectares,latitude,longitude,maximum-net-dwellings,minimum-net-dwellings,notes,organisation,ownership-status,planning-permission-date,planning-permission-history,planning-permission-status,planning-permission-type,site,OrganisationURI,OrganisationLabel,SiteReference,SiteNameAddress,GeoX,GeoY,SiteplanURL,Hectares,OwnershipStatus,HazardousSubstances,PlanningStatus,PermissionType,PermissionDate,PlanningHistory,MinNetDwellings,NetDwellingsRangeFrom,NetDwellingsRangeTo,Deliverable,Notes,FirstAddedDate,LastUpdatedDate,EndDate,site-plan-url,start-date
,,,,,,,,,,,,,,,,,,,http://opendatacommunities.org/id/unitary-authority/peterborough,Peterborough,PDL/0001/17,"Land To The Rear Of 105
Oxney Road
Peterborough",521402,300612,https://planpa.peterborough.gov.uk/online-applications/applicationDetails.do?activeTab=map&keyVal=P0N3VCML0CW00,2.8,Unknown,,Permissioned,,,,8,,8,,,2017/12/19,2017/12/19,,,
,,,,,,,,,,,,,,,,,,,http://opendatacommunities.org/id/unitary-authority/peterborough,Peterborough,PDL/0002/17,"16 - 18 Manor House Street
Peterborough",519169,299175,https://planpa.peterborough.gov.uk/online-applications/applicationDetails.do?activeTab=map&keyVal=P0N4EVML0CW00,0.7,Unknown,,Permissioned,,,,6,,6,,,2017/12/19,2017/12/19,,,
,,,,,,,,,,,,,,,,,,,http://opendatacommunities.org/id/unitary-authority/peterborough,Peterborough,PDL/0003/17,"3 - 7 Oxford Road
Millfield
Peterborough
PE1 3BL",518905,300384,https://planpa.peterborough.gov.uk/online-applications/applicationDetails.do?activeTab=map&keyVal=P0N5U4ML0CW00,1.3,Unknown,,Permissioned,,,,8,,8,,,2017/12/19,2017/12/19,,,
,,,,,,,,,,,,,,,,,,,http://opendatacommunities.org/id/unitary-authority/peterborough,Peterborough,PDL/0004/17,"38 Elm Street
Woodston
Peterborough",518948,297388,https://planpa.peterborough.gov.uk/online-applications/applicationDetails.do?activeTab=map&keyVal=P0N6A0ML0CW00,0.9,Unknown,,Permissioned,,,,10,,10,,,2017/12/19,2017/12/19,,,
,,,,,,,,,,,,,,,,,,,http://opendatacommunities.org/id/unitary-authority/peterborough,Peterborough,PDL/0005/17,"659 Lincoln Road
Peterborough
PE1 3HA",518226,300987,https://planpa.peterborough.gov.uk/online-applications/applicationDetails.do?activeTab=map&keyVal=P0N7BTML0CW00,1.9,Unknown,,Permissioned,,,,23,,23,,,2017/12/19,2017/12/19,,,
,,,,,,,,,,,,,,,,,,,http://opendatacommunities.org/id/unitary-authority/peterborough,Peterborough,PDL/0006/17,"78 High Street
Eye
Peterborough
PE6 7UY",522402,302732,https://planpa.peterborough.gov.uk/online-applications/applicationDetails.do?activeTab=map&keyVal=P0N7JDML0CW00,1.9,Unknown,,Permissioned,,,,5,,5,,,2017/12/19,2017/12/19,,,
,,,,,,,,,,,,,,,,,,,http://opendatacommunities.org/id/unitary-authority/peterborough,Peterborough,PDL/0007/17,"83 Oxney Road
Peterborough
PE1 5NG",521239,300514,https://planpa.peterborough.gov.uk/online-applications/applicationDetails.do?activeTab=map&keyVal=P0N7O9ML0CW00,1.6,Unknown,,Permissioned,,,,5,,5,,,2017/12/19,2017/12/19,,,
,,,,,,,,,,,,,,,,,,,http://opendatacommunities.org/id/unitary-authority/peterborough,Peterborough,PDL/0008/17,"85 Park Road
Peterborough",519269,299251,https://planpa.peterborough.gov.uk/online-applications/applicationDetails.do?activeTab=map&keyVal=P0N8E2ML0CW00,0.3,Unknown,,Permissioned,,,,6,,6,,,2017/12/19,2017/12/19,,,
,,,,,,,,,,,,,,,,,,,http://opendatacommunities.org/id/unitary-authority/peterborough,Peterborough,PDL/0009/17,"Land Adjacent To 39-41 Station Road
Thorney
Peterborough",528208,304642,https://planpa.peterborough.gov.uk/online-applications/applicationDetails.do?activeTab=map&keyVal=P0N8LYML0CW00,4.7,Unknown,,Permissioned,,,,9,,9,,,2017/12/19,2017/12/19,,,
,,,,,,,,,,,,,,,,,,,http://opendatacommunities.org/id/unitary-authority/peterborough,Peterborough,PDL/0010/17,"British Sugar
Oundle Road
Woodston
Peterborough
PE2 9AY",518097,297571,https://planpa.peterborough.gov.uk/online-applications/applicationDetails.do?activeTab=map&keyVal=P0N92GML0CW00,24.6,Unknown,,Not permissioned,,,,70,,70,,,2017/12/19,2017/12/19,,,
,,,,,,,,,,,,,,,,,,,http://opendatacommunities.org/id/unitary-authority/peterborough,Peterborough,PDL/0011/17,"Car Park
Hampton Court
Westwood
Peterborough",517398,300627,https://planpa.peterborough.gov.uk/online-applications/applicationDetails.do?activeTab=map&keyVal=P0N9FVML0CW00,10,Unknown,,Permissioned,,,,16,,16,,,2017/12/19,2017/12/19,,,
,,,,,,,,,,,,,,,,,,,http://opendatacommunities.org/id/unitary-authority/peterborough,Peterborough,PDL/0012/17,"Coneygree Lodge
Coneygree Road
Stanground
Peterborough",520515,297024,https://planpa.peterborough.gov.uk/online-applications/applicationDetails.do?activeTab=map&keyVal=P0N9N0ML0CW00,3.5,Unknown,,Permissioned,,,,14,,14,,,2017/12/19,2017/12/19,,,
,,,,,,,,,,,,,,,,,,,http://opendatacommunities.org/id/unitary-authority/peterborough,Peterborough,PDL/0014/17,"Land At
East Station Road
Fletton Quays
Peterborough",519498,298029,https://planpa.peterborough.gov.uk/online-applications/applicationDetails.do?activeTab=map&keyVal=P0NEXAML0CW00,67.9,Unknown,,Not permissioned,,,,100,,100,,,2017/12/19,2017/12/19,,,
,,,,,,,,,,,,,,,,,,,http://opendatacommunities.org/id/unitary-authority/peterborough,Peterborough,PDL/0015/17,"1 Grove Street
Woodston
Peterborough
PE2 9AG",518890,297648,https://planpa.peterborough.gov.uk/online-applications/applicationDetails.do?activeTab=map&keyVal=O8CN74ML0CW00,0.7,Unknown,,Permissioned,,,,6,,6,,,2017/12/19,2017/12/19,,,
,,,,,,,,,,,,,,,,,,,http://opendatacommunities.org/id/unitary-authority/peterborough,Peterborough,PDL/0016/17,"Former John Mansfield School Remote Playing Field
Poplar Avenue
Dogsthorpe
Peterborough",520201,301911,https://planpa.peterborough.gov.uk/online-applications/applicationDetails.do?activeTab=map&keyVal=P0NFZ2ML0CW00,40.6,Unknown,,Permissioned,,,,116,,116,,,2017/12/19,2017/12/19,,,
,,,,,,,,,,,,,,,,,,,http://opendatacommunities.org/id/unitary-authority/peterborough,Peterborough,PDL/0017/17,"Land To The West Of
London Road
Peterborough",517869,293987,https://planpa.peterborough.gov.uk/online-applications/applicationDetails.do?activeTab=map&keyVal=O851BHML0CW00,745.3,Unknown,,Permissioned,,,,2349,,2349,,,2017/12/19,2017/12/19,,,
,,,,,,,,,,,,,,,,,,,http://opendatacommunities.org/id/unitary-authority/peterborough,Peterborough,PDL/0018/17,"Johnston Publishing
Oundle Road
Woodston
Peterborough
PE2 9QR",518061,297289,https://planpa.peterborough.gov.uk/online-applications/applicationDetails.do?activeTab=map&keyVal=O879GOML0CW00,30.5,Unknown,,Permissioned,,,,86,,86,,,2017/12/19,2017/12/19,,,
,,,,,,,,,,,,,,,,,,,http://opendatacommunities.org/id/unitary-authority/peterborough,Peterborough,PDL/0019/17,"117 Park Road
Peterborough
PE1 2TR",519332,299408,https://planpa.peterborough.gov.uk/online-applications/applicationDetails.do?activeTab=map&keyVal=O859STML0CW00,1.1,Unknown,,Permissioned,,,,24,,24,,,2017/12/19,2017/12/19,,,
,,,,,,,,,,,,,,,,,,,http://opendatacommunities.org/id/unitary-authority/peterborough,Peterborough,PDL/0020/17,"143 Oundle Road
Woodston
Peterborough
PE2 9PW",518529,297823,https://planpa.peterborough.gov.uk/online-applications/applicationDetails.do?activeTab=map&keyVal=O8CMQXML0CW00,1.3,Unknown,,Permissioned,,,,10,,10,,,2017/12/19,2017/12/19,,,
,,,,,,,,,,,,,,,,,,,http://opendatacommunities.org/id/unitary-authority/peterborough,Peterborough,PDL/0021/17,"28 - 30 Priestgate
Peterborough
PE1 1JA",519050,298535,https://planpa.peterborough.gov.uk/online-applications/applicationDetails.do?activeTab=map&keyVal=O8CMX5ML0CW00,1.2,Unknown,,Permissioned,,,,8,,8,,,2017/12/19,2017/12/19,,,
,,,,,,,,,,,,,,,,,,,http://opendatacommunities.org/id/unitary-authority/peterborough,Peterborough,PDL/0022/17,"48-50 Jubilee Street
Woodston
Peterborough
PE2 9PH",518694,298035,https://planpa.peterborough.gov.uk/online-applications/applicationDetails.do?activeTab=map&keyVal=O8CMKRML0CW00,1.5,Unknown,,Permissioned,,,,8,,8,,,2017/12/19,2017/12/19,,,
,,,,,,,,,,,,,,,,,,,http://opendatacommunities.org/id/unitary-authority/peterborough,Peterborough,PDL/0023/17,"88 Lincoln Road
Peterborough
PE1 2SN",519073,299437,https://planpa.peterborough.gov.uk/online-applications/applicationDetails.do?activeTab=map&keyVal=O8CLBPML0CW00,2.2,Unknown,,Permissioned,,,,26,,26,,,2017/12/19,2017/12/19,,,
,,,,,,,,,,,,,,,,,,,http://opendatacommunities.org/id/unitary-authority/peterborough,Peterborough,PDL/0024/17,"Car Park
Bishops Road
Eastgate
Peterborough",519580,298418,https://planpa.peterborough.gov.uk/online-applications/applicationDetails.do?activeTab=map&keyVal=O5H4WAML0CW00,13.1,Unknown,,Not permissioned,,,,25,,25,,,2017/12/19,2017/12/19,,,
,,,,,,,,,,,,,,,,,,,http://opendatacommunities.org/id/unitary-authority/peterborough,Peterborough,PDL/0025/17,"Bushfield House
Bushfield
Orton Goldhay
Peterborough
PE2 5RQ",515191,295422,https://planpa.peterborough.gov.uk/online-applications/applicationDetails.do?activeTab=map&keyVal=O85CV6ML0CW00,5,Unknown,,Permissioned,,,,24,,24,,,2017/12/19,2017/12/19,,,
,,,,,,,,,,,,,,,,,,,http://opendatacommunities.org/id/unitary-authority/peterborough,Peterborough,PDL/0026/17,"Cranmore House
Thorney Road
Eye
Peterborough
PE6 7UB",523323,303031,https://planpa.peterborough.gov.uk/online-applications/applicationDetails.do?activeTab=map&keyVal=O876QLML0CW00,9.5,Unknown,,Permissioned,,,,14,,14,,,2017/12/19,2017/12/19,,,
,,,,,,,,,,,,,,,,,,,http://opendatacommunities.org/id/unitary-authority/peterborough,Peterborough,PDL/0027/17,"Depot
Church Road
Wittering
Peterborough",505346,302334,https://planpa.peterborough.gov.uk/online-applications/applicationDetails.do?activeTab=map&keyVal=O8CM8BML0CW00,1.8,Unknown,,Permissioned,,,,6,,6,,,2017/12/19,2017/12/19,,,
,,,,,,,,,,,,,,,,,,,http://opendatacommunities.org/id/unitary-authority/peterborough,Peterborough,PDL/0028/17,"Dickens Street Car Park
Dickens Street
Eastfield
Peterborough",519769,299190,https://planpa.peterborough.gov.uk/online-applications/applicationDetails.do?activeTab=map&keyVal=O5TW9KML0CW00,6.4,Unknown,,Not permissioned,,,,30,,30,,,2017/12/19,2017/12/19,,,
,,,,,,,,,,,,,,,,,,,http://opendatacommunities.org/id/unitary-authority/peterborough,Peterborough,PDL/0029/17,"Fletton Quays
Land At East Station Road
Peterborough",519498,298029,https://planpa.peterborough.gov.uk/online-applications/applicationDetails.do?activeTab=map&keyVal=O875DVML0CW00,22.4,Unknown,,Permissioned,,,,280,,280,,,2017/12/19,2017/12/19,,,
,,,,,,,,,,,,,,,,,,,http://opendatacommunities.org/id/unitary-authority/peterborough,Peterborough,PDL/0030/17,"Former Coal Yard
River Lane
Peterborough",518774,298401,https://planpa.peterborough.gov.uk/online-applications/applicationDetails.do?activeTab=map&keyVal=O85E1CML0CW00,1.4,Unknown,,Permissioned,,,,7,,7,,,2017/12/19,2017/12/19,,,
,,,,,,,,,,,,,,,,,,,http://opendatacommunities.org/id/unitary-authority/peterborough,Peterborough,PDL/0031/17,"Former Peterborough District Hospital
Thorpe Road
Peterborough",518378,298749,https://planpa.peterborough.gov.uk/online-applications/applicationDetails.do?activeTab=map&keyVal=O86YY7ML0CW00,93,Unknown,,Permissioned,,,,287,,287,,,2017/12/19,2017/12/19,,,
,,,,,,,,,,,,,,,,,,,http://opendatacommunities.org/id/unitary-authority/peterborough,Peterborough,PDL/0032/17,"Former Peterborough District Hospital
Thorpe Road
Peterborough",518378,298749,https://planpa.peterborough.gov.uk/online-applications/applicationDetails.do?activeTab=map&keyVal=P0SR9ZML0CW00,2.5,Unknown,,Permissioned,,,,7,,7,,,2017/12/19,2017/12/19,,,
,,,,,,,,,,,,,,,,,,,http://opendatacommunities.org/id/unitary-authority/peterborough,Peterborough,PDL/0033/17,"Former Peterborough District Hospital
Thorpe Road
Peterborough",518378,298749,https://planpa.peterborough.gov.uk/online-applications/applicationDetails.do?activeTab=map&keyVal=P0SRGOML0CW00,9.5,Unknown,,Permissioned,,,,43,,43,,,2017/12/19,2017/12/19,,,
,,,,,,,,,,,,,,,,,,,http://opendatacommunities.org/id/unitary-authority/peterborough,Peterborough,PDL/0034/17,"Former Peterborough District Hospital
Thorpe Road
Peterborough",518378,298749,https://planpa.peterborough.gov.uk/online-applications/applicationDetails.do?activeTab=map&keyVal=P0SRRMML0CW00,17,Unknown,,Permissioned,,,,76,,76,,,2017/12/19,2017/12/19,,,
,,,,,,,,,,,,,,,,,,,http://opendatacommunities.org/id/unitary-authority/peterborough,Peterborough,PDL/0035/17,"Former Peterborough District Hospital
Thorpe Road
Peterborough",518378,298749,https://planpa.peterborough.gov.uk/online-applications/applicationDetails.do?activeTab=map&keyVal=P0SS0MML0CW00,25,Unknown,,Permissioned,,,,56,,56,,,2017/12/19,2017/12/19,,,
,,,,,,,,,,,,,,,,,,,http://opendatacommunities.org/id/unitary-authority/peterborough,Peterborough,PDL/0036/17,"Mega Car Centre
Midland Road
West Town
Peterborough",518502,298829,https://planpa.peterborough.gov.uk/online-applications/applicationDetails.do?activeTab=map&keyVal=O85FHTML0CW00,6.7,Unknown,,Permissioned,,,,29,,29,,,2017/12/19,2017/12/19,,,
,,,,,,,,,,,,,,,,,,,http://opendatacommunities.org/id/unitary-authority/peterborough,Peterborough,PDL/0037/17,"Great Northern Railway Hotel
Station Road
Peterborough
PE1 1QL",518749,298869,https://planpa.peterborough.gov.uk/online-applications/applicationDetails.do?activeTab=map&keyVal=O8790WML0CW00,7.5,Unknown,,Permissioned,,,,6,,6,,,2017/12/19,2017/12/19,,,
,,,,,,,,,,,,,,,,,,,http://opendatacommunities.org/id/unitary-authority/peterborough,Peterborough,PDL/0038/17,"Guthrie House
Rightwell East
Bretton
Peterborough",516392,300319,https://planpa.peterborough.gov.uk/online-applications/applicationDetails.do?activeTab=map&keyVal=P0SSU7ML0CW00,1.5,Unknown,,Permissioned,,,,13,,13,,,2017/12/19,2017/12/19,,,
,,,,,,,,,,,,,,,,,,,http://opendatacommunities.org/id/unitary-authority/peterborough,Peterborough,PDL/0039/17,"Guthrie House
Rightwell East
Bretton
Peterborough",516392,300319,https://planpa.peterborough.gov.uk/online-applications/applicationDetails.do?activeTab=map&keyVal=P0SSYHML0CW00,1,Unknown,,Permissioned,,,,5,,5,,,2017/12/19,2017/12/19,,,
,,,,,,,,,,,,,,,,,,,http://opendatacommunities.org/id/unitary-authority/peterborough,Peterborough,PDL/0040/17,"Hampton Leys
London Road
Peterborough",518792,294754,https://planpa.peterborough.gov.uk/online-applications/applicationDetails.do?activeTab=map&keyVal=P0STEFML0CW00,276.4,Unknown,,Permissioned,,,,866,,866,,,2017/12/19,2017/12/19,,,
,,,,,,,,,,,,,,,,,,,http://opendatacommunities.org/id/unitary-authority/peterborough,Peterborough,PDL/0041/17,"Land To The South Of Tranche VG9
County Road
Hampton Vale
Peterborough",516867,293585,https://planpa.peterborough.gov.uk/online-applications/applicationDetails.do?activeTab=map&keyVal=O873YNML0CW00,166,Unknown,,Permissioned,,,,350,,350,,,2017/12/19,2017/12/19,,,
,,,,,,,,,,,,,,,,,,,http://opendatacommunities.org/id/unitary-authority/peterborough,Peterborough,PDL/0042/17,"Hempsted Parcel - NC1, NC3, NC4
Hicks Lane
Woodston
Peterborough
PE7 0LL",519016,296243,https://planpa.peterborough.gov.uk/online-applications/applicationDetails.do?activeTab=map&keyVal=O5TZYUML0CW00,18.6,Unknown,,Not permissioned,,,,65,,65,,,2017/12/19,2017/12/19,,,
,,,,,,,,,,,,,,,,,,,http://opendatacommunities.org/id/unitary-authority/peterborough,Peterborough,PDL/0043/17,"Hampton Vale Allotments
Coriander Drive
Hampton Vale
Peterborough",516377,293732,https://planpa.peterborough.gov.uk/online-applications/applicationDetails.do?activeTab=map&keyVal=P0SUS0ML0CW00,37.8,Unknown,,Permissioned,,,,125,,125,,,2017/12/19,2017/12/19,,,
,,,,,,,,,,,,,,,,,,,http://opendatacommunities.org/id/unitary-authority/peterborough,Peterborough,PDL/0044/17,"Land At
Guilsborough Road
Eye Green
Peterborough",523114,303239,https://planpa.peterborough.gov.uk/online-applications/applicationDetails.do?activeTab=map&keyVal=O8753ZML0CW00,33.6,Unknown,,Permissioned,,,,55,,55,,,2017/12/19,2017/12/19,,,
,,,,,,,,,,,,,,,,,,,http://opendatacommunities.org/id/unitary-authority/peterborough,Peterborough,PDL/0045/17,"Hempsted Opportunity Area
London Road
Peterborough",518905,296392,https://planpa.peterborough.gov.uk/online-applications/applicationDetails.do?activeTab=map&keyVal=O5TZPZML0CW00,2.5,Unknown,,Permissioned,,,,15,,15,,,2017/12/19,2017/12/19,,,
,,,,,,,,,,,,,,,,,,,http://opendatacommunities.org/id/unitary-authority/peterborough,Peterborough,PDL/0046/17,"Land To The North Of
Brickburn Close
Hampton Centre
Peterborough",518243,294705,https://planpa.peterborough.gov.uk/online-applications/applicationDetails.do?activeTab=map&keyVal=P0UKDDML0CW00,13.4,Unknown,,Permissioned,,,,45,,45,,,2017/12/19,2017/12/19,,,
,,,,,,,,,,,,,,,,,,,http://opendatacommunities.org/id/unitary-authority/peterborough,Peterborough,PDL/0047/17,"Hempsted Opportunity Area
London Road
Peterborough",518905,296392,https://planpa.peterborough.gov.uk/online-applications/applicationDetails.do?activeTab=map&keyVal=P0UKK1ML0CW00,34.6,Unknown,,Permissioned,,,,95,,95,,,2017/12/19,2017/12/19,,,
,,,,,,,,,,,,,,,,,,,http://opendatacommunities.org/id/unitary-authority/peterborough,Peterborough,PDL/0048/17,"1374 Lincoln Road
Peterborough
PE4 6LS",516384,303384,https://planpa.peterborough.gov.uk/online-applications/applicationDetails.do?activeTab=map&keyVal=P0ULTYML0CW00,3.4,Unknown,,Permissioned,,,,5,,5,,,2017/12/19,2017/12/19,,,
,,,,,,,,,,,,,,,,,,,http://opendatacommunities.org/id/unitary-authority/peterborough,Peterborough,PDL/0049/17,"Land To The West Of
London Road
Peterborough",517869,293987,https://planpa.peterborough.gov.uk/online-applications/applicationDetails.do?activeTab=map&keyVal=P0UM0WML0CW00,25.1,Unknown,,Permissioned,,,,130,,130,,,2017/12/19,2017/12/19,,,
,,,,,,,,,,,,,,,,,,,http://opendatacommunities.org/id/unitary-authority/peterborough,Peterborough,PDL/0050/17,"Lincoln Court
Lincoln Road
Peterborough",519070,299087,https://planpa.peterborough.gov.uk/online-applications/applicationDetails.do?activeTab=map&keyVal=P0UMIGML0CW00,0.4,Unknown,,Permissioned,,,,8,,8,,,2017/12/19,2017/12/19,,,
,,,,,,,,,,,,,,,,,,,http://opendatacommunities.org/id/unitary-authority/peterborough,Peterborough,PDL/0051/17,"Manor House
57 Lincoln Road
Peterborough
PE1 2RR",519150,299180,https://planpa.peterborough.gov.uk/online-applications/applicationDetails.do?activeTab=map&keyVal=P0UMPHML0CW00,2.8,Unknown,,Permissioned,,,,11,,11,,,2017/12/19,2017/12/19,,,
,,,,,,,,,,,,,,,,,,,http://opendatacommunities.org/id/unitary-authority/peterborough,Peterborough,PDL/0052/17,"Mill Garage
The Causeway
Thorney
Peterborough",527858,304310,https://planpa.peterborough.gov.uk/online-applications/applicationDetails.do?activeTab=map&keyVal=P0UN9EML0CW00,2,Unknown,,Permissioned,,,,7,,7,,,2017/12/19,2017/12/19,,,
,,,,,,,,,,,,,,,,,,,http://opendatacommunities.org/id/unitary-authority/peterborough,Peterborough,PDL/0053/17,"NCP Car Park
Brook Street
Peterborough",519533,299024,https://planpa.peterborough.gov.uk/online-applications/applicationDetails.do?activeTab=map&keyVal=O8CLXKML0CW00,1.9,Unknown,,Permissioned,,,,39,,39,,,2017/12/19,2017/12/19,,,
,,,,,,,,,,,,,,,,,,,http://opendatacommunities.org/id/unitary-authority/peterborough,Peterborough,PDL/0054/17,"New Priestgate House
57 Priestgate
Peterborough",518910,298594,https://planpa.peterborough.gov.uk/online-applications/applicationDetails.do?activeTab=map&keyVal=O8CLMBML0CW00,2.1,Unknown,,Permissioned,,,,7,,7,,,2017/12/19,2017/12/19,,,
,,,,,,,,,,,,,,,,,,,http://opendatacommunities.org/id/unitary-authority/peterborough,Peterborough,PDL/0055/17,"North Westgate Development Area
Westgate
Peterborough",518945,298922,https://planpa.peterborough.gov.uk/online-applications/applicationDetails.do?activeTab=map&keyVal=O875WIML0CW00,45.5,Unknown,,Permissioned,,,,100,,100,,,2017/12/19,2017/12/19,,,
,,,,,,,,,,,,,,,,,,,http://opendatacommunities.org/id/unitary-authority/peterborough,Peterborough,PDL/0056/17,"Northern Section Of The East Of England Showground
Oundle Road
Alwalton
Peterborough",514405,296090,https://planpa.peterborough.gov.uk/online-applications/applicationDetails.do?activeTab=map&keyVal=P0UNSFML0CW00,62.5,Unknown,,Permissioned,,,,58,,58,,,2017/12/19,2017/12/19,,,
,,,,,,,,,,,,,,,,,,,http://opendatacommunities.org/id/unitary-authority/peterborough,Peterborough,PDL/0057/17,"Sewerage Works
Potters Way
Fengate
Peterborough",520180,298386,https://planpa.peterborough.gov.uk/online-applications/applicationDetails.do?activeTab=map&keyVal=O879VAML0CW00,3.9,Unknown,,Permissioned,,,,18,,18,,,2017/12/19,2017/12/19,,,
,,,,,,,,,,,,,,,,,,,http://opendatacommunities.org/id/unitary-authority/peterborough,Peterborough,PDL/0058/17,"Land To Rear Of 44-90 New Road
Woodston
Peterborough
PE2 9HB",518364,297436,https://planpa.peterborough.gov.uk/online-applications/applicationDetails.do?activeTab=map&keyVal=P0UP84ML0CW00,9.8,Unknown,,Permissioned,,,,45,,45,,,2017/12/19,2017/12/19,,,
,,,,,,,,,,,,,,,,,,,http://opendatacommunities.org/id/unitary-authority/peterborough,Peterborough,PDL/0059/17,"Land To Rear Of The Rose And Crown
2 Wisbech Road
Thorney
Peterborough
PE6 0SB",528190,304346,https://planpa.peterborough.gov.uk/online-applications/applicationDetails.do?activeTab=map&keyVal=O855LRML0CW00,7.3,Unknown,,Permissioned,,,,11,,11,,,2017/12/19,2017/12/19,,,
,,,,,,,,,,,,,,,,,,,http://opendatacommunities.org/id/unitary-authority/peterborough,Peterborough,PDL/0060/17,"Remus House
Coltsfoot Drive
Woodston
Peterborough
PE2 9BF",518089,297344,https://planpa.peterborough.gov.uk/online-applications/applicationDetails.do?activeTab=map&keyVal=P0UPIJML0CW00,3.8,Unknown,,Permissioned,,,,30,,30,,,2017/12/19,2017/12/19,,,
,,,,,,,,,,,,,,,,,,,http://opendatacommunities.org/id/unitary-authority/peterborough,Peterborough,PDL/0061/17,"St Nicholas Reception Home
South Parade
West Town
Peterborough",518023,299045,https://planpa.peterborough.gov.uk/online-applications/applicationDetails.do?activeTab=map&keyVal=P0UQ1CML0CW00,2.6,Unknown,,Permissioned,,,,24,,24,,,2017/12/19,2017/12/19,,,
,,,,,,,,,,,,,,,,,,,http://opendatacommunities.org/id/unitary-authority/peterborough,Peterborough,PDL/0062/17,"The Heron
Southfields Drive
Stanground
Peterborough
PE2 8QB",520838,296636,https://planpa.peterborough.gov.uk/online-applications/applicationDetails.do?activeTab=map&keyVal=O8CMF4ML0CW00,1.8,Unknown,,Permissioned,,,,8,,8,,,2017/12/19,2017/12/19,,,
,,,,,,,,,,,,,,,,,,,http://opendatacommunities.org/id/unitary-authority/peterborough,Peterborough,PDL/0063/17,"Tranche NC2
London Road
Peterborough",518888,296508,https://planpa.peterborough.gov.uk/online-applications/applicationDetails.do?activeTab=map&keyVal=P0UQCXML0CW00,22.8,Unknown,,Permissioned,,,,69,,69,,,2017/12/19,2017/12/19,,,
,,,,,,,,,,,,,,,,,,,http://opendatacommunities.org/id/unitary-authority/peterborough,Peterborough,PDL/0065/17,"Varity House
Vicarage Farm Road
Fengate
Peterborough",521417,299517,https://planpa.peterborough.gov.uk/online-applications/applicationDetails.do?activeTab=map&keyVal=P0UQQJML0CW00,14.5,Unknown,,Permissioned,,,,14,,14,,,2017/12/19,2017/12/19,,,
,,,,,,,,,,,,,,,,,,,http://opendatacommunities.org/id/unitary-authority/peterborough,Peterborough,PDL/0066/17,"The Garden House
Minster Precincts
Peterborough
PE1 1XS",519318,298743,https://planpa.peterborough.gov.uk/online-applications/applicationDetails.do?activeTab=map&keyVal=P0UT3IML0CW00,2.1,Unknown,,Not permissioned,,,,25,,25,,,2017/12/19,2017/12/19,,,
,,,,,,,,,,,,,,,,,,,http://opendatacommunities.org/id/unitary-authority/peterborough,Peterborough,PDL/0067/17,"Land To The Rear Of 142 - 148
Fletton Avenue
Fletton
Peterborough",519607,297255,https://planpa.peterborough.gov.uk/online-applications/applicationDetails.do?activeTab=map&keyVal=P0WGX2ML0CW01,6.1,Unknown,,Not permissioned,,,,30,,30,,,2017/12/19,2017/12/19,,,
,,,,,,,,,,,,,,,,,,,http://opendatacommunities.org/id/unitary-authority/peterborough,Peterborough,PDL/0068/17,"Land South Of Penwald Court
Peakirk
Peterborough
PE6 7NN",516711,306032,https://planpa.peterborough.gov.uk/online-applications/applicationDetails.do?activeTab=map&keyVal=P0WH8UML0CW00,7.4,Unknown,,Permissioned,,,,14,,14,,,2017/12/19,2017/12/19,,,
,,,,,,,,,,,,,,,,,,,http://opendatacommunities.org/id/unitary-authority/peterborough,Peterborough,PDL/0069/17,"12 River Lane
Peterborough
PE3 6AH",518810,298291,https://planpa.peterborough.gov.uk/online-applications/applicationDetails.do?activeTab=map&keyVal=O8HZXHML0CW00,28.7,Unknown,,Not permissioned,,,,50,,50,,,2017/12/19,2017/12/19,,,
,,,,,,,,,,,,,,,,,,,http://opendatacommunities.org/id/unitary-authority/peterborough,Peterborough,PDL/0070/17,"Belle Vue Stables
Whittlesey Road
Stanground
Peterborough",520227,296606,https://planpa.peterborough.gov.uk/online-applications/applicationDetails.do?activeTab=map&keyVal=P15OO9ML0CW00,8.6,Unknown,,Not permissioned,,,,35,,35,,,2017/12/19,2017/12/19,,,
,,,,,,,,,,,,,,,,,,,http://opendatacommunities.org/id/unitary-authority/peterborough,Peterborough,PDL/0071/17,"North Westgate Opportunity Area
Westgate
Peterborough",518945,298922,https://planpa.peterborough.gov.uk/online-applications/applicationDetails.do?activeTab=map&keyVal=P15PMBML0CW00,33.8,Unknown,,Not permissioned,,,,200,,200,,,2017/12/19,2017/12/19,,,
,,,,,,,,,,,,,,,,,,,http://opendatacommunities.org/id/unitary-authority/peterborough,Peterborough,PDL/0072/17,"Northminster Opportunity Area
Peterborough",519286,299051,https://planpa.peterborough.gov.uk/online-applications/applicationDetails.do?activeTab=map&keyVal=P15PRLML0CW00,89.1,Unknown,,Not permissioned,,,,150,,150,,,2017/12/19,2017/12/19,,,
,,,,,,,,,,,,,,,,,,,http://opendatacommunities.org/id/unitary-authority/peterborough,Peterborough,PDL/0073/17,"Station East Opportunity Area
Station Road
Peterborough",518844,298851,https://planpa.peterborough.gov.uk/online-applications/applicationDetails.do?activeTab=map&keyVal=P15Q2DML0CW00,92.8,Unknown,,Not permissioned,,,,400,,400,,,2017/12/19,2017/12/19,,,
,,,,,,,,,,,,,,,,,,,http://opendatacommunities.org/id/unitary-authority/peterborough,Peterborough,PDL/0075/17,"Station West Opportunity Area
Midland Road
West Town
Peterborough",518527,298867,https://planpa.peterborough.gov.uk/online-applications/applicationDetails.do?activeTab=map&keyVal=P15UPLML0CW01,105.1,Unknown,,Not permissioned,,,,200,,200,,,2017/12/19,2017/12/19,,,
