address,address-text,deliverable,end-date,entry-date,hazardous-substances,hectares,latitude,longitude,maximum-net-dwellings,minimum-net-dwellings,notes,organisation,ownership-status,planning-permission-date,planning-permission-history,planning-permission-status,planning-permission-type,site,OrganisationURI,OrganisationLabel,SiteReference,SiteNameAddress,GeoX,GeoY,SiteplanURL,Hectares,OwnershipStatus,HazardousSubstances,PlanningStatus,PermissionType,PermissionDate,PlanningHistory,MinNetDwellings,NetDwellingsRangeFrom,NetDwellingsRangeTo,Deliverable,Notes,FirstAddedDate,LastUpdatedDate,EndDate,site-plan-url,start-date
,,,,,,,,,,,,,,,,,,,http://opendatacommunities.org/id/geography/administration/nmd/E07000062,,BL1,"Site of Mount Pleasant Hospital, Frederick Road, St Leonards",111013.5395,583028.1739,https://www.hastings.gov.uk/content/planning/planning_policy/pdfs/BL1.pdf,1.84,Not owned by a public authority,,Pending decision,,,,,,56,,Refused planning application for half of the proposed site.  Planning applications pending for 3 portions of site,,,,,
,,,,,,,,,,,,,,,,,,,http://opendatacommunities.org/id/geography/administration/nmd/E07000062,,BL2,"123-125 West Hill Road, Hastings (former Malmesbury House)",108898.6841,578919.9156,https://www.hastings.gov.uk/content/planning/planning_policy/pdfs/BL2.pdf,0.7,Not owned by a public authority,,Permissioned,,,,,,117,,,,,,,
,,,,,,,,,,,,,,,,,,,http://opendatacommunities.org/id/geography/administration/nmd/E07000062,,BL3,"Hastings Station Yard (Part), Hastings (also known as Station Plaza, Station Approach, Devonshire Road)",109727.8685,581608.6117,https://www.hastings.gov.uk/content/planning/planning_policy/pdfs/BL3.pdf,0.44,Not owned by a public authority,,Permissioned,,,,,,103,,Site is part of last uncompleted and unimplemented phase of larger station plaza redevelopment,,,,,
,,,,,,,,,,,,,,,,,,,http://opendatacommunities.org/id/geography/administration/nmd/E07000062,,BL4,"Former Observer Building, 53 Cambridge Road, Hastings",109361.4304,581400.5956,https://www.hastings.gov.uk/content/planning/planning_policy/pdfs/BL4.pdf,0.07,Not owned by a public authority,,Permissioned,,,,,,50,,,,,,,
,,,,,,,,,,,,,,,,,,,http://opendatacommunities.org/id/geography/administration/nmd/E07000062,,BL5,"Seaside Road, West St Leonards",108725.7479,578666.5493,https://www.hastings.gov.uk/content/planning/planning_policy/pdfs/BL5.pdf,2.22,Owned by a public authority,,Not permissioned,,,,,,120,,Site part of wider West Marina redevelopmnet area to potentially include mix of commerical residential and leisure uses,,,,,
,,,,,,,,,,,,,,,,,,,http://opendatacommunities.org/id/geography/administration/nmd/E07000062,,BL6,"Broomgrove Redevelopment area, Former Power Station, Ore Valley, Hastings",110881.5496,582574.3212,https://www.hastings.gov.uk/content/planning/planning_policy/pdfs/BL6.pdf,2.35,Owned by a public authority,,Not permissioned,,,,,,50,,,,,,,
,,,,,,,,,,,,,,,,,,,http://opendatacommunities.org/id/geography/administration/nmd/E07000062,,BL7,"12-19 Braybrooke Terrace, Hastings",109686.5049,581292.2831,https://www.hastings.gov.uk/content/planning/planning_policy/pdfs/BL7.pdf,0.23,Not owned by a public authority,,Not permissioned,,,,,,25,,,,,,,
,,,,,,,,,,,,,,,,,,,http://opendatacommunities.org/id/geography/administration/nmd/E07000062,,BL8,"Taxi Office, Site of Former social club, St John's Road, St Leonards",109362.1313,580365.2712,https://www.hastings.gov.uk/content/planning/planning_policy/pdfs/BL8.pdf,0.12,Not owned by a public authority,,Not permissioned,,,,,,30,,,,,,,
,,,,,,,,,,,,,,,,,,,http://opendatacommunities.org/id/geography/administration/nmd/E07000062,,BL10,"Site of former West St Leonards Primary School, Bexhill Road, Hastings",108963.4186,578340.9836,https://www.hastings.gov.uk/content/planning/planning_policy/pdfs/BL10.pdf,3.92,Owned by a public authority,,Permissioned,,,,,,100,,Application for health centre on part of the site,,,,,
,,,,,,,,,,,,,,,,,,,http://opendatacommunities.org/id/geography/administration/nmd/E07000062,,BL11,"Gambier House, 111 West Hill Road, Hastings",108885.4835,579157.8154,https://www.hastings.gov.uk/content/planning/planning_policy/pdfs/BL11.pdf,0.23,Not owned by a public authority,,Not permissioned,,,,,,15,,,,,,,
,,,,,,,,,,,,,,,,,,,http://opendatacommunities.org/id/geography/administration/nmd/E07000062,,BL12,"Site of Hollingsworth Garage, Braybrooke Road, Hastings",109962.9688,581695.531,https://www.hastings.gov.uk/content/planning/planning_policy/pdfs/BL12.pdf,0.4,Not owned by a public authority,,Not permissioned,,,,,,56,,,,,,,
,,,,,,,,,,,,,,,,,,,http://opendatacommunities.org/id/geography/administration/nmd/E07000062,,BL13,"Former Westerleigh School, Hollington Park Close, Hastings",109986.9224,579085.751,https://www.hastings.gov.uk/content/planning/planning_policy/pdfs/BL13.pdf,2.15,Not owned by a public authority,,Not permissioned,,,,,,68,,Demolition has taken place on site,,,,,
,,,,,,,,,,,,,,,,,,,http://opendatacommunities.org/id/geography/administration/nmd/E07000062,,BL15,"West Hill Road Reservoir, St Leonards",108918.6106,579410.8093,https://www.hastings.gov.uk/content/planning/planning_policy/pdfs/BL15.pdf,0.19,Not owned by a public authority,,Not permissioned,,,,,,14,,,,,,,
,,,,,,,,,,,,,,,,,,,http://opendatacommunities.org/id/geography/administration/nmd/E07000062,,BL16,"Mount Denys, Pine Hill & Ridgeway, The Ridge, Hastings",111879.1444,582704.2054,https://www.hastings.gov.uk/content/planning/planning_policy/pdfs/BL16.pdf,0.64,Owned by a public authority,,Not permissioned,,,,,,31,,Demolition has taken place on site,,,,,
,,,,,,,,,,,,,,,,,,,http://opendatacommunities.org/id/geography/administration/nmd/E07000062,,BL17,"Horntye Park, Bohemia Road, Hastings",109859.1917,580586.2413,https://www.hastings.gov.uk/content/planning/planning_policy/pdfs/BL17.pdf,1.01,Not owned by a public authority,,Not permissioned,,,,,,115,,,,,,,
,,,,,,,,,,,,,,,,,,,http://opendatacommunities.org/id/geography/administration/nmd/E07000062,,BL18,"Land at Church Street, Hastings",111351.1056,583291.5729,https://www.hastings.gov.uk/content/planning/planning_policy/pdfs/BL18.pdf,0.35,Not owned by a public authority,,Permissioned,,,,,,5,,Development of site to provide 5 dwellings,,,,,
,,,,,,,,,,,,,,,,,,,http://opendatacommunities.org/id/geography/administration/nmd/E07000062,,BL19,"4-5 Stockleigh Road, St Leonards",109190.8222,580118.2915,https://www.hastings.gov.uk/content/planning/planning_policy/pdfs/BL19.pdf,0.03,Not owned by a public authority,,Pending decision,,,,,,12,,12 new flats on previously developed land,,,,,
,,,,,,,,,,,,,,,,,,,http://opendatacommunities.org/id/geography/administration/nmd/E07000062,,BL21,"37 Charles Road West (former Filsham Nurseries), St Leonards",109904.0078,579621.6682,https://www.hastings.gov.uk/content/planning/planning_policy/pdfs/BL21.pdf,0.26,Not owned by a public authority,,Permissioned,,,,,,7,,"Demolition of existing buildings and ancillary buildings. Erection of 7no residential units, landscape and parking.  Application pending for proposed development of 10 x 3 bedroom dwellinghouses.",,,,,
,,,,,,,,,,,,,,,,,,,http://opendatacommunities.org/id/geography/administration/nmd/E07000062,,BL22,"14 Westfield Lane, St Leonards",113417.852,579996.2386,https://www.hastings.gov.uk/content/planning/planning_policy/pdfs/BL22.pdf,0.33,Owned by a public authority,,Not permissioned,,,,,,14,,,,,,,
,,,,,,,,,,,,,,,,,,,http://opendatacommunities.org/id/geography/administration/nmd/E07000062,,BL27,"12-13 York Buildings, Wellington Place, Hastings",109415.7798,581734.9565,https://www.hastings.gov.uk/content/planning/planning_policy/pdfs/BL27.pdf,0.02,Owned by a public authority,,Permissioned,,,,,,6,,Alteration works to ground floor stair and to three upper storeys of existing building and conversion into six flats for residential accommodation (Application HS/LB/16/00661 also applies),,,,,
,,,,,,,,,,,,,,,,,,,http://opendatacommunities.org/id/geography/administration/nmd/E07000062,,BL28,"The Grove School (Former St Leonards Academy, Darwell Campus, Darwell Close), St Leonards",110419.6918,578477.5481,https://www.hastings.gov.uk/content/planning/planning_policy/pdfs/BL28.pdf,9.4,Owned by a public authority,,Permissioned,,,,,,240,,"Outline application for the erection of up to 210 dwellings (25% affordable) with associated open space, play areas, landscaping and access.",,,,,
,,,,,,,,,,,,,,,,,,,http://opendatacommunities.org/id/geography/administration/nmd/E07000062,,BL31,"1 & 2 Wayside, 490-492 Sedlescombe Road North, St Leonards",112663.4382,579452.663,https://www.hastings.gov.uk/content/planning/planning_policy/pdfs/BL31.pdf,0.19,Owned by a public authority,,Not permissioned,,,,,,5,,,,,,,
,,,,,,,,,,,,,,,,,,,http://opendatacommunities.org/id/geography/administration/nmd/E07000062,,BL33,"309-311 Harold Road, Hastings",110807.9533,583671.8616,https://www.hastings.gov.uk/content/planning/planning_policy/pdfs/BL33.pdf,0.09,Not owned by a public authority,,Permissioned,,,,,,7,,Demolition of the existing buildings and erection of 7 terraced dwellings (6 x two bedroom and 1 x one bedroom) with associated off-street parking,,,,,
,,,,,,,,,,,,,,,,,,,http://opendatacommunities.org/id/geography/administration/nmd/E07000062,,BL34,"Cinques Port Way (Former Stamco Timber Yard and TA Centre), St Leonards",108726.3927,578453.8885,https://www.hastings.gov.uk/content/planning/planning_policy/pdfs/BL34.pdf,0.65,Not owned by a public authority,,Not permissioned,,,,,,25,,,,,,,
,,,,,,,,,,,,,,,,,,,http://opendatacommunities.org/id/geography/administration/nmd/E07000062,,BL35,"Part of the former Spyway School Buildings, Hollington Park School Grounds, Gillsmans Hill, St Leonards",110290.2694,579463.4977,https://www.hastings.gov.uk/content/planning/planning_policy/pdfs/BL35.pdf,0.32,Not owned by a public authority,,Permissioned,,,,,,8,,"Outline application,(seeking approval of Access), for erection of 8 dwellings together with parking and access(amended proposal).  Reserved matters application pending relating to the layout, scale, external appearance of the buildings, means of access and soft and hard landscaping of Planning permission HS/OA/17/00812 - Outline application,(seeking approval of Access), for erection of 8 dwellings together with parking and access(amended proposal).  Previously part of BL14.",,,,,
,,,,,,,,,,,,,,,,,,,http://opendatacommunities.org/id/geography/administration/nmd/E07000062,,BL36,"Former Spyways School (part), Gillsmans Hill, St Leonards",110327.7777,579393.9785,https://www.hastings.gov.uk/content/planning/planning_policy/pdfs/BL36.pdf,0.72,Not owned by a public authority,,Not permissioned,,,,,,25,,Formerly part of BL14.,,,,,
,,,,,,,,,,,,,,,,,,,http://opendatacommunities.org/id/geography/administration/nmd/E07000062,,BL37,381-391 Old London Road (Former Hare & Hounds public house & adjoining car sales yard),111266.2783,583615.4024,https://www.hastings.gov.uk/content/planning/planning_policy/pdfs/BL37.pdf,0.08,Not owned by a public authority,,Pending decision,,,,,,6,,"Planning permission pending for redevelopment to form 10No. self-contained flats, with associated off-road parking",,,,,
,,,,,,,,,,,,,,,,,,,http://opendatacommunities.org/id/geography/administration/nmd/E07000062,,BL38,"107 The Ridge (Simes & Sons), Hastings",111745.7164,583071.2546,https://www.hastings.gov.uk/content/planning/planning_policy/pdfs/BL38.pdf,0.22,Not owned by a public authority,,Not permissioned,,,,,,8,,,,,,,
,,,,,,,,,,,,,,,,,,,http://opendatacommunities.org/id/geography/administration/nmd/E07000062,,BL39,"43-45 Queens Road (upper floors), Hastings",109639.9665,581871.9701,https://www.hastings.gov.uk/content/planning/planning_policy/pdfs/BL39.pdf,0.02,Not owned by a public authority,,Permissioned,,,,,,5,,"Above shop space (first, second and loft space) into 5 self-contained flats, incorporating with ground floor entrance alteration and rear roof dormers construction.",,,,,
,,,,,,,,,,,,,,,,,,,http://opendatacommunities.org/id/geography/administration/nmd/E07000062,,BL41,"West House, 115 West Hill Road",108884.0987,579098.7714,https://www.hastings.gov.uk/content/planning/planning_policy/pdfs/BL41.pdf,0.33,Not owned by a public authority,,Not permissioned,,,,,,,,,,,,,
,,,,,,,,,,,,,,,,,,,http://opendatacommunities.org/id/geography/administration/nmd/E07000062,,BL42,"Bilmore Corner, Battle Road",111225.2154,579816.1959,https://www.hastings.gov.uk/content/planning/planning_policy/pdfs/BL42.pdf,0.06,Not owned by a public authority,,Permissioned,,,,,,2,,Demolition of office unit and erection of detached building comprising 2 flats.  permission for part of site - 2 dwellings,,,,,
