address,address-text,deliverable,end-date,entry-date,hazardous-substances,hectares,latitude,longitude,maximum-net-dwellings,minimum-net-dwellings,notes,organisation,ownership-status,planning-permission-date,planning-permission-history,planning-permission-status,planning-permission-type,site,OrganisationURI,OrganisationLabel,SiteReference,SiteNameAddress,GeoX,GeoY,SiteplanURL,Hectares,OwnershipStatus,HazardousSubstances,PlanningStatus,PermissionType,PermissionDate,PlanningHistory,MinNetDwellings,NetDwellingsRangeFrom,NetDwellingsRangeTo,Deliverable,Notes,FirstAddedDate,LastUpdatedDate,EndDate,site-plan-url,start-date
,,,,,,,,,,,,,,,,,,,http://opendatacommunities.org/id/district-council/adur,Adur District Council,ADCBR8,"Adur Civic Centre, Ham Road, Shoreham-by-Sea",522046,105165,"https://www.adur-worthing.gov.uk/media/media,146445,en.pdf",0.6,owned by a public authority,,not permissioned,,,,75,,120,,"The Council, as landowner, is actively supporting the redevelopment of this former Civic Office site.  Demolition of the building has been completed.",2017-10-16,2019-10-30,,,
,,,,,,,,,,,,,,,,,,,http://opendatacommunities.org/id/district-council/adur,Adur District Council,ADCBR9,"Land at 7-27 Albion Street, Southwick",523749,104996,"https://www.adur-worthing.gov.uk/media/media,146446,en.pdf",0.3,mixed ownership,,pending decision,,,,33,,33,,,2017-10-16,2019-10-30,,,
,,,,,,,,,,,,,,,,,,,http://opendatacommunities.org/id/district-council/adur,Adur District Council,ADCBR10,"Laundry, Alma Street, Lancing",518177,103839,"https://www.adur-worthing.gov.uk/media/media,146447,en.pdf",0.09,not owned by a public authority,,not permissioned,,,,13,,13,,A planning application has been received but not yet registered as additional information is required.,2017-10-16,2019-10-30,,,
,,,,,,,,,,,,,,,,,,,http://opendatacommunities.org/id/district-council/adur,Adur District Council,ADCBR11,"Community Buildings, Pond Road, Shoreham-by-Sea",521604,105241,"https://www.adur-worthing.gov.uk/media/media,146448,en.pdf",0.57,owned by a public authority,,not permissioned,,,,27,,27,,The site is in multiple public ownership.  Significant progress has been made to deliver a mixed use scheme to include approximately 27 dwellings.,2017-10-16,2019-10-30,,,
,,,,,,,,,,,,,,,,,,,http://opendatacommunities.org/id/district-council/adur,Adur District Council,ADCBR12,"Land at Eastbrook Primary School, Manor Hall Road, Southwick",524811,105522,"https://www.adur-worthing.gov.uk/media/media,146449,en.pdf",0.7,owned by a public authority,,not permissioned,,,,36,,36,,The site is in public ownership and has been declared surplus to requirements and is vacant.,2017-10-16,2019-10-30,,,
,,,,,,,,,,,,,,,,,,,http://opendatacommunities.org/id/district-council/adur,Adur District Council,ADCBR13,"5 Brighton Road, Shoreham-by-Sea",523319,104938,"https://www.adur-worthing.gov.uk/media/media,146450,en.pdf",0.47,not owned by a public authority,,not permissioned,,,,45,,90,,This site lies within the Shoreham Harbour Regeneration Area identified as a broad location for change. The regeneration of Shoreham Harbour has been a long term aspiration and and the redevelopment of the Western Harbour Arm is recognised as a priority for the Shoreham Harbour Partnership.  The principle of redeveloping this site for a residential use is consistent with Joint Area Action Plan policies.,2017-10-16,2019-10-30,,,
,,,,,,,,,,,,,,,,,,,http://opendatacommunities.org/id/district-council/adur,Adur District Council,ADCBR15,"Kingston Wharf, Brighton Road, Shoreham-by-Sea",523125,105002,"https://www.adur-worthing.gov.uk/media/media,146452,en.pdf",1.5,not owned by a public authority,,not permissioned,,,,140,,140,,This site lies within the Shoreham Harbour Regeneration Area identified as a broad location for change. The regeneration of Shoreham Harbour has been a long term aspiration and and the redevelopment of the Western Harbour Arm is recognised as a priority for the Shoreham Harbour Partnership.  The principle of redeveloping this site for a residential use is consistent with Joint Area Action Plan policies.,2017-10-16,2019-10-30,,,
,,,,,,,,,,,,,,,,,,,http://opendatacommunities.org/id/district-council/adur,Adur District Council,ADCBR17,"The Old Town Hall, 142 Albion Street, Southwick",524411,105026,"https://www.adur-worthing.gov.uk/media/media,146454,en.pdf",0.05,not owned by a public authority,,permissioned,,,,6,,6,,,2017-10-16,2019-10-30,,,
,,,,,,,,,,,,,,,,,,,http://opendatacommunities.org/id/district-council/adur,Adur District Council,ADCBR19,"Regal House, 45/49 Penhill Road, Lancing",518409,104074,"https://www.adur-worthing.gov.uk/media/media,151924,en.pdf",0.05,not owned by a public authority,,permissioned,,,,7,,7,,,2018-10-30,2019-10-30,,,
,,,,,,,,,,,,,,,,,,,http://opendatacommunities.org/id/district-council/adur,Adur District Council,ADCBR20,"Lancing Police Station, 101/111 North Road, Lancing",518262,104771,"https://www.adur-worthing.gov.uk/media/media,151925,en.pdf",0.112,owned by a public authority,,not permissioned,,,,24,,24,,,2018-10-30,2019-10-30,,,
,,,,,,,,,,,,,,,,,,,http://opendatacommunities.org/id/district-council/adur,Adur District Council,ADCBR21,"Mannings, Surry Street, Shoreham-by-Sea",521897,105187,"https://www.adur-worthing.gov.uk/media/media,156122,en.pdf",0.28,not owned by a public authority,,pending decision,,,,34,,34,,,2019-10-30,,,,
,,,,,,,,,,,,,,,,,,,http://opendatacommunities.org/id/district-council/adur,Adur District Council,ADCBR22,"The Joyful Whippet, Steepdown Road, Sompting",517353,105739,"https://www.adur-worthing.gov.uk/media/media,156123,en.pdf",0.02,not owned by a public authority,,pending decision,,,,10,,10,,,2019-10-30,,,,
,,,,,,,,,,,,,,,,,,,http://opendatacommunities.org/id/district-council/adur,Adur District Council,ADCBR23,"Land between 76/78a Brighton Road, Lancing",519057,103893,"https://www.adur-worthing.gov.uk/media/media,156124,en.pdf",0.105,not owned by a public authority,,permissioned,,,,6,,6,,,2019-10-30,,,,
,,,,,,,,,,,,,,,,,,,http://opendatacommunities.org/id/district-council/adur,Adur District Council,ADCBR24,"Land east of Manor Close and south of 72/88 Old Shoreham Road, Lancing",518544,105302,"https://www.adur-worthing.gov.uk/media/media,156125,en.pdf",2.04,not owned by a public authority,,not permissioned,,,,35,,35,,"These two sites are considered together and form part of the wider development at New Monks Farm.  They are not however, included in the current planning permission for develoment at New Monks Farm (decision not yet issued) and separate planning applications are anticipated in 2020.",2019-10-30,,,,
,,,,,,,,,,,,,,,,,,,http://opendatacommunities.org/id/district-council/adur,Adur District Council,ADCBR25,"Fuel Tanks, Lennards Wharf, Brighton Road, Shoreham-by-Sea",522648,105066,"https://www.adur-worthing.gov.uk/media/media,156126,en.pdf",0.66,not owned by a public authority,,not permissioned,,,,100,,100,,This site lies within the Shoreham Harbour Regeneration Area identified as a broad location for change. The regeneration of Shoreham Harbour has been a long term aspiration and and the redevelopment of the Western Harbour Arm is recognised as a priority for the Shoreham Harbour Partnership.  The principle of redeveloping this site for a residential use is consistent with Joint Area Action Plan policies.  Progress is being made to bring this site forward.,2019-10-30,,,,
,,,,,,,,,,,,,,,,,,,http://opendatacommunities.org/id/district-council/adur,Adur District Council,ADCBR26,"Paladone, New Wharf, Brighton Road, Shoreham-by-Sea",522467,105011,"https://www.adur-worthing.gov.uk/media/media,156127,en.pdf",0.35,not owned by a public authority,,not permissioned,,,,80,,80,,This site lies within the Shoreham Harbour Regeneration Area identified as a broad location for change. The regeneration of Shoreham Harbour has been a long term aspiration and and the redevelopment of the Western Harbour Arm is recognised as a priority for the Shoreham Harbour Partnership.  The principle of redeveloping this site for a residential use is consistent with Joint Area Action Plan policies.  Progress is being made to bring this site forward.,2018-10-30,,,,
,,,,,,,,,,,,,,,,,,,http://opendatacommunities.org/id/district-council/worthing,Worthing Borough Council,WBCBR2,"Columbia House, Columbia Drive, Worthing",511182,104556,"https://www.adur-worthing.gov.uk/media/media,146482,en.pdf",0.97,not owned by a public authority,,permissioned,,,,102,,,,,2017-10-16,2019-10-30,,,
,,,,,,,,,,,,,,,,,,,http://opendatacommunities.org/id/district-council/worthing,Worthing Borough Council,WBCBR9,"Parade Flats, Field Place Parade, Worthing",512029,103389,"https://www.adur-worthing.gov.uk/media/media,146488,en.pdf",0.109,not owned by a public authority,,permissioned,,,,5,,,,,2017-10-16,2019-10-30,,,
,,,,,,,,,,,,,,,,,,,http://opendatacommunities.org/id/district-council/worthing,Worthing Borough Council,WBCBR12,"Land South of 6 Grand Aenue, Worthing",513408,102113,"https://www.adur-worthing.gov.uk/media/media,146492,en.pdf",0.26,not owned by a public authority,,permissioned,,,,29,,,,,2017-10-16,2019-10-30,,,
,,,,,,,,,,,,,,,,,,,http://opendatacommunities.org/id/district-council/worthing,Worthing Borough Council,WBCBR13,"Teville Gate, Worthing",514653,103296,"https://www.adur-worthing.gov.uk/media/media,146493,en.pdf",1.46,not owned by a public authority,,pending decision,,,,300,,378,,This site is in private ownership. The Council is  working closely with the new owners of this site to bring forward a planning application. The Council has recently been successful in securing funding from the Governments Local Growth Fund with a view to help unlock brownfield sites like the one. The site has been cleared and a planning application is expected in 2019. This site is an Area of Change in the adopted Core Strategy and a proposed allocation in the emerging Draft Worthing Local Plan. It is also a 'Potential' SHLAA site. A planning application has now been submitted.,2017-10-16,2019-10-30,,,
,,,,,,,,,,,,,,,,,,,http://opendatacommunities.org/id/district-council/worthing,Worthing Borough Council,WBCBR15,"Sussex Police Authority, Union Place, Worthing",515006,102838,"https://www.adur-worthing.gov.uk/media/media,146495,en.pdf",0.6,owned by a public authority,,not permissioned,,,,128,,128,,"This privately owned site is an Area of Change in the current Core Strategy (AOC4). The site has increased to include the high street car park and the whole site is now owned by the  Council. The site could deliver a mixed use development comprising residential, commercial and leisure uses. This site is an Area of Change in the adopted Core Strategy and a proposed allocation in the emerging Draft Worthing Local Plan. It is also a 'Potential' SHLAA site.",2017-10-16,2019-10-30,,,
,,,,,,,,,,,,,,,,,,,http://opendatacommunities.org/id/district-council/worthing,Worthing Borough Council,WBCBR16,"Land at Stoke Abbott Road (Civic Centre Site), Worthing",514677,102935,"https://www.adur-worthing.gov.uk/media/media,146496,en.pdf",0.48,in public ownership,,not permissioned,,,,64,,64,,"This is a Council owned site that is considered capable of delivering both housing and health facilities. The Council is working closely with health providers to assess their requirements for the site.  It is considered that the site could deliver a mixed use scheme with residential, a new purpose built health care hub and parking .This site is an Area of Change in the adopted Core Strategy and a proposed allocation in the emerging Draft Worthing Local Plan. It is also a 'Potential' SHLAA site.",2017-10-16,2019-10-30,,,
,,,,,,,,,,,,,,,,,,,http://opendatacommunities.org/id/district-council/worthing,Worthing Borough Council,WBCBR17,"Bus Depot, Library Place, Worthing",515068,102537,"https://www.adur-worthing.gov.uk/media/media,146497,en.pdf",0.68,not owned by a public authority,,not permissioned,,,,60,,60,,This privately owned site is included as an Area of Change in the Core Strategy (AOC2).  The owners have indicated their desire to relocate the bus depot and release this site. Decoy Farm (AOC 12) is a potential relocation site if contamination can be addressed. The Council is actively working with the land owners to bring forward this site. It is considered that the site is suitable for a mix of uses including residential.This site is  proposed AOC in the emerging Draft Worthing Local Plan. It is also a 'Potential' SHLAA site.,2017-10-16,2019-10-30,,,
,,,,,,,,,,,,,,,,,,,http://opendatacommunities.org/id/district-council/worthing,Worthing Borough Council,WBCBR18,"Gas holder site, Lyndhurst Road, Worthing",515235,102955,"https://www.adur-worthing.gov.uk/media/media,146498,en.pdf",1.17,not owned by a public authority,,not permissioned,,,,85,,85,,This site is identified as an Area of Change (AOC7) within the Core Strategy. The site is privately owned by 2 separate owners. The owners have confirmed their intention to redevelop the site with the possibility of a comprehensive development. An application to demolish the redundant gasholder onsite has recently been approved and the gasholder has now been demolished.This site is a proposed AOC in the emerging Draft Worthing Local Plan. It is also a 'Potential' SHLAA site.,2017-10-16,2019-10-30,,,
,,,,,,,,,,,,,,,,,,,http://opendatacommunities.org/id/district-council/worthing,Worthing Borough Council,WBCBR19,"22 Lyndhurst Road, Worthing",515551,102969,"https://www.adur-worthing.gov.uk/media/media,146499,en.pdf",0.201,not owned by a public authority,,not permissioned,,,,24,,24,,"This is a privately owned site. The site was formerly used by the NHS for nurses accommodation. The ground floor was last used on a temporary basis as office space to help decant for an Endoscopy department enlargement. The site was surplus to requirements and was put up for sale as a development opportunity. Permisison has since been granted for temporary homeless accomodation for up to 5 years. However, an application has been submitted and refused (not on principle of residential) and now subject of an appeal for 30 residential units. The site is promotes through the SHLAA as a potential housing site and could deliver at least 24 units.",2017-10-16,2019-10-30,,,
,,,,,,,,,,,,,,,,,,,http://opendatacommunities.org/id/district-council/worthing,Worthing Borough Council,WBCBR20,"Grafton Multi Storey Car Park, Augusta place, Worthing",514700,102370,"https://www.adur-worthing.gov.uk/media/media,146500,en.pdf",0.58,owned by a public authority,,not permissioned,,,,113,,113,,"This is a public owned site. The site is identified as an Area of Change (AOC 3) within the Core Strategy. This site has an opportunity to deliver a mixed used development of commercial, leisure and residential. Recent capacity work indicates that some 113 dwellings could be delivered on this site. The Council is actively supporting the redevelopment of this key site. The site is a proposed allocation in the Draft Worthing Local Plan and a 'Potential' site in the SHLAA.",2017-10-16,2019-10-30,,,
,,,,,,,,,,,,,,,,,,,http://opendatacommunities.org/id/district-council/worthing,Worthing Borough Council,WBCBR21,"7 The Steyne, Worthing",515099,102571,"https://www.adur-worthing.gov.uk/media/media,146501,en.pdf",0.38,not owned by a public authority,,permissioned,,,,10,,,,,2017-10-16,2019-10-30,,,
,,,,,,,,,,,,,,,,,,,http://opendatacommunities.org/id/district-council/worthing,Worthing Borough Council,WBCBR27,"59 Warren Road, Worthing",513820,105235,"https://www.adur-worthing.gov.uk/media/media,151928,en.pdf",0.118,not owned by a public authority,,permissioned,,,,5,,,,,2018-10-30,2019-10-30,,,
,,,,,,,,,,,,,,,,,,,http://opendatacommunities.org/id/district-council/worthing,Worthing Borough Council,WBCBR29,"7-11 Ardsheal Road, Worthing",514431,104560,"https://www.adur-worthing.gov.uk/media/media,151938,en.pdf",0.023,not owned by a public authority,,permissioned,,,,5,,,,,2018-10-30,2019-10-30,,,
,,,,,,,,,,,,,,,,,,,http://opendatacommunities.org/id/district-council/worthing,Worthing Borough Council,WBCBR30,"Wheatsheaf, Richmond Road, Worthing",514891,102817,"https://www.adur-worthing.gov.uk/media/media,151930,en.pdf",0.028,not owned by a public authority,,not permissioned,,,,6,,,,"This is a privately owned site. Planning permission has been refused but it is considered vthat a well designed scheme could deliver 6 units. Therefore, it has been identified in the SHLAA as a potential site.",2018-10-30,2019-10-30,,,
,,,,,,,,,,,,,,,,,,,http://opendatacommunities.org/id/district-council/worthing,Worthing Borough Council,WBCBR31,"12 Shelley Road, Worthing",514632,102599,"https://www.adur-worthing.gov.uk/media/media,151931,en.pdf",0.037,not owned by a public authority,,permissioned,,,,6,,,,,2018-10-30,2019-10-30,,,
,,,,,,,,,,,,,,,,,,,http://opendatacommunities.org/id/district-council/worthing,Worthing Borough Council,WBCBR33,"Jubilee Hall and 10 Greenland Road, Worthing",512183,105154,"https://www.adur-worthing.gov.uk/media/media,151933,en.pdf",0.214,not owned by a public authority,,pending decision,,,,14,,,,The site is pending decision but officers have recommended approval . The SHLAA assessesd the site as a potential site.,2018-10-30,2019-10-30,,,
,,,,,,,,,,,,,,,,,,,http://opendatacommunities.org/id/district-council/worthing,Worthing Borough Council,WBCBR34,"Newlife Church, 113 Salvington Road, Worthing",512244,105188,"https://www.adur-worthing.gov.uk/media/media,151934,en.pdf",0.063,not owned by a public authority,,pending decision,,,,7,,,,The site is pending decision but officers have recommended approval . The SHLAA assessesd the site as a potential site.,2018-10-30,2019-10-30,,,
,,,,,,,,,,,,,,,,,,,http://opendatacommunities.org/id/district-council/worthing,Worthing Borough Council,WBCBR35,"Caravan Club, Titnore Way, Worthing",510479,104607,"https://www.adur-worthing.gov.uk/media/media,151935,en.pdf",2.7,owned by a public authority,,not permissioned,,,,75,,,,"The site being  proposed as a residential allocation in the Draft Worthing Local Plan 2018. In conclusion, it is considered that this site suitable, available, achievable with an expected delivery within the next five years and is therefore a 'potential' site for the SHLAA study.",2018-10-30,2019-10-30,,,
,,,,,,,,,,,,,,,,,,,http://opendatacommunities.org/id/district-council/worthing,Worthing Borough Council,WBCBR38,"Centenary House, Worthing",512651,104337,"https://www.adur-worthing.gov.uk/media/media,151936,en.pdf",3.88,owned by a public authority,,not permissioned,,,,100,,,,"The site being  proposed as a mixed use site (employment and residential uses) as an Area of Change within the  Draft Worthing Local Plan 2018. In conclusion, it is considered that this site suitable, available, achievable and deliverable and is therefore a 'potential' site for the SHLAA study.",2018-10-30,2019-10-30,,,
,,,,,,,,,,,,,,,,,,,http://opendatacommunities.org/id/district-council/worthing,Worthing Borough Council,WBCBR39,"HMRC, Barrington Road, Worthing",512570,103088,"https://www.adur-worthing.gov.uk/media/media,151937,en.pdf",6.8,not owned by a public authority,,not permissioned,,,,250,,,,"The site being  proposed as a mixed use site (employment and residential uses) as an Area of Change within the  Draft Worthing Local Plan 2018. In conclusion, it is considered that this site suitable, available, achievable and deliverable and is therefore a 'potential' site for the SHLAA study.",2018-10-30,2019-10-30,,,
,,,,,,,,,,,,,,,,,,,http://opendatacommunities.org/id/district-council/worthing,Worthing Borough Council,WBCBR41,"105-109 Montague Street, Worthing",514596,102404,"https://www.adur-worthing.gov.uk/media/media,156128,en.pdf",0.08,not owned by a public authority,,permissioned,,,,26,,26,,,2019-10-30,,,,
,,,,,,,,,,,,,,,,,,,http://opendatacommunities.org/id/district-council/worthing,Worthing Borough Council,WBCBR42,"EDF Energy Plc, Southdownview Road, Worthing",515585,104346,"https://www.adur-worthing.gov.uk/media/media,156129,en.pdf",0.8,not owned by a public authority,,permissioned,,,,78,,78,,,2019-10-30,,,,
,,,,,,,,,,,,,,,,,,,http://opendatacommunities.org/id/district-council/worthing,Worthing Borough Council,WBCBR43,"19 - 23 South Street, Worthing",514906,102522,"https://www.adur-worthing.gov.uk/media/media,156130,en.pdf",0.33,not owned by a public authority,,permissioned,,,,45,,45,,,2019-10-30,,,,
,,,,,,,,,,,,,,,,,,,http://opendatacommunities.org/id/district-council/worthing,Worthing Borough Council,WBCBR44,"32 - 36 South Street, Worthing",514962,102535,"https://www.adur-worthing.gov.uk/media/media,156131,en.pdf",0.038,not owned by a public authority,,permissioned,,,,8,,8,,,2019-10-30,,,,
,,,,,,,,,,,,,,,,,,,http://opendatacommunities.org/id/district-council/worthing,Worthing Borough Council,WBCBR45,"151 Rowlands Road, Worthing",513517,102314,"https://www.adur-worthing.gov.uk/media/media,156132,en.pdf",0.21,owned by a public authority,,permissioned,,,,19,,19,,,2019-10-30,,,,
