address,address-text,deliverable,end-date,entry-date,hazardous-substances,hectares,latitude,longitude,maximum-net-dwellings,minimum-net-dwellings,notes,organisation,ownership-status,planning-permission-date,planning-permission-history,planning-permission-status,planning-permission-type,site,OrganisationURI,OrganisationLabel,SiteReference,SiteNameAddress,GeoX,GeoY,SiteplanURL,Hectares,OwnershipStatus,HazardousSubstances,PlanningStatus,PermissionType,PermissionDate,PlanningHistory,MinNetDwellings,NetDwellingsRangeFrom,NetDwellingsRangeTo,Deliverable,Notes,FirstAddedDate,LastUpdatedDate,EndDate,site-plan-url,start-date
,,,,,,,,,,,,,,,,,,,http://opendatacommunities.org/id/district-council/winchester,Winchester City Council,BLR17/01,Old Station Yard  Oxford Road,446530,139531,http://winch.maps.arcgis.com/apps/webappviewer/index.html?id=4c4379c8d2c14f8c81033b4ffd1d4a3b,0.9,not owned by a public authority,,permissioned,,,,27,,,,,2017-12-01,2017-12-08,,,
,,,,,,,,,,,,,,,,,,,http://opendatacommunities.org/id/district-council/winchester,Winchester City Council,BLR17/02,63  Andover Road,447560,130729,http://winch.maps.arcgis.com/apps/webappviewer/index.html?id=4c4379c8d2c14f8c81033b4ffd1d4a3b,0.29,not owned by a public authority,,permissioned,,,,10,,,,,2017-12-01,2017-12-08,,,
,,,,,,,,,,,,,,,,,,,http://opendatacommunities.org/id/district-council/winchester,Winchester City Council,BLR17/03,Trafalgar House  Trafalgar Street,447859,129503,http://winch.maps.arcgis.com/apps/webappviewer/index.html?id=4c4379c8d2c14f8c81033b4ffd1d4a3b,0.06,not owned by a public authority,,permissioned,,,,26,,,,,2017-12-01,2017-12-08,,,
,,,,,,,,,,,,,,,,,,,http://opendatacommunities.org/id/district-council/winchester,Winchester City Council,BLR17/04,12-13 Capitol House Bridge Street,448712,129291,http://winch.maps.arcgis.com/apps/webappviewer/index.html?id=4c4379c8d2c14f8c81033b4ffd1d4a3b,0.05,not owned by a public authority,,permissioned,,,,5,,,,,2017-12-01,2017-12-08,,,
,,,,,,,,,,,,,,,,,,,http://opendatacommunities.org/id/district-council/winchester,Winchester City Council,BLR17/05,12-13 Capitol House Bridge Street,448712,129291,http://winch.maps.arcgis.com/apps/webappviewer/index.html?id=4c4379c8d2c14f8c81033b4ffd1d4a3b,0.05,not owned by a public authority,,permissioned,,,,11,,,,,2017-12-01,2017-12-08,,,
,,,,,,,,,,,,,,,,,,,http://opendatacommunities.org/id/district-council/winchester,Winchester City Council,BLR17/06,Co-Operative Group Ember House Moorside Road,449296,130616,http://winch.maps.arcgis.com/apps/webappviewer/index.html?id=4c4379c8d2c14f8c81033b4ffd1d4a3b,0.11,not owned by a public authority,,permissioned,,,,12,,,,,2017-12-01,2017-12-08,,,
,,,,,,,,,,,,,,,,,,,http://opendatacommunities.org/id/district-council/winchester,Winchester City Council,BLR17/07,The Brook Clewers Hill,456153,115813,http://winch.maps.arcgis.com/apps/webappviewer/index.html?id=4c4379c8d2c14f8c81033b4ffd1d4a3b,0.33,not owned by a public authority,,permissioned,,,,9,,,,,2017-12-01,2017-12-08,,,
,,,,,,,,,,,,,,,,,,,http://opendatacommunities.org/id/district-council/winchester,Winchester City Council,BLR17/08,51 Denmead Baptist Church Anmore Road,466251,111956,http://winch.maps.arcgis.com/apps/webappviewer/index.html?id=4c4379c8d2c14f8c81033b4ffd1d4a3b,0.16,not owned by a public authority,,permissioned,,,,10,,,,,2017-12-01,2017-12-08,,,
,,,,,,,,,,,,,,,,,,,http://opendatacommunities.org/id/district-council/winchester,Winchester City Council,BLR17/09,15 Chilbolton Avenue,446425,129524,http://winch.maps.arcgis.com/apps/webappviewer/index.html?id=4c4379c8d2c14f8c81033b4ffd1d4a3b,0.5,not owned by a public authority,,permissioned,,,,5,,,,,2017-12-01,2017-12-08,,,
,,,,,,,,,,,,,,,,,,,http://opendatacommunities.org/id/district-council/winchester,Winchester City Council,BLR17/10,Garage Court  Bailey Close,446518,128740,http://winch.maps.arcgis.com/apps/webappviewer/index.html?id=4c4379c8d2c14f8c81033b4ffd1d4a3b,0.06,owned by a public authority,,permissioned,,,,5,,,,,2017-12-01,2017-12-08,,,
,,,,,,,,,,,,,,,,,,,http://opendatacommunities.org/id/district-council/winchester,Winchester City Council,BLR17/11,"Winchester Snooker Centre, Radley House 8 St Cross Road",447817,129124,http://winch.maps.arcgis.com/apps/webappviewer/index.html?id=4c4379c8d2c14f8c81033b4ffd1d4a3b,0.09,not owned by a public authority,,permissioned,,,,6,,,,,2017-12-01,2017-12-08,,,
,,,,,,,,,,,,,,,,,,,http://opendatacommunities.org/id/district-council/winchester,Winchester City Council,BLR17/12,Regency House 2 - 4 Southgate Street Winchester Hampshire SO23 9EF,447927,129480,http://winch.maps.arcgis.com/apps/webappviewer/index.html?id=4c4379c8d2c14f8c81033b4ffd1d4a3b,0.03,not owned by a public authority,,permissioned,,,,8,,,,,2017-12-01,2017-12-08,,,
,,,,,,,,,,,,,,,,,,,http://opendatacommunities.org/id/district-council/winchester,Winchester City Council,BLR17/13,Canister House 2 Exchange Square,448063,129800,http://winch.maps.arcgis.com/apps/webappviewer/index.html?id=4c4379c8d2c14f8c81033b4ffd1d4a3b,0.04,not owned by a public authority,,permissioned,,,,9,,,,,2017-12-01,2017-12-08,,,
,,,,,,,,,,,,,,,,,,,http://opendatacommunities.org/id/district-council/winchester,Winchester City Council,BLR17/14,9-11  High Street,448324,129380,http://winch.maps.arcgis.com/apps/webappviewer/index.html?id=4c4379c8d2c14f8c81033b4ffd1d4a3b,0.08,not owned by a public authority,,permissioned,,,,7,,,,,2017-12-01,2017-12-08,,,
,,,,,,,,,,,,,,,,,,,http://opendatacommunities.org/id/district-council/winchester,Winchester City Council,BLR17/15,"Cunningham House, Claylands Road",454761,117714,http://winch.maps.arcgis.com/apps/webappviewer/index.html?id=4c4379c8d2c14f8c81033b4ffd1d4a3b,0.18,not owned by a public authority,,permissioned,,,,5,,,,,2017-12-01,2017-12-08,,,
,,,,,,,,,,,,,,,,,,,http://opendatacommunities.org/id/district-council/winchester,Winchester City Council,BLR17/16,11-16 Garage Block Mitford Road,458006,132014,http://winch.maps.arcgis.com/apps/webappviewer/index.html?id=4c4379c8d2c14f8c81033b4ffd1d4a3b,0.35,owned by a public authority,,permissioned,,,,8,,,,,2017-12-01,2017-12-08,,,
,,,,,,,,,,,,,,,,,,,http://opendatacommunities.org/id/district-council/winchester,Winchester City Council,BLR17/17,"Laurel House, Station Approach",458686,132500,http://winch.maps.arcgis.com/apps/webappviewer/index.html?id=4c4379c8d2c14f8c81033b4ffd1d4a3b,0.12,not owned by a public authority,,permissioned,,,,7,,,,,2017-12-01,2017-12-08,,,
,,,,,,,,,,,,,,,,,,,http://opendatacommunities.org/id/district-council/winchester,Winchester City Council,BLR17/18,"Brymor House & Ocean House Parklands Business Park, Forest Rd",465505,111111,http://winch.maps.arcgis.com/apps/webappviewer/index.html?id=4c4379c8d2c14f8c81033b4ffd1d4a3b,0.5,not owned by a public authority,,permissioned,,,,24,,,,,2017-12-01,2017-12-08,,,
,,,,,,,,,,,,,,,,,,,http://opendatacommunities.org/id/district-council/winchester,Winchester City Council,BLR17/19,Acer House Parklands Business Park Forest Road Denmead,465486,111017,http://winch.maps.arcgis.com/apps/webappviewer/index.html?id=4c4379c8d2c14f8c81033b4ffd1d4a3b,0.23,not owned by a public authority,,permissioned,,,,8,,,,,2017-12-01,2017-12-08,,,
,,,,,,,,,,,,,,,,,,,http://opendatacommunities.org/id/district-council/winchester,Winchester City Council,BLR17/20,"16 Edgar Road, Winchester, SO23 9TW",128877,128877,http://winch.maps.arcgis.com/apps/webappviewer/index.html?id=4c4379c8d2c14f8c81033b4ffd1d4a3b,0.21,not owned by a public authority,,not permissioned,,,,10,,,,,2017-12-01,2017-12-08,,,
,,,,,,,,,,,,,,,,,,,http://opendatacommunities.org/id/district-council/winchester,Winchester City Council,BLR17/21,"St Peter's, Hyde Abbey Road Car Park, Winchester",448321,129826,http://winch.maps.arcgis.com/apps/webappviewer/index.html?id=4c4379c8d2c14f8c81033b4ffd1d4a3b,0.43,not owned by a public authority,,not permissioned,,,,6,,,,,2017-12-01,2017-12-08,,,
,,,,,,,,,,,,,,,,,,,http://opendatacommunities.org/id/district-council/winchester,Winchester City Council,BLR17/22,"Kings Worthy Court, Kings Worthy, SO23 7QA",449159,132470,http://winch.maps.arcgis.com/apps/webappviewer/index.html?id=4c4379c8d2c14f8c81033b4ffd1d4a3b,0.53,not owned by a public authority,,not permissioned,,,,14,,,,,2017-12-01,2017-12-08,,,
,,,,,,,,,,,,,,,,,,,http://opendatacommunities.org/id/district-council/winchester,Winchester City Council,BLR17/23,"Land At the end of West End Close, Winchester",447276,129688,http://winch.maps.arcgis.com/apps/webappviewer/index.html?id=4c4379c8d2c14f8c81033b4ffd1d4a3b,0.25,not owned by a public authority,,not permissioned,,,,13,,,,,2017-12-01,2017-12-08,,,
,,,,,,,,,,,,,,,,,,,http://opendatacommunities.org/id/district-council/winchester,Winchester City Council,BLR17/24,"Land off Firmstone Road, Winchester",449085,129608,http://winch.maps.arcgis.com/apps/webappviewer/index.html?id=4c4379c8d2c14f8c81033b4ffd1d4a3b,0.24,not owned by a public authority,,not permissioned,,,,12,,,,,2017-12-01,2017-12-08,,,
,,,,,,,,,,,,,,,,,,,http://opendatacommunities.org/id/district-council/winchester,Winchester City Council,BLR17/25,"Clayfield Park Homes Ltd, Main Road, Colden Common",448134,122200,http://winch.maps.arcgis.com/apps/webappviewer/index.html?id=4c4379c8d2c14f8c81033b4ffd1d4a3b,2.05,not owned by a public authority,,not permissioned,,,,40,,,,,2017-12-01,2017-12-08,,,
,,,,,,,,,,,,,,,,,,,http://opendatacommunities.org/id/district-council/winchester,Winchester City Council,BLR17/26,"Malt Lane, Bishops Waltham",117457,117457,http://winch.maps.arcgis.com/apps/webappviewer/index.html?id=4c4379c8d2c14f8c81033b4ffd1d4a3b,0.36,not owned by a public authority,,not permissioned,,,,18,,,,,2017-12-01,2017-12-08,,,
,,,,,,,,,,,,,,,,,,,http://opendatacommunities.org/id/district-council/winchester,Winchester City Council,BLR17/27,"Royal Hampshire County Hospital B, Winchester",447184,129386,http://winch.maps.arcgis.com/apps/webappviewer/index.html?id=4c4379c8d2c14f8c81033b4ffd1d4a3b,0.53,owned by a public authority,,not permissioned,,,,24,,,,,2017-12-01,2017-12-08,,,
,,,,,,,,,,,,,,,,,,,http://opendatacommunities.org/id/district-council/winchester,Winchester City Council,BLR17/28,"Royal Hampshire County Hospital E, Winchester",447092,129379,http://winch.maps.arcgis.com/apps/webappviewer/index.html?id=4c4379c8d2c14f8c81033b4ffd1d4a3b,0.75,owned by a public authority,,not permissioned,,,,34,,,,,2017-12-01,2017-12-08,,,
,,,,,,,,,,,,,,,,,,,http://opendatacommunities.org/id/district-council/winchester,Winchester City Council,BLR17/29,"Behind  Trussell Crescent, Winchester",446575,131089,http://winch.maps.arcgis.com/apps/webappviewer/index.html?id=4c4379c8d2c14f8c81033b4ffd1d4a3b,0.20,owned by a public authority,,not permissioned,,,,12,,,,,2017-12-01,2017-12-08,,,
,,,,,,,,,,,,,,,,,,,http://opendatacommunities.org/id/district-council/winchester,Winchester City Council,BLR17/30,"Telephone Exchange, Station Road, New Alresford, SO32 2LX",458763,132612,http://winch.maps.arcgis.com/apps/webappviewer/index.html?id=4c4379c8d2c14f8c81033b4ffd1d4a3b,0.25,not owned by a public authority,,not permissioned,,,,7,,,,,2017-12-01,2017-12-08,,,
,,,,,,,,,,,,,,,,,,,http://opendatacommunities.org/id/district-council/winchester,Winchester City Council,BLR17/31,Cornerways Church Lane Kingsworthy,449041,132648,http://winch.maps.arcgis.com/apps/webappviewer/index.html?id=4c4379c8d2c14f8c81033b4ffd1d4a3b,1.27,not owned by a public authority,,not permissioned,,,,31,,,,,2017-12-01,2017-12-08,,,
,,,,,,,,,,,,,,,,,,,http://opendatacommunities.org/id/district-council/winchester,Winchester City Council,BLR17/32,The Dean Housing Allocation,458463,132754,http://winch.maps.arcgis.com/apps/webappviewer/index.html?id=4c4379c8d2c14f8c81033b4ffd1d4a3b,2.13,not owned by a public authority,,not permissioned,,,,75,,,,,2017-12-01,2017-12-08,,,
