address,address-text,deliverable,end-date,entry-date,hazardous-substances,hectares,latitude,longitude,maximum-net-dwellings,minimum-net-dwellings,notes,organisation,ownership-status,planning-permission-date,planning-permission-history,planning-permission-status,planning-permission-type,site,OrganisationURI,OrganisationLabel,SiteReference,SiteNameAddress,GeoX,GeoY,SiteplanURL,Hectares,OwnershipStatus,HazardousSubstances,PlanningStatus,PermissionType,PermissionDate,PlanningHistory,MinNetDwellings,NetDwellingsRangeFrom,NetDwellingsRangeTo,Deliverable,Notes,FirstAddedDate,LastUpdatedDate,EndDate,site-plan-url,start-date
,,,,,,,,,,,,,,,,,,,http://opendatacommunities.org/id/unitary-authority/halton,Halton Borough Council,H1032,"""Busway and Former Petrol Station, Bridge Street, Runcorn""",351675,382951,http://map.halton.gov.uk/WebMapLayers8External/map.aspx?MapName=Linked&overlayname=Brownfield%20Register&schemacolumn=Ref&resolution=1&UID=H1032,0.9,Mixed ownership,,Not permissioned,,,,24,,32,,Potential capacity based on a density multiplier with the minimum based on 30dph and maximum at 40dph. Physical constraints identified include woodland and potentially contaminated land.,2017-12-31,2017-12-31,,,
,,,,,,,,,,,,,,,,,,,http://opendatacommunities.org/id/unitary-authority/halton,Halton Borough Council,H1077,"""Highways Agency Depot, Chester Road, Preston Brook""",356632,380495,http://map.halton.gov.uk/WebMapLayers8External/map.aspx?MapName=Linked&overlayname=Brownfield%20Register&schemacolumn=Ref&resolution=1&UID=H1077,0.88,Owned by a public authority,,Not permissioned,,,,20,,30,,"Site is currently in use. Minimum capacity to allow for other uses, whilst maximum capacity is based on a density multiplier at 35dph. The relocation of the existing depot would be a constraint to the development of the site.",2017-12-31,2017-12-31,,,
,,,,,,,,,,,,,,,,,,,http://opendatacommunities.org/id/unitary-authority/halton,Halton Borough Council,H1079,"""Land to the south of Old Quay Street and Mason Street, Runcorn""",352028,383151,http://map.halton.gov.uk/WebMapLayers8External/map.aspx?MapName=Linked&overlayname=Brownfield%20Register&schemacolumn=Ref&resolution=1&UID=H1079,1.46,Owned by a public authority,,Not permissioned,,,,39,,52,,Potential capacity based on a density multiplier with the minimum based on 30dph and maximum at 40dph. Potentially contaminated land within the site from former use as a brickworks and due to landfilling within part of the site.,2017-12-31,2017-12-31,,,
,,,,,,,,,,,,,,,,,,,http://opendatacommunities.org/id/unitary-authority/halton,Halton Borough Council,H1085,"""Paramount Foods, Halton Road, Runcorn""",352473,382666,http://map.halton.gov.uk/WebMapLayers8External/map.aspx?MapName=Linked&overlayname=Brownfield%20Register&schemacolumn=Ref&resolution=1&UID=H1085,3.71,Not owned by a public authority,,Permissioned,,,,53,,118,,Potential capacity based on a density multiplier with the minimum based on the planning permission for part of the site and the maximum at 40dph across the site. Physical constraints identified include potentially contaminated land.,2017-12-31,2017-12-31,,,
,,,,,,,,,,,,,,,,,,,http://opendatacommunities.org/id/unitary-authority/halton,Halton Borough Council,H1104,"""Former Polar Ford and surrounds, Victoria Road, Runcorn""",351779,382863,http://map.halton.gov.uk/WebMapLayers8External/map.aspx?MapName=Linked&overlayname=Brownfield%20Register&schemacolumn=Ref&resolution=1&UID=H1104,1.44,Not owned by a public authority,,Not permissioned,,,,20,,20,,Potential capacity reflects the available part of site. Physical constraints identified include potentially contaminated land.,2017-12-31,2017-12-31,,,
,,,,,,,,,,,,,,,,,,,http://opendatacommunities.org/id/unitary-authority/halton,Halton Borough Council,H1109,"""East Lane House, East Lane, Runcorn""",353805,381356,http://map.halton.gov.uk/WebMapLayers8External/map.aspx?MapName=Linked&overlayname=Brownfield%20Register&schemacolumn=Ref&resolution=1&UID=H1109,1.14,Not owned by a public authority,,Permissioned,,,,30,,448,,Potential capacity based on a density multiplier with the minimum based on 30dph and the maximum capacity based on the extant Prior Approval for the site. The site is currently developed but derelict.,2017-12-31,2017-12-31,,,
,,,,,,,,,,,,,,,,,,,http://opendatacommunities.org/id/unitary-authority/halton,Halton Borough Council,H1118,"""Brosley House, Widnes Road, Widnes""",351455,385522,http://map.halton.gov.uk/WebMapLayers8External/map.aspx?MapName=Linked&overlayname=Brownfield%20Register&schemacolumn=Ref&resolution=1&UID=H1118,0.33,Not owned by a public authority,,Not permissioned,,,,9,,16,,Potential capacity based on a density multiplier with the minimum based on 30dph and maximum at 50dph. Site is developed. No other known constraints on the site.,2017-12-31,2017-12-31,,,
,,,,,,,,,,,,,,,,,,,http://opendatacommunities.org/id/unitary-authority/halton,Halton Borough Council,H1120,"""The Foundry, Lugsdale Road, Widnes""",351751,385432,http://map.halton.gov.uk/WebMapLayers8External/map.aspx?MapName=Linked&overlayname=Brownfield%20Register&schemacolumn=Ref&resolution=1&UID=H1120,0.39,Not owned by a public authority,,Not permissioned,,,,11,,15,,Potential capacity based on a density multiplier with the minimum based on 30dph and maximum at 40dph. Potentially contaminated land within the site.,2017-12-31,2018-10-26,,,
,,,,,,,,,,,,,,,,,,,http://opendatacommunities.org/id/unitary-authority/halton,Halton Borough Council,H1155,"""Former Polar Ford Second Hand Cars Site, Victoria Road, Runcorn""",351842,382812,http://map.halton.gov.uk/WebMapLayers8External/map.aspx?MapName=Linked&overlayname=Brownfield%20Register&schemacolumn=Ref&resolution=1&UID=H1155,0.37,Not owned by a public authority,,Not permissioned,,,,11,,18,,Potential capacity based on a density multiplier with the minimum based on 30dph and maximum at 50dph. Potentially contaminated land within the site.,2017-12-31,2017-12-31,,,
,,,,,,,,,,,,,,,,,,,http://opendatacommunities.org/id/unitary-authority/halton,Halton Borough Council,H1159,"""Former Express Dairies Site, Sewell Street, Runcorn""",351972,382798,http://map.halton.gov.uk/WebMapLayers8External/map.aspx?MapName=Linked&overlayname=Brownfield%20Register&schemacolumn=Ref&resolution=1&UID=H1159,0.66,Not owned by a public authority,,Not permissioned,,,,17,,81,,Potential capacity based on a density multiplier with the minimum based on 30dph and maximum based on SHLAA capacity. Lapsed planning permission 11/00018/FUL granted 12/12/2012.,2017-12-31,2017-12-31,,,
,,,,,,,,,,,,,,,,,,,http://opendatacommunities.org/id/unitary-authority/halton,Halton Borough Council,H1177,"""Site of former Rathbone Institute, Waterloo Road, Runcorn""",351023,383074,http://map.halton.gov.uk/WebMapLayers8External/map.aspx?MapName=Linked&overlayname=Brownfield%20Register&schemacolumn=Ref&resolution=1&UID=H1177,0.65,Mixed ownership,,Not permissioned,,,,17,,29,,"Potential capacity based on a density multiplier with the minimum based on 30dph and maximum at 50dph. Physical constraints identified include heritage assets and PADHI pipelines. 13/00429/DEM - permission for demolition of building, now demolished.",2017-12-31,2017-12-31,,,
,,,,,,,,,,,,,,,,,,,http://opendatacommunities.org/id/unitary-authority/halton,Halton Borough Council,H1195,"""Former Eternit, Derby Road, Widnes""",352159,387589,http://map.halton.gov.uk/WebMapLayers8External/map.aspx?MapName=Linked&overlayname=Brownfield%20Register&schemacolumn=Ref&resolution=1&UID=H1195,5.24,Not owned by a public authority,,Permissioned,,,,110,,116,,Potential capacity based on a density multiplier with the minimum based on 30dph and maximum based on the extant Planning Permission. Potentially contaminated land identified on this site. Site now Under Construction for Housing.,2017-12-31,2017-12-31,,,
,,,,,,,,,,,,,,,,,,,http://opendatacommunities.org/id/unitary-authority/halton,Halton Borough Council,H1201,"""Castle View House, East Lane, Runcorn""",353851,381438,http://map.halton.gov.uk/WebMapLayers8External/map.aspx?MapName=Linked&overlayname=Brownfield%20Register&schemacolumn=Ref&resolution=1&UID=H1201,1.53,Not owned by a public authority,,Permissioned,,,,54,,248,,"Potential capacity based on a density multiplier with the minimum based on 30dph and maximum based on the extant Prior Approval. Physical constraints identified include trees and woodland. Prior approval for 248 dwellings (17/00375/P3JPA), Site now under construction.",2017-12-31,2018-10-26,,,
,,,,,,,,,,,,,,,,,,,http://opendatacommunities.org/id/unitary-authority/halton,Halton Borough Council,H1237,"""Widnes Films Ltd., Warrington Road""",352514,385869,http://map.halton.gov.uk/WebMapLayers8External/map.aspx?MapName=Linked&overlayname=Brownfield%20Register&schemacolumn=Ref&resolution=1&UID=H1237,1.76,Not owned by a public authority,,Permissioned,,,,47,,69,,Potential capacity based on a density multiplier with the minimum based on 30dph and maximum based on the extant Planning Application.,2018-10-26,2018-10-26,,,
,,,,,,,,,,,,,,,,,,,http://opendatacommunities.org/id/unitary-authority/halton,Halton Borough Council,H1275,"""RMC House, Terrace Road, West Bank, Widnes""",351386,383887,http://map.halton.gov.uk/WebMapLayers8External/map.aspx?MapName=Linked&overlayname=Brownfield%20Register&schemacolumn=Ref&resolution=1&UID=H1275,0.51,Not owned by a public authority,,Permissioned,,,,13,,92,,Potential capacity based on a density multiplier with the minimum based on 30dph and maximum in line with planning permission. Contamination and heritage constraints have been identified.,2017-12-31,2017-12-31,,,
,,,,,,,,,,,,,,,,,,,http://opendatacommunities.org/id/unitary-authority/halton,Halton Borough Council,H1277,"""The Deck, Mersey Road, Runcorn""",351546,383209,http://map.halton.gov.uk/WebMapLayers8External/map.aspx?MapName=Linked&overlayname=Brownfield%20Register&schemacolumn=Ref&resolution=1&UID=H1277,2.36,Not owned by a public authority,,Permissioned,,,,27,,178,,"Site under construction, with 6 of the 10 apartment buildings completed. Site could still accommodate the remaining 4 buildings. Potential capacity based on a density multiplier with the minimum based on 30dph on the land remaining and maximum  based on the 178 dwellings remaining on extant planning permission.",2017-12-31,2017-12-31,,,
,,,,,,,,,,,,,,,,,,,http://opendatacommunities.org/id/unitary-authority/halton,Halton Borough Council,H1280,"""Land Opposite Motherwell Close, Lanark Gardens, Widnes""",350354,387406,http://map.halton.gov.uk/WebMapLayers8External/map.aspx?MapName=Linked&overlayname=Brownfield%20Register&schemacolumn=Ref&resolution=1&UID=H1280,0.34,Not owned by a public authority,,Not permissioned,,,,10,,10,,Potential capacity based on a density multiplier of 30dph. Current permission for a medical centre. Previous permission now lapsed (11/00197/FUL) for 12 dwellings.,2017-12-31,2017-12-31,,,
,,,,,,,,,,,,,,,,,,,http://opendatacommunities.org/id/unitary-authority/halton,Halton Borough Council,H1288,"""Land at 79 - 83 High Street, Runcorn Old Town""",351126,382927,http://map.halton.gov.uk/WebMapLayers8External/map.aspx?MapName=Linked&overlayname=Brownfield%20Register&schemacolumn=Ref&resolution=1&UID=H1288,0.88,Not owned by a public authority,,Not permissioned,,,,23,,31,,Potential capacity based on a density multiplier with the minimum based on 30dph and maximum based of 40dph in line with nearby town centre.,2018-10-26,2018-10-26,,,
,,,,,,,,,,,,,,,,,,,http://opendatacommunities.org/id/unitary-authority/halton,Halton Borough Council,H1303,"""Land to the east of Kestrel's Way, Hallwood Park, Runcorn""",353585,381096,http://map.halton.gov.uk/WebMapLayers8External/map.aspx?MapName=Linked&overlayname=Brownfield%20Register&schemacolumn=Ref&resolution=1&UID=H1303,1.61,Not owned by a public authority,,Not permissioned,,,,29,,35,,Potential capacity based on a density multiplier with the minimum based on retention of part of the woodland area and a maximum based on 30dph across the site. Yield affected by woodland and open space.,2017-12-31,2017-12-31,,,
,,,,,,,,,,,,,,,,,,,http://opendatacommunities.org/id/unitary-authority/halton,Halton Borough Council,H1336,"""Land Adjacent to St. Helens Canal (Routledge Site), Tanhouse Lane""",352379,385175,http://map.halton.gov.uk/WebMapLayers8External/map.aspx?MapName=Linked&overlayname=Brownfield%20Register&schemacolumn=Ref&resolution=1&UID=H1336,7.56,Not owned by a public authority,,Permissioned,,,,211,,230,,Potential capacity based on a density multiplier with the minimum based on 40dph and maximum based on the PREAPP Application. The site has potential contamination due to past works.,2018-10-26,2018-10-26,,,
,,,,,,,,,,,,,,,,,,,http://opendatacommunities.org/id/unitary-authority/halton,Halton Borough Council,H1343,"""Walmsley Street Site, Widnes""",352365,385859,http://map.halton.gov.uk/WebMapLayers8External/map.aspx?MapName=Linked&overlayname=Brownfield%20Register&schemacolumn=Ref&resolution=1&UID=H1343,1.12,Not owned by a public authority,,Permissioned,,,,30,,49,,Potential capacity based on a density multiplier with the minimum based on 30dph and maximum in line with planning permission. Constraints identified include potentially contaminated land.,2017-12-31,2017-12-31,,,
,,,,,,,,,,,,,,,,,,,http://opendatacommunities.org/id/unitary-authority/halton,Halton Borough Council,H1345,"""Land at Derby Road and Mill Lane Junction Roundabout""",352481,388015,http://map.halton.gov.uk/WebMapLayers8External/map.aspx?MapName=Linked&overlayname=Brownfield%20Register&schemacolumn=Ref&resolution=1&UID=H1345,0.97,Not owned by a public authority,,Not permissioned,,,,26,,34,,Potential capacity based on a density multiplier with the minimum based on 30dph and maximum based of 40dph. Issues regarding the contamination of the land would need to be mitigated as necessary. Vacant (Demolished Chemical Works).,2018-10-26,2018-10-26,,,
,,,,,,,,,,,,,,,,,,,http://opendatacommunities.org/id/unitary-authority/halton,Halton Borough Council,H1347,"""Part of Former Fairfield school site, Peel House Lane, Widnes""",351992,387221,http://map.halton.gov.uk/WebMapLayers8External/map.aspx?MapName=Linked&overlayname=Brownfield%20Register&schemacolumn=Ref&resolution=1&UID=H1347,0.4,Mixed ownership,,Not permissioned,,,,10,,14,,Potential capacity based on a density multiplier with the minimum based on 30dph and maximum at 40dph. The site does not currently contain any physical constraints of note.,2017-12-31,2018-10-26,,,
,,,,,,,,,,,,,,,,,,,http://opendatacommunities.org/id/unitary-authority/halton,Halton Borough Council,H1622,"""Car Park between High Street and Bridgewater Canal, Runcorn""",351275,382914,http://map.halton.gov.uk/WebMapLayers8External/map.aspx?MapName=Linked&overlayname=Brownfield%20Register&schemacolumn=Ref&resolution=1&UID=H1622,0.39,Owned by a public authority,,Not permissioned,,,,11,,19,,Potential capacity based on a density multiplier with the minimum based on 30dph and maximum at 50dph.,2017-12-31,2018-10-26,,,
,,,,,,,,,,,,,,,,,,,http://opendatacommunities.org/id/unitary-authority/halton,Halton Borough Council,H1635,"""Greenoaks Farm Industrial Estate, Warrington Road, Widnes""",352412,385973,http://map.halton.gov.uk/WebMapLayers8External/map.aspx?MapName=Linked&overlayname=Brownfield%20Register&schemacolumn=Ref&resolution=1&UID=H1635,0.3,Not owned by a public authority,,Not permissioned,,,,12,,15,,"Potential capacity based on a density multiplier with the minimum based on 40dph and maximum based on 50dph. Current permission now lapsed, still has potential for residential development.",2017-12-31,2018-10-26,,,
,,,,,,,,,,,,,,,,,,,http://opendatacommunities.org/id/unitary-authority/halton,Halton Borough Council,H1714,"""The Heath Offices, Heath Road South, Runcorn""",351197,381261,http://map.halton.gov.uk/WebMapLayers8External/map.aspx?MapName=Linked&overlayname=Brownfield%20Register&schemacolumn=Ref&resolution=1&UID=H1714,1.74,Not owned by a public authority,,Not permissioned,,,,46,,62,,Potential capacity based on a density multiplier with the minimum based on 30dph and maximum at 40dph.,2017-12-31,2017-12-31,,,
,,,,,,,,,,,,,,,,,,,http://opendatacommunities.org/id/unitary-authority/halton,Halton Borough Council,H1733,"""Land at The Heath Business Park, Heath Road South, Runcorn""",351031,380990,http://map.halton.gov.uk/WebMapLayers8External/map.aspx?MapName=Linked&overlayname=Brownfield%20Register&schemacolumn=Ref&resolution=1&UID=H1733,4.26,Not owned by a public authority,,Permissioned,,,,53,,53,,Dwelling figures to reflect planning permission. Development in the area will be limited due to its location within the inner zone of a PADHI.,2017-12-31,2017-12-31,,,
,,,,,,,,,,,,,,,,,,,http://opendatacommunities.org/id/unitary-authority/halton,Halton Borough Council,H1784,"""The Old Bridgewater Centre, Castlefields Avenue North, Runcorn""",353982,382912,http://map.halton.gov.uk/WebMapLayers8External/map.aspx?MapName=Linked&overlayname=Brownfield%20Register&schemacolumn=Ref&resolution=1&UID=H1784,0.36,Not owned by a public authority,,Permissioned,,,,20,,20,,Site Completed. Dwelling figures reflect planning permission.,2017-12-31,2018-10-26,,,
,,,,,,,,,,,,,,,,,,,http://opendatacommunities.org/id/unitary-authority/halton,Halton Borough Council,H1808,"""Land to the rear of Gaunts Way, Hallwood Park, Runcorn""",353138,380885,http://map.halton.gov.uk/WebMapLayers8External/map.aspx?MapName=Linked&overlayname=Brownfield%20Register&schemacolumn=Ref&resolution=1&UID=H1808,1.88,Mixed ownership,,Not permissioned,,,,49,,65,,Potential capacity based on a density multiplier with the minimum based on 30dph and maximum at 40dph.,2017-12-31,2017-12-31,,,
,,,,,,,,,,,,,,,,,,,http://opendatacommunities.org/id/unitary-authority/halton,Halton Borough Council,H1839,"""Land At Rose View Avenue, Widnes""",351355,386807,http://map.halton.gov.uk/WebMapLayers8External/map.aspx?MapName=Linked&overlayname=Brownfield%20Register&schemacolumn=Ref&resolution=1&UID=H1839,0.29,Not owned by a public authority,,Permissioned,,,,4,,4,,Site Completed. 16/00282/REM - of 4 no. detached dwellings.,2017-12-31,2018-10-26,,,
,,,,,,,,,,,,,,,,,,,http://opendatacommunities.org/id/unitary-authority/halton,Halton Borough Council,H1962,"""Fomer Riverside College, Campus Drive, Runcorn""",350468,383011,http://map.halton.gov.uk/WebMapLayers8External/map.aspx?MapName=Linked&overlayname=Brownfield%20Register&schemacolumn=Ref&resolution=1&UID=H1962,4.0,Not owned by a public authority,,Permissioned,,,,120,,128,,Potential capacity based on a density multiplier with the minimum based on planning application and maximum at 40dph. Physical constraints identified include potentially contaminated land (99%); the proximity to a Listed Building; the existing development on the site; the wooded area; and landfill (Canal basin).,2017-12-31,2017-12-31,,,
,,,,,,,,,,,,,,,,,,,http://opendatacommunities.org/id/unitary-authority/halton,Halton Borough Council,H2001,"""Former Jolly Brewer, The Ridgeway, Runcorn""",355778,380967,http://map.halton.gov.uk/WebMapLayers8External/map.aspx?MapName=Linked&overlayname=Brownfield%20Register&schemacolumn=Ref&resolution=1&UID=H2001,0.46,Not owned by a public authority,,Permissioned,,,,18,,18,,Site Under Construction. 14/00563/FUL,2017-12-31,2018-10-26,,,
,,,,,,,,,,,,,,,,,,,http://opendatacommunities.org/id/unitary-authority/halton,Halton Borough Council,H2026,"""Grosvenor House, Northway, Runcorn""",353717,381557,http://map.halton.gov.uk/WebMapLayers8External/map.aspx?MapName=Linked&overlayname=Brownfield%20Register&schemacolumn=Ref&resolution=1&UID=H2026,2.32,Not owned by a public authority,,Permissioned,,,,18,,63,,Potential capacity based on a density multiplier with the minimum based on 40dph and maximum based on Prior Approval. Existing development on site.,2017-12-31,2017-12-31,,,
,,,,,,,,,,,,,,,,,,,http://opendatacommunities.org/id/unitary-authority/halton,Halton Borough Council,H2035,"""Grangeway Court, Runcorn""",352326,381481,http://map.halton.gov.uk/WebMapLayers8External/map.aspx?MapName=Linked&overlayname=Brownfield%20Register&schemacolumn=Ref&resolution=1&UID=H2035,0.53,Owned by a public authority,,Not permissioned,,,,6,,8,,Potential capacity based on a density multiplier with the minimum based on 30dph and maximum at 40dph.,2017-12-31,2017-12-31,,,
