address,address-text,deliverable,end-date,entry-date,hazardous-substances,hectares,latitude,longitude,maximum-net-dwellings,minimum-net-dwellings,notes,organisation,ownership-status,planning-permission-date,planning-permission-history,planning-permission-status,planning-permission-type,site,OrganisationURI,OrganisationLabel,SiteReference,SiteNameAddress,GeoX,GeoY,SiteplanURL,Hectares,OwnershipStatus,HazardousSubstances,PlanningStatus,PermissionType,PermissionDate,PlanningHistory,MinNetDwellings,NetDwellingsRangeFrom,NetDwellingsRangeTo,Deliverable,Notes,FirstAddedDate,LastUpdatedDate,EndDate,site-plan-url,start-date
,,,,,,,,,,,,,,,,,,,http://opendatacommunities.org/id/district-council/chiltern,Chiltern District Council,CD0008,"''Chesham Car and Van Sales, Bellingdon Road''",495725.04,202592.2203,http://www.chiltern.gov.uk/planning/brownfieldregister,0.1,not owned by a public authority,,not permissioned,,,,3,,5,,,08/12/2017,10/12/2018,,,
,,,,,,,,,,,,,,,,,,,http://opendatacommunities.org/id/district-council/chiltern,Chiltern District Council,CD0031,"''Wicks Garage, Rignall Road''",488995.7,201770.6304,http://www.chiltern.gov.uk/planning/brownfieldregister,0.17,not owned by a public authority,,not permissioned,,,,5,,10,,,08/12/2017,10/12/2018,,,
,,,,,,,,,,,,,,,,,,,http://opendatacommunities.org/id/district-council/chiltern,Chiltern District Council,CD0109,"''Coach Depot and Adjacent Land, Lycrome Road, Lye Green''",497649.97,203409.0269,http://www.chiltern.gov.uk/planning/brownfieldregister,0.52,not owned by a public authority,,not permissioned,,,,12,,13,,Any future development proposals should consider that the site is within the Green Belt. Green Belt policies will apply to any future development proposals.,08/12/2017,10/12/2018,,,
,,,,,,,,,,,,,,,,,,,http://opendatacommunities.org/id/district-council/chiltern,Chiltern District Council,CD0128,"''Chalfont St Peter Youth Centre, Tithe Barn, Sandy Rise''",500196.4,190884.1238,http://www.chiltern.gov.uk/planning/brownfieldregister,0.24,not owned by a public authority,,not permissioned,,,,7,,8,,Any future development proposals should ensure that leisure and community facilities are reprovided.,08/12/2017,10/12/2018,,,
,,,,,,,,,,,,,,,,,,,http://opendatacommunities.org/id/district-council/chiltern,Chiltern District Council,CD0129,"''Epilepsy Society Site (Middle Site), Chesham Lane''",500499.37,192338.186,http://www.chiltern.gov.uk/planning/brownfieldregister,2.94,not owned by a public authority,,pending decision,,,,15,,25,,Any future development proposals should consider that the site is within the Green Belt. Green Belt policies will apply to any future development proposals.,08/12/2017,10/12/2018,,,
,,,,,,,,,,,,,,,,,,,http://opendatacommunities.org/id/district-council/chiltern,Chiltern District Council,CD0130,"''Epilepsy Society Site (Debenham House and Land to Rear), Chalfont St Peter''",500377.37,192795.4659,http://www.chiltern.gov.uk/planning/brownfieldregister,4.61,not owned by a public authority,,not permissioned,,,,12,,15,,Any future development proposals should consider that the site is within the Green Belt. Green Belt policies will apply to any future development proposals.,08/12/2017,10/12/2018,,,
,,,,,,,,,,,,,,,,,,,http://opendatacommunities.org/id/district-council/chiltern,Chiltern District Council,CD0131,"''Gold Hill Baptist Church, Gold Hill East, Chalfont St Peter''",499529.67,190272.0471,http://www.chiltern.gov.uk/planning/brownfieldregister,0.23,not owned by a public authority,,permissioned,,,,13,,13,,,08/12/2017,10/12/2018,,,
,,,,,,,,,,,,,,,,,,,http://opendatacommunities.org/id/district-council/chiltern,Chiltern District Council,CD0145,"''Land at Springfield Industrial Estate, Springfield Road''",496471.54,201153.5743,http://www.chiltern.gov.uk/planning/brownfieldregister,1.81,not owned by a public authority,,permissioned,,,,55,,55,,,08/12/2017,10/12/2018,,,
,,,,,,,,,,,,,,,,,,,http://opendatacommunities.org/id/district-council/chiltern,Chiltern District Council,CD0152,"''Area around Chalfont and Latimer Station, Little Chalfont''",499590.15,197548.8778,http://www.chiltern.gov.uk/planning/brownfieldregister,0.62,not owned by a public authority,,not permissioned,,,,25,,31,,,08/12/2017,10/12/2018,,,
,,,,,,,,,,,,,,,,,,,http://opendatacommunities.org/id/district-council/chiltern,Chiltern District Council,CD0153,"''68 to 78 Elizabeth Avenue, Little Chalfont''",499179.35,197969.1412,http://www.chiltern.gov.uk/planning/brownfieldregister,0.26,not owned by a public authority,,permissioned,,,,7,,7,,,08/12/2017,10/12/2018,,,
,,,,,,,,,,,,,,,,,,,http://opendatacommunities.org/id/district-council/chiltern,Chiltern District Council,CD0156,"''Rear of St Georges Church, White Lion Road, Little Chalfont''",498511.48,197836.3691,http://www.chiltern.gov.uk/planning/brownfieldregister,0.41,not owned by a public authority,,not permissioned,,,,6,,10,,,08/12/2017,10/12/2018,,,
,,,,,,,,,,,,,,,,,,,http://opendatacommunities.org/id/district-council/chiltern,Chiltern District Council,CD0174,"''Land Adjoining Chesham Station, Station Road''",496092.96,201659.4228,http://www.chiltern.gov.uk/planning/brownfieldregister,0.18,not owned by a public authority,,not permissioned,,,,7,,13,,,08/12/2017,10/12/2018,,,
,,,,,,,,,,,,,,,,,,,http://opendatacommunities.org/id/district-council/chiltern,Chiltern District Council,CD0197,"''Sycamore House, 1 Woodside Road, Amersham''",496558.42,198649.0083,http://www.chiltern.gov.uk/planning/brownfieldregister,0.34,not owned by a public authority,,permissioned,,,,8,,8,,,08/12/2017,10/12/2018,,,
,,,,,,,,,,,,,,,,,,,http://opendatacommunities.org/id/district-council/chiltern,Chiltern District Council,CD0205,"''Metro House, 37 to 47 Woodside Road, Amersham''",496649.84,198611.9934,http://www.chiltern.gov.uk/planning/brownfieldregister,0.07,not owned by a public authority,,permissioned,,,,11,,11,,,08/12/2017,10/12/2018,,,
,,,,,,,,,,,,,,,,,,,http://opendatacommunities.org/id/district-council/chiltern,Chiltern District Council,CD0209,"''Newland Park, Gorelands Lane, Chalfont St Giles''",501172.05,193655.6063,http://www.chiltern.gov.uk/planning/brownfieldregister,41.56,not owned by a public authority,,permissioned,,,,309,,309,,Any future development proposals should consider that the site is within the Green Belt. Green Belt policies will apply to any future development proposals.,08/12/2017,10/12/2018,,,
,,,,,,,,,,,,,,,,,,,http://opendatacommunities.org/id/district-council/chiltern,Chiltern District Council,CD0211,"''90 Asheridge Road, Chesham''",495350.9,202773.9505,http://www.chiltern.gov.uk/planning/brownfieldregister,2.73,not owned by a public authority,,permissioned,,,,142,,142,,The office element of the consented scheme is protected by condition,08/12/2017,10/12/2018,,,
,,,,,,,,,,,,,,,,,,,http://opendatacommunities.org/id/district-council/chiltern,Chiltern District Council,CD0384,"''Victoria House, Victoria Road, Chesham''",496178.57,201946.6392,http://www.chiltern.gov.uk/planning/brownfieldregister,0.01,not owned by a public authority,,permissioned,,,,7,,7,,,08/12/2017,10/12/2018,,,
,,,,,,,,,,,,,,,,,,,http://opendatacommunities.org/id/district-council/chiltern,Chiltern District Council,CD0425,"''Apex House, 31 Chiltern Avenue, Amersham''",496692.63,198494.1998,http://www.chiltern.gov.uk/planning/brownfieldregister,0.06,not owned by a public authority,,permissioned,,,,8,,8,,,08/12/2017,10/12/2018,,,
,,,,,,,,,,,,,,,,,,,http://opendatacommunities.org/id/district-council/chiltern,Chiltern District Council,CD0427,"''The Rose and Crown Public House, 264 Waterside, Chesham''",496372.59,200969.4026,http://www.chiltern.gov.uk/planning/brownfieldregister,0.05,not owned by a public authority,,permissioned,,,,5,,6,,,08/12/2017,10/12/2018,,,
,,,,,,,,,,,,,,,,,,,http://opendatacommunities.org/id/district-council/chiltern,Chiltern District Council,CD0438,"''Car Park North of Chesham Station, Station Road''",496110.12,201724.016,http://www.chiltern.gov.uk/planning/brownfieldregister,0.38,not owned by a public authority,,not permissioned,,,,13,,25,,Development proposals of the site should maintain existing levels of public and commuter parking as well as provide parking for any new development,08/12/2017,10/12/2018,,,
,,,,,,,,,,,,,,,,,,,http://opendatacommunities.org/id/district-council/chiltern,Chiltern District Council,CD0439,"''Chalfont and Latimer Station Car Park, Bedford Avenue''",499498.53,197635.1614,http://www.chiltern.gov.uk/planning/brownfieldregister,2.34,not owned by a public authority,,not permissioned,,,,40,,80,,Development proposals of the site should maintain existing levels of public and commuter parking as well as provide parking for any new development,08/12/2017,10/12/2018,,,
,,,,,,,,,,,,,,,,,,,http://opendatacommunities.org/id/district-council/chiltern,Chiltern District Council,CD0440,"''William Moulder Court, Chesham''",495914.84,203010.4535,http://www.chiltern.gov.uk/planning/brownfieldregister,0.55,not owned by a public authority,,not permissioned,,,,6,,15,,Any future development proposals should address any potential implications on residential parking and highways,08/12/2017,10/12/2018,,,
,,,,,,,,,,,,,,,,,,,http://opendatacommunities.org/id/district-council/chiltern,Chiltern District Council,CD0444,"''Land West of Mount Nugent, Chesham''",495373.61,203463.7541,http://www.chiltern.gov.uk/planning/brownfieldregister,0.3,not owned by a public authority,,not permissioned,,,,6,,9,,Any future development proposals should address any potential implications on residential parking and highways,08/12/2017,10/12/2018,,,
,,,,,,,,,,,,,,,,,,,http://opendatacommunities.org/id/district-council/chiltern,Chiltern District Council,CD0445,"''Land off Shelley Road, Chesham''",495676.57,202858.4957,http://www.chiltern.gov.uk/planning/brownfieldregister,0.22,not owned by a public authority,,not permissioned,,,,7,,12,,Any future development proposals should address any potential implications on residential parking and highways,08/12/2017,10/12/2018,,,
,,,,,,,,,,,,,,,,,,,http://opendatacommunities.org/id/district-council/chiltern,Chiltern District Council,CD0448,"''Land on the frontage of Great Missenden Railway Station, ''",489325.88,201324.4887,http://www.chiltern.gov.uk/planning/brownfieldregister,0.53,not owned by a public authority,,not permissioned,,,,10,,20,,Development proposals of the site should retain and enhance interchange facilities and the station forecourt. Possible access from the site could be provided to other nearby development opportunities.,08/12/2017,10/12/2018,,,
,,,,,,,,,,,,,,,,,,,http://opendatacommunities.org/id/district-council/chiltern,Chiltern District Council,CD0459,"''Woodlands Farm, The Vale''",496015.6447,205054.7979,http://www.chiltern.gov.uk/planning/brownfieldregister,2.25,not owned by a public authority,,permissioned,,,,15,,25,,Any future development proposals should consider that the site is within the Green Belt. Green Belt policies will apply to any future development proposals. Current permission only applies to part of the total site.,08/12/2017,10/12/2018,,,
,,,,,,,,,,,,,,,,,,,http://opendatacommunities.org/id/district-council/chiltern,Chiltern District Council,CD0460,"''Tunfield Farm, Hog Lane''",496556.7061,205815.8914,http://www.chiltern.gov.uk/planning/brownfieldregister,0.83,not owned by a public authority,,not permissioned,,,,6,,8,,Any future development proposals should consider that the site is within the Green Belt. Green Belt policies will apply to any future development proposals.,08/12/2017,10/12/2018,,,
,,,,,,,,,,,,,,,,,,,http://opendatacommunities.org/id/district-council/chiltern,Chiltern District Council,CD0461,"""Land to rear of 65 Denham Lane""",500895.36,191574.059,http://www.chiltern.gov.uk/planning/brownfieldregister,0.28,not owned by a public authority,,permissioned,,,,2,,2,,Any future development proposals should consider that the site is within the Green Belt. Green Belt policies will apply to any future development proposals.,10/12/2018,,,,
,,,,,,,,,,,,,,,,,,,http://opendatacommunities.org/id/district-council/chiltern,Chiltern District Council,CD0462,"""12 - 14 High Street, Chesham""",495916.254,201539.919,http://www.chiltern.gov.uk/planning/brownfieldregister,0.036,not owned by a public authority,,permissioned,,,,7,,7,,,10/12/2018,,,,
,,,,,,,,,,,,,,,,,,,http://opendatacommunities.org/id/district-council/chiltern,Chiltern District Council,CD0463,"""Hill Farm Industrial Estate""",497918.911,194133.242,http://www.chiltern.gov.uk/planning/brownfieldregister,0.79,not owned by a public authority,,permissioned,,,,3,,3,,Any future development proposals should consider that the site is within the Green Belt. Green Belt policies will apply to any future development proposals.,10/12/2018,,,,
,,,,,,,,,,,,,,,,,,,http://opendatacommunities.org/id/district-council/chiltern,Chiltern District Council,CD0464,"""24A Red Lion Street (former Zion Hall)""",495994.359,201392.836,http://www.chiltern.gov.uk/planning/brownfieldregister,0.03,not owned by a public authority,,permissioned,,,,6,,6,,,10/12/2018,,,,
,,,,,,,,,,,,,,,,,,,http://opendatacommunities.org/id/district-council/chiltern,Chiltern District Council,CD0465,"""Land at Burtons Timber Yard""",498907.078,192464.328,http://www.chiltern.gov.uk/planning/brownfieldregister,0.34,not owned by a public authority,,permissioned,,,,2,,2,,Any future development proposals should consider that the site is within the Green Belt. Green Belt policies will apply to any future development proposals.,10/12/2018,,,,
,,,,,,,,,,,,,,,,,,,http://opendatacommunities.org/id/district-council/chiltern,Chiltern District Council,CD0466,"""Land at Old Amersham Farm""",495057,197921,http://www.chiltern.gov.uk/planning/brownfieldregister,0.39,not owned by a public authority,,not permissioned,,,,9,,9,,Any future development proposals should consider that the site is within the Green Belt. Green Belt policies will apply to any future development proposals.,10/12/2018,,,,
