address,address-text,deliverable,end-date,entry-date,hazardous-substances,hectares,latitude,longitude,maximum-net-dwellings,minimum-net-dwellings,notes,organisation,ownership-status,planning-permission-date,planning-permission-history,planning-permission-status,planning-permission-type,site,OrganisationURI,OrganisationLabel,SiteReference,SiteNameAddress,GeoX,GeoY,SiteplanURL,Hectares,OwnershipStatus,HazardousSubstances,PlanningStatus,PermissionType,PermissionDate,PlanningHistory,MinNetDwellings,NetDwellingsRangeFrom,NetDwellingsRangeTo,Deliverable,Notes,FirstAddedDate,LastUpdatedDate,EndDate,site-plan-url,start-date
,,,,,,,,,,,,,,,,,,,http://opendatacommunities.org/doc/unitary-authority/reading,Reading Borough Council,BL1001,"""Friar Street and Station Road, Reading""",471450,173640,https://www.reading.gov.uk/media/8109/Brownfield-Register-Maps-BL1001-1052/pdf/Brownfield_Land_Register_Maps_2019_1001_to_1052.pdf,1.0,not owned by a public authority,,not permissioned,,,,43,,69.0,,Allocation CR11a in Local Plan - remainder of site unpermitted shown here,2017-12-15,2019-12-16,,,
,,,,,,,,,,,,,,,,,,,http://opendatacommunities.org/doc/unitary-authority/reading,Reading Borough Council,BL1002,"""29-35 Station Road, Reading""",471489,173699,https://www.reading.gov.uk/media/8109/Brownfield-Register-Maps-BL1001-1052/pdf/Brownfield_Land_Register_Maps_2019_1001_to_1052.pdf,0.05,not owned by a public authority,,permissioned,,,,33,,,,Prior approval 170772.  Alternative permission 181930 now in place for redevelopment for hotel.  Forms part of allocation in Local Plan (ref CR11a),2017-12-15,2019-12-16,,,
,,,,,,,,,,,,,,,,,,,http://opendatacommunities.org/doc/unitary-authority/reading,Reading Borough Council,BL1004,"""30-31 Friar Street, Reading""",471424,173604,https://www.reading.gov.uk/media/8109/Brownfield-Register-Maps-BL1001-1052/pdf/Brownfield_Land_Register_Maps_2019_1001_to_1052.pdf,0.08,not owned by a public authority,,not permissioned,,,,25,,,,Prior approval 150829 expired July 2018. Forms part of allocation in Local Plan (ref CR11a),2017-12-15,2019-12-16,,,
,,,,,,,,,,,,,,,,,,,http://opendatacommunities.org/doc/unitary-authority/reading,Reading Borough Council,BL1005,"""35-38 Friar Street, Reading""",471395,173603,https://www.reading.gov.uk/media/8109/Brownfield-Register-Maps-BL1001-1052/pdf/Brownfield_Land_Register_Maps_2019_1001_to_1052.pdf,0.1,not owned by a public authority,,not permissioned,,,,25,,,,Prior approval 160232 expired April 2019. Forms part of allocation in Local Plan (ref CR11a),2017-12-15,2019-12-16,,,
,,,,,,,,,,,,,,,,,,,http://opendatacommunities.org/doc/unitary-authority/reading,Reading Borough Council,BL1006,"""52-55 Friar Street and 12 Greyfriars Road, Reading""",471289,173617,https://www.reading.gov.uk/media/8109/Brownfield-Register-Maps-BL1001-1052/pdf/Brownfield_Land_Register_Maps_2019_1001_to_1052.pdf,0.26,not owned by a public authority,,permissioned,,,,135,,,,Full permission 162210.  Forms part of allocation in Local Plan (ref CR11b),2017-12-15,2019-12-16,,,
,,,,,,,,,,,,,,,,,,,http://opendatacommunities.org/doc/unitary-authority/reading,Reading Borough Council,BL1007,"""Station Hill, Reading""",471102,173742,https://www.reading.gov.uk/media/8109/Brownfield-Register-Maps-BL1001-1052/pdf/Brownfield_Land_Register_Maps_2019_1001_to_1052.pdf,2.87,not owned by a public authority,,permissioned,,,,380,,570.0,,"Outline permissions 190441 and 190442 cover the site, and would result in up to 538 dwellings.  Reserved matters for parts of site under consideration.  Some demolition complete, much of remainder underway.  Forms allocation in Local Plan (ref CR11c), and dwelling range in this entry derived from draft policy rather than permission, which is a maximum.",2017-12-15,2019-12-16,,,
,,,,,,,,,,,,,,,,,,,http://opendatacommunities.org/doc/unitary-authority/reading,Reading Borough Council,BL1008,"""1-3 Greyfriars Road, Reading""",471240,173630,https://www.reading.gov.uk/media/8109/Brownfield-Register-Maps-BL1001-1052/pdf/Brownfield_Land_Register_Maps_2019_1001_to_1052.pdf,0.03,not owned by a public authority,,not permissioned,,,,8,,,,"Application for development of 12 dwellings refused (070944), but a reduced scheme may be suitable",2017-12-15,2019-12-16,,,
,,,,,,,,,,,,,,,,,,,http://opendatacommunities.org/doc/unitary-authority/reading,Reading Borough Council,BL1009,"""Greyfriars House, 30 Greyfriars Road, Reading""",471265,173655,https://www.reading.gov.uk/media/8109/Brownfield-Register-Maps-BL1001-1052/pdf/Brownfield_Land_Register_Maps_2019_1001_to_1052.pdf,0.12,not owned by a public authority,,permissioned,,,,43,,,,Prior approval 170229.  Forms part of allocation in Local Plan (ref CR11b).,2017-12-15,2019-12-16,,,
,,,,,,,,,,,,,,,,,,,http://opendatacommunities.org/doc/unitary-authority/reading,Reading Borough Council,BL1011,"""Brunel Arcade and Apex Plaza, Forbury Road, Reading""",471600,173750,https://www.reading.gov.uk/media/8109/Brownfield-Register-Maps-BL1001-1052/pdf/Brownfield_Land_Register_Maps_2019_1001_to_1052.pdf,1.51,mixed ownership,,not permissioned,,,,250,,380.0,,Allocation CR11d in Local Plan,2017-12-15,2019-12-16,,,
,,,,,,,,,,,,,,,,,,,http://opendatacommunities.org/doc/unitary-authority/reading,Reading Borough Council,BL1012,"""3-10 Market Place, Abbey Hall and Abbey Square, Reading""",471740,173460,https://www.reading.gov.uk/media/8109/Brownfield-Register-Maps-BL1001-1052/pdf/Brownfield_Land_Register_Maps_2019_1001_to_1052.pdf,0.29,not owned by a public authority,,not permissioned,,,,46,,70.0,,Allocation CR14e in Local Plan,2017-12-15,2018-12-16,,,
,,,,,,,,,,,,,,,,,,,http://opendatacommunities.org/doc/unitary-authority/reading,Reading Borough Council,BL1013,"""Jackson's Corner, 1-5 Kings Road, Reading""",471749,173406,https://www.reading.gov.uk/media/8109/Brownfield-Register-Maps-BL1001-1052/pdf/Brownfield_Land_Register_Maps_2019_1001_to_1052.pdf,0.1,not owned by a public authority,,permissioned,,,,33,,,,"Planning permission 160849, now underway.  See also permission 141713 for alternative scheme for 28 dwellings.",2017-12-15,2019-12-16,,,
,,,,,,,,,,,,,,,,,,,http://opendatacommunities.org/doc/unitary-authority/reading,Reading Borough Council,BL1014,"""1-5 King Street, Reading""",471696,173414,https://www.reading.gov.uk/media/8109/Brownfield-Register-Maps-BL1001-1052/pdf/Brownfield_Land_Register_Maps_2019_1001_to_1052.pdf,0.08,not owned by a public authority,,not permissioned,,,,16,,24.0,,Allocation CR14f in Local Plan.  Alternative permission 181566 for change of use to offices.,2017-12-15,2019-12-16,,,
,,,,,,,,,,,,,,,,,,,http://opendatacommunities.org/doc/unitary-authority/reading,Reading Borough Council,BL1015,"""Bristol and West Arcade, 173-175 Friar Street and 27-32 Market Place, Reading""",471645,173522,https://www.reading.gov.uk/media/8109/Brownfield-Register-Maps-BL1001-1052/pdf/Brownfield_Land_Register_Maps_2019_1001_to_1052.pdf,0.18,not owned by a public authority,,permissioned,,,,43,,,,Allocation CR14d in Local Plan.  Permission 180358.,2017-12-15,2019-12-16,,,
,,,,,,,,,,,,,,,,,,,http://opendatacommunities.org/doc/unitary-authority/reading,Reading Borough Council,BL1016,"""160-163 Friar Street, Reading""",471600,173544,https://www.reading.gov.uk/media/8109/Brownfield-Register-Maps-BL1001-1052/pdf/Brownfield_Land_Register_Maps_2019_1001_to_1052.pdf,0.06,not owned by a public authority,,not permissioned,,,,28,,,,Prior approval 160212 expired April 2019,2017-12-15,2019-12-16,,,
,,,,,,,,,,,,,,,,,,,http://opendatacommunities.org/doc/unitary-authority/reading,Reading Borough Council,BL1017,"""149-150 Friar Street and 2-4 Queen Victoria Street, Reading""",471505,173570,https://www.reading.gov.uk/media/8109/Brownfield-Register-Maps-BL1001-1052/pdf/Brownfield_Land_Register_Maps_2019_1001_to_1052.pdf,0.02,not owned by a public authority,,permissioned,,,,7,,,,"Permission 170210, under construction at April 2019",2017-12-15,2019-12-16,,,
,,,,,,,,,,,,,,,,,,,http://opendatacommunities.org/doc/unitary-authority/reading,Reading Borough Council,BL1019,"""38-40 Oxford Road and 3-7 Cheapside, Reading""",471260,173470,https://www.reading.gov.uk/media/8109/Brownfield-Register-Maps-BL1001-1052/pdf/Brownfield_Land_Register_Maps_2019_1001_to_1052.pdf,0.3,not owned by a public authority,,not permissioned,,,,8,,,,Previous permission for change of use to 8 dwellings (091455) now expired.,2017-12-15,2019-12-16,,,
,,,,,,,,,,,,,,,,,,,http://opendatacommunities.org/doc/unitary-authority/reading,Reading Borough Council,BL1020,"""North of the Station, Vastern Road, Reading""",471400,174000,https://www.reading.gov.uk/media/8109/Brownfield-Register-Maps-BL1001-1052/pdf/Brownfield_Land_Register_Maps_2019_1001_to_1052.pdf,6.71,not owned by a public authority,,not permissioned,,,,640,,960.0,,"Allocation CR11e in Local Plan. Permission 110024 was for up to 434 dwellings, retail, hotel, offices on part of site, but has now expired",2017-12-15,2019-12-16,,,
,,,,,,,,,,,,,,,,,,,http://opendatacommunities.org/doc/unitary-authority/reading,Reading Borough Council,BL1021,"""West of Caversham Road, Caversham Road, Reading""",471240,174130,https://www.reading.gov.uk/media/8109/Brownfield-Register-Maps-BL1001-1052/pdf/Brownfield_Land_Register_Maps_2019_1001_to_1052.pdf,0.92,not owned by a public authority,,not permissioned,,,,75,,115.0,,Allocation CR11f in Local Plan,2017-12-15,2019-12-16,,,
,,,,,,,,,,,,,,,,,,,http://opendatacommunities.org/doc/unitary-authority/reading,Reading Borough Council,BL1022,"""Riverside, Vastern Road, Reading""",471550,174130,https://www.reading.gov.uk/media/8109/Brownfield-Register-Maps-BL1001-1052/pdf/Brownfield_Land_Register_Maps_2019_1001_to_1052.pdf,1.24,not owned by a public authority,,not permissioned,,,,250,,370.0,,Allocation CR11g in Local Plan,2017-12-15,2019-12-16,,,
,,,,,,,,,,,,,,,,,,,http://opendatacommunities.org/doc/unitary-authority/reading,Reading Borough Council,BL1023,"""Napier Road Junction/Former Cooper BMW, Napier Road, Reading""",471813,173864,https://www.reading.gov.uk/media/8109/Brownfield-Register-Maps-BL1001-1052/pdf/Brownfield_Land_Register_Maps_2019_1001_to_1052.pdf,0.49,not owned by a public authority,,permissioned,,,,335,,,,Planning permission 162166 for 315 residential units under construction.  Subsequent application 190809 to extend to 335 units has resolution to grant permission subject to Section 106. Allocation CR11h in Local Plan.,2017-12-15,2019-12-16,,,
,,,,,,,,,,,,,,,,,,,http://opendatacommunities.org/doc/unitary-authority/reading,Reading Borough Council,BL1024,"""Napier Court, Napier Road, Reading""",472030,173850,https://www.reading.gov.uk/media/8109/Brownfield-Register-Maps-BL1001-1052/pdf/Brownfield_Land_Register_Maps_2019_1001_to_1052.pdf,1.62,mixed ownership,,not permissioned,,,,210,,310.0,,Allocation CR11i in Local Plan,2017-12-15,2019-12-16,,,
,,,,,,,,,,,,,,,,,,,http://opendatacommunities.org/doc/unitary-authority/reading,Reading Borough Council,BL1025,"""Reading Prison, Forbury Road, Reading""",472070,173560,https://www.reading.gov.uk/media/8109/Brownfield-Register-Maps-BL1001-1052/pdf/Brownfield_Land_Register_Maps_2019_1001_to_1052.pdf,1.44,owned by a public authority,,not permissioned,,,,65,,90.0,,Allocation CR13a in Local Plan.  Subject to adopted Supplementary Planning Document - Site of Reading Prison Planning Framework.,2017-12-15,2019-12-16,,,
,,,,,,,,,,,,,,,,,,,http://opendatacommunities.org/doc/unitary-authority/reading,Reading Borough Council,BL1026a,"""Forbury Retail Park, Forbury Road, Reading""",472170,173700,https://www.reading.gov.uk/media/8109/Brownfield-Register-Maps-BL1001-1052/pdf/Brownfield_Land_Register_Maps_2019_1001_to_1052.pdf,3.97,not owned by a public authority,,not permissioned,,,,465,,1075.0,,"Allocation CR13b in Local Plan. Planning permission now granted on part of the allocation, see BL1026b.",2017-12-15,2019-12-16,,,
,,,,,,,,,,,,,,,,,,,http://opendatacommunities.org/doc/unitary-authority/reading,Reading Borough Council,BL1026b,"""Kenavon Drive""",472281,173575,https://www.reading.gov.uk/media/8109/Brownfield-Register-Maps-BL1001-1052/pdf/Brownfield_Land_Register_Maps_2019_1001_to_1052.pdf,2.8,not owned by a public authority,,permissioned,,,,765,,,,"Permission 170509, for which demolition complete.  Current planning application for an uplift in dwellings undetermined.  Part of allocation CR13b in Local Plan",2017-12-15,2019-12-16,,,
,,,,,,,,,,,,,,,,,,,http://opendatacommunities.org/doc/unitary-authority/reading,Reading Borough Council,BL1027,"""Forbury Business Park & Kenavon Drive, Reading""",472490,173640,https://www.reading.gov.uk/media/8109/Brownfield-Register-Maps-BL1001-1052/pdf/Brownfield_Land_Register_Maps_2019_1001_to_1052.pdf,2.07,not owned by a public authority,,not permissioned,,,,190,,285.0,,Allocation CR13c in Local Plan,2017-12-15,2019-12-16,,,
,,,,,,,,,,,,,,,,,,,http://opendatacommunities.org/doc/unitary-authority/reading,Reading Borough Council,BL1028,"""Former Gas Works Building, Gas Works Road, Reading""",472334,173444,https://www.reading.gov.uk/media/8109/Brownfield-Register-Maps-BL1001-1052/pdf/Brownfield_Land_Register_Maps_2019_1001_to_1052.pdf,0.07,not owned by a public authority,,not permissioned,,,,20,,,,Permission 160378 expired October 2019.,2017-12-15,2019-12-16,,,
,,,,,,,,,,,,,,,,,,,http://opendatacommunities.org/doc/unitary-authority/reading,Reading Borough Council,BL1029,"""28-30 Richfield Avenue, Reading""",470869,174404,https://www.reading.gov.uk/media/8109/Brownfield-Register-Maps-BL1001-1052/pdf/Brownfield_Land_Register_Maps_2019_1001_to_1052.pdf,0.78,not owned by a public authority,,not permissioned,,,,50,,80.0,,Allocation WR3c in Local Plan.  Permission 172259 for alternative development for extension and refurbishment of existing showroom.,2017-12-15,2019-12-16,,,
,,,,,,,,,,,,,,,,,,,http://opendatacommunities.org/doc/unitary-authority/reading,Reading Borough Council,BL1030,"""2 Ross Road and part of Meadow Road, Reading""",470990,174200,https://www.reading.gov.uk/media/8109/Brownfield-Register-Maps-BL1001-1052/pdf/Brownfield_Land_Register_Maps_2019_1001_to_1052.pdf,0.6,not owned by a public authority,,not permissioned,,,,39,,60.0,,Allocation WR3b in Local Plan,2017-12-15,2019-12-16,,,
,,,,,,,,,,,,,,,,,,,http://opendatacommunities.org/doc/unitary-authority/reading,Reading Borough Council,BL1031,"""Land at Junction of Addison Road and Meadow Road, Reading""",471020,174160,https://www.reading.gov.uk/media/8109/Brownfield-Register-Maps-BL1001-1052/pdf/Brownfield_Land_Register_Maps_2019_1001_to_1052.pdf,0.07,not owned by a public authority,,permissioned,,,,5,,,,Permission 130882 under construction.,2017-12-15,2019-12-16,,,
,,,,,,,,,,,,,,,,,,,http://opendatacommunities.org/doc/unitary-authority/reading,Reading Borough Council,BL1032,"""Former Cox & Wyman Site, Cardiff Road, Reading""",470929,174119,https://www.reading.gov.uk/media/8109/Brownfield-Register-Maps-BL1001-1052/pdf/Brownfield_Land_Register_Maps_2019_1001_to_1052.pdf,1.31,not owned by a public authority,,permissioned,,,,96,,,,Allocation WR3a in Local Plan.  Planning permission 171814.,2017-12-15,2019-12-16,,,
,,,,,,,,,,,,,,,,,,,http://opendatacommunities.org/doc/unitary-authority/reading,Reading Borough Council,BL1033,"""Cattle Market, Great Knollys Street, Reading""",471020,173830,https://www.reading.gov.uk/media/8109/Brownfield-Register-Maps-BL1001-1052/pdf/Brownfield_Land_Register_Maps_2019_1001_to_1052.pdf,2.46,owned by a public authority,,not permissioned,,,,330,,490.0,,Allocation CR12a in Local Plan,2017-12-15,2018-12-16,,,
,,,,,,,,,,,,,,,,,,,http://opendatacommunities.org/doc/unitary-authority/reading,Reading Borough Council,BL1034a,"""Great Knollys Street and Weldale Street, Reading""",471020,173710,https://www.reading.gov.uk/media/8109/Brownfield-Register-Maps-BL1001-1052/pdf/Brownfield_Land_Register_Maps_2019_1001_to_1052.pdf,1.41,mixed ownership,,not permissioned,,,,69,,,,Proposed allocation CR12b in Submission Draft Local Plan.,2017-12-15,2019-12-16,,,
,,,,,,,,,,,,,,,,,,,http://opendatacommunities.org/doc/unitary-authority/reading,Reading Borough Council,BL1034b,"""Land between Weldale Street and Chatham Street""",471029,173610,https://www.reading.gov.uk/media/8109/Brownfield-Register-Maps-BL1001-1052/pdf/Brownfield_Land_Register_Maps_2019_1001_to_1052.pdf,1.32,not owned by a public authority,,permissioned,,,,427,,,,Planning permission 170326.  Part of allocation CR12b in Local Plan.,2017-12-15,2019-12-16,,,
,,,,,,,,,,,,,,,,,,,http://opendatacommunities.org/doc/unitary-authority/reading,Reading Borough Council,BL1034c,"""Unit 16 North Street, Reading""",470950,173680,https://www.reading.gov.uk/media/8109/Brownfield-Register-Maps-BL1001-1052/pdf/Brownfield_Land_Register_Maps_2019_1001_to_1052.pdf,0.04,not owned by a public authority,,pending decision,,,,10,,,,Application 191086 has resolution to grant permission subject to Section 106. Part of allocation CR12b in Local Plan.,2019-12-16,2019-12-16,,,
,,,,,,,,,,,,,,,,,,,http://opendatacommunities.org/doc/unitary-authority/reading,Reading Borough Council,BL1035,"""Former Reading Family Centre, North Street, Reading""",470910,173660,https://www.reading.gov.uk/media/8109/Brownfield-Register-Maps-BL1001-1052/pdf/Brownfield_Land_Register_Maps_2019_1001_to_1052.pdf,0.23,owned by a public authority,,permissioned,,,,47,,,,Allocation CR14b in Local Plan.  Permissions 181652 and 181653.,2017-12-15,2019-12-16,,,
,,,,,,,,,,,,,,,,,,,http://opendatacommunities.org/doc/unitary-authority/reading,Reading Borough Council,BL1038,"""Broad Street Mall, Oxford Road, Reading""",471200,173360,https://www.reading.gov.uk/media/8109/Brownfield-Register-Maps-BL1001-1052/pdf/Brownfield_Land_Register_Maps_2019_1001_to_1052.pdf,2.75,not owned by a public authority,,not permissioned,,,,280,,420.0,,"Allocation CR12d in Local Plan.  Undetermined planning application 182137 for residential development on top of Mall.  Site within area covered by Minster Quarter Development Framework, adopted December 2018.",2017-12-15,2018-12-16,,,
,,,,,,,,,,,,,,,,,,,http://opendatacommunities.org/doc/unitary-authority/reading,Reading Borough Council,BL1039,"""Hosier Street, Reading""",471200,173220,https://www.reading.gov.uk/media/8109/Brownfield-Register-Maps-BL1001-1052/pdf/Brownfield_Land_Register_Maps_2019_1001_to_1052.pdf,3.41,owned by a public authority,,not permissioned,,,,500,,750.0,,"Allocation CR12e in Local Plan.  Site within area covered by Minster Quarter Development Framework, adopted December 2018.",2017-12-15,2019-12-16,,,
,,,,,,,,,,,,,,,,,,,http://opendatacommunities.org/doc/unitary-authority/reading,Reading Borough Council,BL1040,"""Central Swimming Pool, Battle Street, Reading""",470667,173506,https://www.reading.gov.uk/media/8109/Brownfield-Register-Maps-BL1001-1052/pdf/Brownfield_Land_Register_Maps_2019_1001_to_1052.pdf,0.55,owned by a public authority,,not permissioned,,,,80,,120.0,,"Allocation CR14a in Local Plan.  Planning permission previously granted for 89 dwellings (031246), since expired.",2017-12-15,2019-12-16,,,
,,,,,,,,,,,,,,,,,,,http://opendatacommunities.org/doc/unitary-authority/reading,Reading Borough Council,BL1043,"""149-153 Oxford Road, Reading""",470760,173360,https://www.reading.gov.uk/media/8109/Brownfield-Register-Maps-BL1001-1052/pdf/Brownfield_Land_Register_Maps_2019_1001_to_1052.pdf,0.1,not owned by a public authority,,not permissioned,,,,5,,,,Previous permission for 5 dwellings net gain (090795) now expired.,2017-12-15,2019-12-16,,,
,,,,,,,,,,,,,,,,,,,http://opendatacommunities.org/doc/unitary-authority/reading,Reading Borough Council,BL1044,"""125 Chatham Street, Reading""",471261,173802,https://www.reading.gov.uk/media/8109/Brownfield-Register-Maps-BL1001-1052/pdf/Brownfield_Land_Register_Maps_2019_1001_to_1052.pdf,0.11,not owned by a public authority,,permissioned,,,,15,,,,Prior approval 170979 for change of use (resubmission of previous 2013 approval).  Permission 130842 for extension now expired.  Forms part of Local Plan allocation (CR12c).,2017-12-15,2018-12-16,,,
,,,,,,,,,,,,,,,,,,,http://opendatacommunities.org/doc/unitary-authority/reading,Reading Borough Council,BL1045,"""114 Oxford Road, Reading""",470839,173427,https://www.reading.gov.uk/media/8109/Brownfield-Register-Maps-BL1001-1052/pdf/Brownfield_Land_Register_Maps_2019_1001_to_1052.pdf,0.14,not owned by a public authority,,permissioned,,,,16,,,,Permission 150721 under construction.  Forms part of Local Plan allocation (CR13c).,2017-12-15,2019-12-16,,,
,,,,,,,,,,,,,,,,,,,http://opendatacommunities.org/doc/unitary-authority/reading,Reading Borough Council,BL1046a,"""Chatham Street, Eaton Place and Oxford Road, Reading""",470880,173480,https://www.reading.gov.uk/media/8109/Brownfield-Register-Maps-BL1001-1052/pdf/Brownfield_Land_Register_Maps_2019_1001_to_1052.pdf,0.45,not owned by a public authority,,not permissioned,,,,91,,171.0,,"Allocation CR12c in Local Plan (remainder, not including permissions at 114 Oxford Road, 125 Chatham Street and Eaton Court)",2017-12-15,2019-12-16,,,
,,,,,,,,,,,,,,,,,,,http://opendatacommunities.org/doc/unitary-authority/reading,Reading Borough Council,BL1046b,"""Eaton Court, 106-112 Oxford Road, Reading""",470890,173420,https://www.reading.gov.uk/media/8109/Brownfield-Register-Maps-BL1001-1052/pdf/Brownfield_Land_Register_Maps_2019_1001_to_1052.pdf,0.44,not owned by a public authority,,permissioned,,,,58,,,,Prior approval 190419.  Part of allocation CR12c in Local Plan.,2019-12-16,2019-12-16,,,
,,,,,,,,,,,,,,,,,,,http://opendatacommunities.org/doc/unitary-authority/reading,Reading Borough Council,BL1047,"""78 Oxford Road, Reading""",471010,173420,https://www.reading.gov.uk/media/8109/Brownfield-Register-Maps-BL1001-1052/pdf/Brownfield_Land_Register_Maps_2019_1001_to_1052.pdf,0.03,not owned by a public authority,,not permissioned,,,,6,,,,"Previous permission for 6 dwellings net gain (050014), now expired.  Application for 13 dwellings (9 net gain) (161860) withdrawn.",2017-12-15,2019-12-16,,,
,,,,,,,,,,,,,,,,,,,http://opendatacommunities.org/doc/unitary-authority/reading,Reading Borough Council,BL1048,"""22-24 Cross Street, Reading""",471547,173506,https://www.reading.gov.uk/media/8109/Brownfield-Register-Maps-BL1001-1052/pdf/Brownfield_Land_Register_Maps_2019_1001_to_1052.pdf,0.01,not owned by a public authority,,permissioned,,,,6,,,,Permission 171742,2018-12-16,2019-12-16,,,
,,,,,,,,,,,,,,,,,,,http://opendatacommunities.org/doc/unitary-authority/reading,Reading Borough Council,BL1049,"""1 Station Road and 22 Friar Street, Reading""",471495,173609,https://www.reading.gov.uk/media/8109/Brownfield-Register-Maps-BL1001-1052/pdf/Brownfield_Land_Register_Maps_2019_1001_to_1052.pdf,0.03,not owned by a public authority,,permissioned,,,,15,,,,Prior approval 182109,2018-12-16,2019-12-16,,,
,,,,,,,,,,,,,,,,,,,http://opendatacommunities.org/doc/unitary-authority/reading,Reading Borough Council,BL1050,"""33 Blagrave Street, Reading""",471612,173662,https://www.reading.gov.uk/media/8109/Brownfield-Register-Maps-BL1001-1052/pdf/Brownfield_Land_Register_Maps_2019_1001_to_1052.pdf,0.07,not owned by a public authority,,permissioned,,,,28,,,,Prior approval 181074,2018-12-16,2019-12-16,,,
,,,,,,,,,,,,,,,,,,,http://opendatacommunities.org/doc/unitary-authority/reading,Reading Borough Council,BL1051,"""29 Russell Street, Reading""",470799,173243,https://www.reading.gov.uk/media/8109/Brownfield-Register-Maps-BL1001-1052/pdf/Brownfield_Land_Register_Maps_2019_1001_to_1052.pdf,0.03,not owned by a public authority,,permissioned,,,,8,,,,Permission 161332,2019-12-16,2019-12-16,,,
,,,,,,,,,,,,,,,,,,,http://opendatacommunities.org/doc/unitary-authority/reading,Reading Borough Council,BL1052,"""Battle Inn PH, 2 Bedford Road, Reading""",470743,173409,https://www.reading.gov.uk/media/8109/Brownfield-Register-Maps-BL1001-1052/pdf/Brownfield_Land_Register_Maps_2019_1001_to_1052.pdf,0.03,not owned by a public authority,,permissioned,,,,6,,,,Permission 180876 granted on appeal,2019-12-16,2019-12-16,,,
,,,,,,,,,,,,,,,,,,,http://opendatacommunities.org/doc/unitary-authority/reading,Reading Borough Council,BL2002a,"""211-221 Oxford Road, Reading""",470510,173400,https://www.reading.gov.uk/media/8107/Brownfield-Register-Maps-BL2001-2051/pdf/Brownfield_Land_Register_Maps_2019_2001_to_2051.pdf,0.16,not owned by a public authority,,not permissioned,,,,5,,,,"Allocation WR3g in Local Plan.  Development on part of the site already complete and/or permissioned, only remainder of dwellings shown",2017-12-15,2019-12-16,,,
,,,,,,,,,,,,,,,,,,,http://opendatacommunities.org/doc/unitary-authority/reading,Reading Borough Council,BL2002b,"""Rear of 8 Prospect Street, Reading""",470500,173370,https://www.reading.gov.uk/media/8107/Brownfield-Register-Maps-BL2001-2051/pdf/Brownfield_Land_Register_Maps_2019_2001_to_2051.pdf,0.03,not owned by a public authority,,permissioned,,,,5,,,,Prior approval 190782,2019-12-16,2019-12-16,,,
,,,,,,,,,,,,,,,,,,,http://opendatacommunities.org/doc/unitary-authority/reading,Reading Borough Council,BL2003,"""57 Baker Street, Reading""",470831,173136,https://www.reading.gov.uk/media/8107/Brownfield-Register-Maps-BL2001-2051/pdf/Brownfield_Land_Register_Maps_2019_2001_to_2051.pdf,0.17,not owned by a public authority,,permissioned,,,,9,,,,Permission 180624.,2017-12-15,2019-12-16,,,
,,,,,,,,,,,,,,,,,,,http://opendatacommunities.org/doc/unitary-authority/reading,Reading Borough Council,BL2004,"""Yeomanry House, Castle Hill, Reading""",470870,172930,https://www.reading.gov.uk/media/8107/Brownfield-Register-Maps-BL2001-2051/pdf/Brownfield_Land_Register_Maps_2019_2001_to_2051.pdf,0.44,owned by a public authority,,not permissioned,,,,10,,14.0,,Allocation WR3e in Local Plan,2017-12-15,2019-12-16,,,
,,,,,,,,,,,,,,,,,,,http://opendatacommunities.org/doc/unitary-authority/reading,Reading Borough Council,BL2006,"""4 Berkeley Avenue, Reading""",471040,172610,https://www.reading.gov.uk/media/8107/Brownfield-Register-Maps-BL2001-2051/pdf/Brownfield_Land_Register_Maps_2019_2001_to_2051.pdf,0.06,not owned by a public authority,,not permissioned,,,,10,,14.0,,Allocation WR3f in Local Plan,2017-12-15,2019-12-16,,,
,,,,,,,,,,,,,,,,,,,http://opendatacommunities.org/doc/unitary-authority/reading,Reading Borough Council,BL2007,"""Central Club, London Street, Reading""",471760,173150,https://www.reading.gov.uk/media/8107/Brownfield-Register-Maps-BL2001-2051/pdf/Brownfield_Land_Register_Maps_2019_2001_to_2051.pdf,0.05,owned by a public authority,,not permissioned,,,,8,,12.0,,Allocation CR14h in Local Plan,2017-12-15,2019-12-16,,,
,,,,,,,,,,,,,,,,,,,http://opendatacommunities.org/doc/unitary-authority/reading,Reading Borough Council,BL2008,"""5-9 Berkeley Avenue, Reading""",471379,172580,https://www.reading.gov.uk/media/8107/Brownfield-Register-Maps-BL2001-2051/pdf/Brownfield_Land_Register_Maps_2019_2001_to_2051.pdf,0.63,not owned by a public authority,,permissioned,,,,112,,,,"Original permission 070256, allowed on appeal.  101656 is extension of time.  Development under construction.",2017-12-15,2019-12-16,,,
,,,,,,,,,,,,,,,,,,,http://opendatacommunities.org/doc/unitary-authority/reading,Reading Borough Council,BL2009,"""Pulleyn Park, Rose Kiln Lane, Reading""",471420,172360,https://www.reading.gov.uk/media/8107/Brownfield-Register-Maps-BL2001-2051/pdf/Brownfield_Land_Register_Maps_2019_2001_to_2051.pdf,1.29,not owned by a public authority,,not permissioned,,,,70,,100.0,,Allocation SR4a in Local Plan,2017-12-15,2019-12-16,,,
,,,,,,,,,,,,,,,,,,,http://opendatacommunities.org/doc/unitary-authority/reading,Reading Borough Council,BL2015,"""187-189 Kings Road, Reading""",472580,173300,https://www.reading.gov.uk/media/8107/Brownfield-Register-Maps-BL2001-2051/pdf/Brownfield_Land_Register_Maps_2019_2001_to_2051.pdf,0.1,not owned by a public authority,,not permissioned,,,,22,,33.0,,Allocation CR14l in Local Plan.  Application for more extensive development (161205) refused.,2017-12-15,2019-12-16,,,
,,,,,,,,,,,,,,,,,,,http://opendatacommunities.org/doc/unitary-authority/reading,Reading Borough Council,BL2017,"""Princes House, 73A London Road, Reading""",472373,173036,https://www.reading.gov.uk/media/8107/Brownfield-Register-Maps-BL2001-2051/pdf/Brownfield_Land_Register_Maps_2019_2001_to_2051.pdf,0.16,owned by a public authority,,not permissioned,,,,26,,,,Prior approval 150685 now expired.,2017-12-15,2019-12-16,,,
,,,,,,,,,,,,,,,,,,,http://opendatacommunities.org/doc/unitary-authority/reading,Reading Borough Council,BL2018,"""Dingley House, 3-5 Craven Road, Reading""",472580,172910,https://www.reading.gov.uk/media/8107/Brownfield-Register-Maps-BL2001-2051/pdf/Brownfield_Land_Register_Maps_2019_2001_to_2051.pdf,0.33,owned by a public authority,,not permissioned,,,,15,,22.0,,Allocation ER1b in Local Plan.,2017-12-15,2019-12-16,,,
,,,,,,,,,,,,,,,,,,,http://opendatacommunities.org/doc/unitary-authority/reading,Reading Borough Council,BL2019,"""3-4 Wesley Gate, Queens Road, Reading""",472182,173224,https://www.reading.gov.uk/media/8107/Brownfield-Register-Maps-BL2001-2051/pdf/Brownfield_Land_Register_Maps_2019_2001_to_2051.pdf,0.07,not owned by a public authority,,permissioned,,,,18,,,,Prior approval 170314 for conversion under construction. Planning permission 172162 for roof extension.,2017-12-15,2019-12-16,,,
,,,,,,,,,,,,,,,,,,,http://opendatacommunities.org/doc/unitary-authority/reading,Reading Borough Council,BL2020,"""Havell House, 62-66 Queens Road, Reading""",472142,173215,https://www.reading.gov.uk/media/8107/Brownfield-Register-Maps-BL2001-2051/pdf/Brownfield_Land_Register_Maps_2019_2001_to_2051.pdf,0.06,not owned by a public authority,,permissioned,,,,13,,,,"Prior approvals reference 181464, 181466, 181467, 181468",2017-12-15,2019-12-16,,,
,,,,,,,,,,,,,,,,,,,http://opendatacommunities.org/doc/unitary-authority/reading,Reading Borough Council,BL2021,"""60 Queens Road, Reading""",472110,173200,https://www.reading.gov.uk/media/8107/Brownfield-Register-Maps-BL2001-2051/pdf/Brownfield_Land_Register_Maps_2019_2001_to_2051.pdf,0.22,not owned by a public authority,,not permissioned,,,,30,,,,"Prior approval 141834 has expired, and offices now refurbished.",2017-12-15,2019-12-16,,,
,,,,,,,,,,,,,,,,,,,http://opendatacommunities.org/doc/unitary-authority/reading,Reading Borough Council,BL2025,"""Clarendon House, 59-75 Queens Road, Reading""",472192,173267,https://www.reading.gov.uk/media/8107/Brownfield-Register-Maps-BL2001-2051/pdf/Brownfield_Land_Register_Maps_2019_2001_to_2051.pdf,0.21,not owned by a public authority,,permissioned,,,,92,,,,"Prior approval 180722 and 180156 for conversion, under construction.  Permission 180909 for extension, not started.",2017-12-15,2019-12-16,,,
,,,,,,,,,,,,,,,,,,,http://opendatacommunities.org/doc/unitary-authority/reading,Reading Borough Council,BL2027,"""100 Kings Road, Reading""",472061,173353,https://www.reading.gov.uk/media/8107/Brownfield-Register-Maps-BL2001-2051/pdf/Brownfield_Land_Register_Maps_2019_2001_to_2051.pdf,0.19,not owned by a public authority,,permissioned,,,,9,,,,Permission 161449,2017-12-15,2019-12-16,,,
,,,,,,,,,,,,,,,,,,,http://opendatacommunities.org/doc/unitary-authority/reading,Reading Borough Council,BL2029,"""83-85 London Street, Reading""",471851,173006,https://www.reading.gov.uk/media/8107/Brownfield-Register-Maps-BL2001-2051/pdf/Brownfield_Land_Register_Maps_2019_2001_to_2051.pdf,0.06,not owned by a public authority,,permissioned,,,,18,,,,Prior approval 181880,2017-12-15,2019-12-16,,,
,,,,,,,,,,,,,,,,,,,http://opendatacommunities.org/doc/unitary-authority/reading,Reading Borough Council,BL2031,"""Enterprise House, 89-97 London Street, Reading""",471870,172990,https://www.reading.gov.uk/media/8107/Brownfield-Register-Maps-BL2001-2051/pdf/Brownfield_Land_Register_Maps_2019_2001_to_2051.pdf,0.15,not owned by a public authority,,not permissioned,,,,8,,12.0,,"Allocation CR14i in Local Plan.  Planning permission previously granted for conversion to 10 dwellings (111087), now expired",2017-12-15,2019-12-16,,,
,,,,,,,,,,,,,,,,,,,http://opendatacommunities.org/doc/unitary-authority/reading,Reading Borough Council,BL2033,"""Aspen House, 300 Kings Road, Reading""",472803,173202,https://www.reading.gov.uk/media/8107/Brownfield-Register-Maps-BL2001-2051/pdf/Brownfield_Land_Register_Maps_2019_2001_to_2051.pdf,0.07,not owned by a public authority,,permissioned,,,,14,,,,Permission 180683,2017-12-15,2019-12-16,,,
,,,,,,,,,,,,,,,,,,,http://opendatacommunities.org/doc/unitary-authority/reading,Reading Borough Council,BL2034,"""Alexander House, 205-207 Kings Road, Reading""",472935,173241,https://www.reading.gov.uk/media/8107/Brownfield-Register-Maps-BL2001-2051/pdf/Brownfield_Land_Register_Maps_2019_2001_to_2051.pdf,0.16,not owned by a public authority,,permissioned,,,,56,,,,Permission 162057.  Also included as allocation in Local Plan (ER1g).  Application 190160 for student accommodation refused.,2017-12-15,2019-12-16,,,
,,,,,,,,,,,,,,,,,,,http://opendatacommunities.org/doc/unitary-authority/reading,Reading Borough Council,BL2035,"""Arthur Hill Swimming Pool, 221-225 Kings Road, Reading""",473040,173250,https://www.reading.gov.uk/media/8107/Brownfield-Register-Maps-BL2001-2051/pdf/Brownfield_Land_Register_Maps_2019_2001_to_2051.pdf,0.11,owned by a public authority,,not permissioned,,,,6,,10.0,,Allocation ER1h in Local Plan,2017-12-15,2019-12-16,,,
,,,,,,,,,,,,,,,,,,,http://opendatacommunities.org/doc/unitary-authority/reading,Reading Borough Council,BL2036,"""Gas Holder, Kenavon Drive, Reading""",472900,173690,https://www.reading.gov.uk/media/8107/Brownfield-Register-Maps-BL2001-2051/pdf/Brownfield_Land_Register_Maps_2019_2001_to_2051.pdf,0.71,not owned by a public authority,,pending decision,,,,130,,,,Application 190627 has resolution to grant permission subject to Section 106. Allocation CR13d in Local Plan,2017-12-15,2019-12-16,,,
,,,,,,,,,,,,,,,,,,,http://opendatacommunities.org/doc/unitary-authority/reading,Reading Borough Council,BL2037,"""261-275 London Road, Reading""",473320,173310,https://www.reading.gov.uk/media/8107/Brownfield-Register-Maps-BL2001-2051/pdf/Brownfield_Land_Register_Maps_2019_2001_to_2051.pdf,0.16,not owned by a public authority,,not permissioned,,,,10,,16.0,,Allocation ER1i in Local Plan,2017-12-15,2019-12-16,,,
,,,,,,,,,,,,,,,,,,,http://opendatacommunities.org/doc/unitary-authority/reading,Reading Borough Council,BL2038,"""28 Wokingham Road, Reading""",473279,173122,https://www.reading.gov.uk/media/8107/Brownfield-Register-Maps-BL2001-2051/pdf/Brownfield_Land_Register_Maps_2019_2001_to_2051.pdf,0.07,not owned by a public authority,,permissioned,,,,7,,,,Permission 150325,2017-12-15,2019-12-16,,,
,,,,,,,,,,,,,,,,,,,http://opendatacommunities.org/doc/unitary-authority/reading,Reading Borough Council,BL2039,"""1-2 Wesley Gate, Queens Road, Reading""",472162,173209,https://www.reading.gov.uk/media/8107/Brownfield-Register-Maps-BL2001-2051/pdf/Brownfield_Land_Register_Maps_2019_2001_to_2051.pdf,0.08,not owned by a public authority,,permissioned,,,,15,,,,Prior approval 181321 and 191520,2018-12-16,2019-12-16,,,
,,,,,,,,,,,,,,,,,,,http://opendatacommunities.org/doc/unitary-authority/reading,Reading Borough Council,BL2040,"""54 Queens Road, Reading""",472033,173184,https://www.reading.gov.uk/media/8107/Brownfield-Register-Maps-BL2001-2051/pdf/Brownfield_Land_Register_Maps_2019_2001_to_2051.pdf,0.16,not owned by a public authority,,permissioned,,,,20,,,,Prior approval 180982,2018-12-16,2019-12-16,,,
,,,,,,,,,,,,,,,,,,,http://opendatacommunities.org/doc/unitary-authority/reading,Reading Borough Council,BL2041,"""108 London Street, Reading""",471829,172952,https://www.reading.gov.uk/media/8107/Brownfield-Register-Maps-BL2001-2051/pdf/Brownfield_Land_Register_Maps_2019_2001_to_2051.pdf,0.04,not owned by a public authority,,permissioned,,,,7,,,,Planning permission 181218,2018-12-16,2019-12-16,,,
,,,,,,,,,,,,,,,,,,,http://opendatacommunities.org/doc/unitary-authority/reading,Reading Borough Council,BL2042,"""Addington House, 73 London Street, Reading""",471832,173046,https://www.reading.gov.uk/media/8107/Brownfield-Register-Maps-BL2001-2051/pdf/Brownfield_Land_Register_Maps_2019_2001_to_2051.pdf,0.03,not owned by a public authority,,permissioned,,,,8,,,,Planning permission 180758,2018-12-16,2019-12-16,,,
,,,,,,,,,,,,,,,,,,,http://opendatacommunities.org/doc/unitary-authority/reading,Reading Borough Council,BL2043,"""Cadogan House, Rose Kiln Lane, Reading""",471267,172263,https://www.reading.gov.uk/media/8107/Brownfield-Register-Maps-BL2001-2051/pdf/Brownfield_Land_Register_Maps_2019_2001_to_2051.pdf,0.23,not owned by a public authority,,permissioned,,,,19,,39.0,,"Prior approvals 181643 (39 units), 172277 (19 units) and 182166 (24 units)",2018-12-16,2019-12-16,,,
,,,,,,,,,,,,,,,,,,,http://opendatacommunities.org/doc/unitary-authority/reading,Reading Borough Council,BL2044,"""42 Queens Road, Reading""",471991,173189,https://www.reading.gov.uk/media/8107/Brownfield-Register-Maps-BL2001-2051/pdf/Brownfield_Land_Register_Maps_2019_2001_to_2051.pdf,0.03,not owned by a public authority,,permissioned,,,,5,,,,Permission 181579.,2019-12-16,2019-12-16,,,
,,,,,,,,,,,,,,,,,,,http://opendatacommunities.org/doc/unitary-authority/reading,Reading Borough Council,BL2045,"""Mulberry House, 1a Eldon Road, Reading""",472491,173214,https://www.reading.gov.uk/media/8107/Brownfield-Register-Maps-BL2001-2051/pdf/Brownfield_Land_Register_Maps_2019_2001_to_2051.pdf,0.08,not owned by a public authority,,permissioned,,,,7,,,,Alternative permission 171521 is for demolition for landscaping.,2019-12-16,2019-12-16,,,
,,,,,,,,,,,,,,,,,,,http://opendatacommunities.org/doc/unitary-authority/reading,Reading Borough Council,BL2046,"""Dukesbridge House, 23 Duke Street, Reading""",471795,173333,https://www.reading.gov.uk/media/8107/Brownfield-Register-Maps-BL2001-2051/pdf/Brownfield_Land_Register_Maps_2019_2001_to_2051.pdf,0.19,not owned by a public authority,,permissioned,,,,77,,,,Prior approval 190602,2019-12-16,2019-12-16,,,
,,,,,,,,,,,,,,,,,,,http://opendatacommunities.org/doc/unitary-authority/reading,Reading Borough Council,BL2047,"""149 London Road, Reading""",472977,173176,https://www.reading.gov.uk/media/8107/Brownfield-Register-Maps-BL2001-2051/pdf/Brownfield_Land_Register_Maps_2019_2001_to_2051.pdf,0.11,not owned by a public authority,,permissioned,,,,6,,,,"Permission 161303, under construction.",2019-12-16,2019-12-16,,,
,,,,,,,,,,,,,,,,,,,http://opendatacommunities.org/doc/unitary-authority/reading,Reading Borough Council,BL2048,"""36 Queens Road, Reading""",471972,173184,https://www.reading.gov.uk/media/8107/Brownfield-Register-Maps-BL2001-2051/pdf/Brownfield_Land_Register_Maps_2019_2001_to_2051.pdf,0.03,not owned by a public authority,,permissioned,,,,5,,,,Permission 181908,2019-12-16,2019-12-16,,,
,,,,,,,,,,,,,,,,,,,http://opendatacommunities.org/doc/unitary-authority/reading,Reading Borough Council,BL2049,"""10 Southern Court, South Street, Reading""",471949,173081,https://www.reading.gov.uk/media/8107/Brownfield-Register-Maps-BL2001-2051/pdf/Brownfield_Land_Register_Maps_2019_2001_to_2051.pdf,0.02,not owned by a public authority,,permissioned,,,,16,,,,Prior approvals 182027 and 190965,2019-12-16,2019-12-16,,,
,,,,,,,,,,,,,,,,,,,http://opendatacommunities.org/doc/unitary-authority/reading,Reading Borough Council,BL2050,"""Dukesbridge Chambers, 1 Duke Street, Reading""",471750,173377,https://www.reading.gov.uk/media/8107/Brownfield-Register-Maps-BL2001-2051/pdf/Brownfield_Land_Register_Maps_2019_2001_to_2051.pdf,0.03,not owned by a public authority,,permissioned,,,,25,,,,Prior approval 191221,2019-12-16,2019-12-16,,,
,,,,,,,,,,,,,,,,,,,http://opendatacommunities.org/doc/unitary-authority/reading,Reading Borough Council,BL2051,"""27 Hamilton Road, Reading""",473382,172997,https://www.reading.gov.uk/media/8107/Brownfield-Register-Maps-BL2001-2051/pdf/Brownfield_Land_Register_Maps_2019_2001_to_2051.pdf,0.09,not owned by a public authority,,permissioned,,,,9,,,,Permission 161779,2019-12-16,2019-12-16,,,
,,,,,,,,,,,,,,,,,,,http://opendatacommunities.org/doc/unitary-authority/reading,Reading Borough Council,BL3001,"""131 Wokingham Road, Reading""",474080,172590,https://www.reading.gov.uk/media/8106/Brownfield-Register-Maps-BL3001-3026/pdf/Brownfield_Land_Register_Maps_2019_3001_to_3026.pdf,0.15,not owned by a public authority,,not permissioned,,,,8,,12.0,,Allocation ER1k in Local Plan.,2017-12-15,2019-12-16,,,
,,,,,,,,,,,,,,,,,,,http://opendatacommunities.org/doc/unitary-authority/reading,Reading Borough Council,BL3002,"""Hamilton Centre, Bulmershe Road, Reading""",473770,172450,https://www.reading.gov.uk/media/8106/Brownfield-Register-Maps-BL3001-3026/pdf/Brownfield_Land_Register_Maps_2019_3001_to_3026.pdf,0.35,owned by a public authority,,not permissioned,,,,13,,19.0,,Allocation ER1f in Local Plan,2017-12-15,2019-12-16,,,
,,,,,,,,,,,,,,,,,,,http://opendatacommunities.org/doc/unitary-authority/reading,Reading Borough Council,BL3005,"""Land adjacent to 40 Redlands Road, Reading""",472490,172440,https://www.reading.gov.uk/media/8106/Brownfield-Register-Maps-BL3001-3026/pdf/Brownfield_Land_Register_Maps_2019_3001_to_3026.pdf,0.43,not owned by a public authority,,not permissioned,,,,23,,35.0,,Allocation ER1d in Local Plan,2017-12-15,2019-12-16,,,
,,,,,,,,,,,,,,,,,,,http://opendatacommunities.org/doc/unitary-authority/reading,Reading Borough Council,BL3006,"""The Woodley Arms PH, Waldeck Street, Reading""",471850,172440,https://www.reading.gov.uk/media/8106/Brownfield-Register-Maps-BL3001-3026/pdf/Brownfield_Land_Register_Maps_2019_3001_to_3026.pdf,0.09,not owned by a public authority,,not permissioned,,,,26,,38.0,,Allocation ER1a in Local Plan.  Planning permission for student accommodation 171893 granted on appeal 10/10/2018,2017-12-15,2019-12-16,,,
,,,,,,,,,,,,,,,,,,,http://opendatacommunities.org/doc/unitary-authority/reading,Reading Borough Council,BL3007,"""92-96 Southampton Street, Reading""",471685,172804,https://www.reading.gov.uk/media/8106/Brownfield-Register-Maps-BL3001-3026/pdf/Brownfield_Land_Register_Maps_2019_3001_to_3026.pdf,0.04,not owned by a public authority,,permissioned,,,,7,,,,"Permission 160571, under construction at 31/03/2019",2017-12-15,2019-12-16,,,
,,,,,,,,,,,,,,,,,,,http://opendatacommunities.org/doc/unitary-authority/reading,Reading Borough Council,BL3008,"""Corner of Crown Street and Southampton Street, Reading""",471710,172820,https://www.reading.gov.uk/media/8106/Brownfield-Register-Maps-BL3001-3026/pdf/Brownfield_Land_Register_Maps_2019_3001_to_3026.pdf,0.08,owned by a public authority,,not permissioned,,,,13,,19.0,,Allocation CR14j in Local Plan,2017-12-15,2019-12-16,,,
,,,,,,,,,,,,,,,,,,,http://opendatacommunities.org/doc/unitary-authority/reading,Reading Borough Council,BL3010,"""13-21 Crown Street and 27 Silver Street, Reading""",471864,172841,https://www.reading.gov.uk/media/8106/Brownfield-Register-Maps-BL3001-3026/pdf/Brownfield_Land_Register_Maps_2019_3001_to_3026.pdf,0.33,not owned by a public authority,,permissioned,,,,80,,,,"Permission 170794, under construction.  Allocation in Local Plan (CR14k).",2017-12-15,2019-12-16,,,
,,,,,,,,,,,,,,,,,,,http://opendatacommunities.org/doc/unitary-authority/reading,Reading Borough Council,BL3011,"""40 Silver Street, Reading""",471891,172729,https://www.reading.gov.uk/media/8106/Brownfield-Register-Maps-BL3001-3026/pdf/Brownfield_Land_Register_Maps_2019_3001_to_3026.pdf,0.11,not owned by a public authority,,not permissioned,,,,14,,,,Permission 150885 expired March 2019,2017-12-15,2019-12-16,,,
,,,,,,,,,,,,,,,,,,,http://opendatacommunities.org/doc/unitary-authority/reading,Reading Borough Council,BL3013,"""South of Elgar Road, Reading""",471600,171760,https://www.reading.gov.uk/media/8106/Brownfield-Register-Maps-BL3001-3026/pdf/Brownfield_Land_Register_Maps_2019_3001_to_3026.pdf,5.38,not owned by a public authority,,not permissioned,,,,330,,500.0,,Allocation SR3 in Local Plan,2017-12-15,2019-12-16,,,
,,,,,,,,,,,,,,,,,,,http://opendatacommunities.org/doc/unitary-authority/reading,Reading Borough Council,BL3014,"""35 Christchurch Road, Reading""",472215,172232,https://www.reading.gov.uk/media/8106/Brownfield-Register-Maps-BL3001-3026/pdf/Brownfield_Land_Register_Maps_2019_3001_to_3026.pdf,0.08,not owned by a public authority,,permissioned,,,,10,,,,Permission 151034,2017-12-15,2019-12-16,,,
,,,,,,,,,,,,,,,,,,,http://opendatacommunities.org/doc/unitary-authority/reading,Reading Borough Council,BL3015,"""Warwick House, 1 Warwick Road, Reading""",472223,171972,https://www.reading.gov.uk/media/8106/Brownfield-Register-Maps-BL3001-3026/pdf/Brownfield_Land_Register_Maps_2019_3001_to_3026.pdf,0.15,not owned by a public authority,,permissioned,,,,10,,,,Permission 151407.,2017-12-15,2019-12-16,,,
,,,,,,,,,,,,,,,,,,,http://opendatacommunities.org/doc/unitary-authority/reading,Reading Borough Council,BL3017,"""Land North of Manor Farm Road, Reading""",471600,170900,https://www.reading.gov.uk/media/8106/Brownfield-Register-Maps-BL3001-3026/pdf/Brownfield_Land_Register_Maps_2019_3001_to_3026.pdf,13.69,mixed ownership,,not permissioned,,,,680,,1020.0,,Allocation SR2 in Local Plan.,2017-12-15,2019-12-16,,,
,,,,,,,,,,,,,,,,,,,http://opendatacommunities.org/doc/unitary-authority/reading,Reading Borough Council,BL3018,"""Land at the Madejski Stadium, Shooters Way, Reading""",470835,169751,https://www.reading.gov.uk/media/8106/Brownfield-Register-Maps-BL3001-3026/pdf/Brownfield_Land_Register_Maps_2019_3001_to_3026.pdf,19.0,not owned by a public authority,,permissioned,,,,618,,,,"Application 160199 is a hybrid, with 196 residential units and non-residential elements in detail, and 422 units in outline.  Permitted November 2018",2017-12-15,2019-12-16,,,
,,,,,,,,,,,,,,,,,,,http://opendatacommunities.org/doc/unitary-authority/reading,Reading Borough Council,BL3019,"""Worton Grange, Imperial Way, Reading""",471500,169300,https://www.reading.gov.uk/media/8106/Brownfield-Register-Maps-BL3001-3026/pdf/Brownfield_Land_Register_Maps_2019_3001_to_3026.pdf,6.17,not owned by a public authority,,permissioned,,,,76,,,,"Permission 151944 was hybrid - detailed for commercial development, and outline for residential.  Permission 161496 was reserved matters for residential.  Commercial development complete and residential development under construction at 31/03/2019.",2017-12-15,2018-12-16,,,
,,,,,,,,,,,,,,,,,,,http://opendatacommunities.org/doc/unitary-authority/reading,Reading Borough Council,BL3020,"""Land at corner of Newark Street and Crown Street, Reading""",471818,172831,https://www.reading.gov.uk/media/8106/Brownfield-Register-Maps-BL3001-3026/pdf/Brownfield_Land_Register_Maps_2019_3001_to_3026.pdf,0.03,not owned by a public authority,,permissioned,,,,9,,,,Permission 180417.  Part of allocation CR14k in Local Plan.,2018-12-16,2019-12-16,,,
,,,,,,,,,,,,,,,,,,,http://opendatacommunities.org/doc/unitary-authority/reading,Reading Borough Council,BL3021,"""125 Highgrove Street, Reading""",472109,172247,https://www.reading.gov.uk/media/8106/Brownfield-Register-Maps-BL3001-3026/pdf/Brownfield_Land_Register_Maps_2019_3001_to_3026.pdf,0.13,not owned by a public authority,,permissioned,,,,8,,,,Permission 171477,2018-12-16,2019-12-16,,,
,,,,,,,,,,,,,,,,,,,http://opendatacommunities.org/doc/unitary-authority/reading,Reading Borough Council,BL3022,"""14 Arkwright Road, Reading""",471643,171358,https://www.reading.gov.uk/media/8106/Brownfield-Register-Maps-BL3001-3026/pdf/Brownfield_Land_Register_Maps_2019_3001_to_3026.pdf,0.33,not owned by a public authority,,permissioned,,,,37,,,,Prior approval 180654.  Site is within Core Employment Area and therefore application involving loss of employment would be contrary to policy.,2018-12-16,2019-12-16,,,
,,,,,,,,,,,,,,,,,,,http://opendatacommunities.org/doc/unitary-authority/reading,Reading Borough Council,BL3023,"""85-87 Basingstoke Road, Reading""",471889,171632,https://www.reading.gov.uk/media/8106/Brownfield-Register-Maps-BL3001-3026/pdf/Brownfield_Land_Register_Maps_2019_3001_to_3026.pdf,0.06,not owned by a public authority,,permissioned,,,,17,,23.0,,Prior approval 182091 (17 flats) and 190358 (23 flats),2019-12-16,2019-12-16,,,
,,,,,,,,,,,,,,,,,,,http://opendatacommunities.org/doc/unitary-authority/reading,Reading Borough Council,BL3024,"""34-38 Southampton Street, Reading""",471591,172948,https://www.reading.gov.uk/media/8106/Brownfield-Register-Maps-BL3001-3026/pdf/Brownfield_Land_Register_Maps_2019_3001_to_3026.pdf,0.03,not owned by a public authority,,permissioned,,,,11,,,,Permission 181117,2019-12-16,2019-12-16,,,
,,,,,,,,,,,,,,,,,,,http://opendatacommunities.org/doc/unitary-authority/reading,Reading Borough Council,BL3025,"""Former Sales and Marketing Suites, Drake Way, Reading""",471256,170666,https://www.reading.gov.uk/media/8106/Brownfield-Register-Maps-BL3001-3026/pdf/Brownfield_Land_Register_Maps_2019_3001_to_3026.pdf,0.24,not owned by a public authority,,permissioned,,,,12,,,,Permission 180543,2019-12-16,2019-12-16,,,
,,,,,,,,,,,,,,,,,,,http://opendatacommunities.org/doc/unitary-authority/reading,Reading Borough Council,BL3026,"""1 St Giles Court, Southampton Street, Reading""",471569,172946,https://www.reading.gov.uk/media/8106/Brownfield-Register-Maps-BL3001-3026/pdf/Brownfield_Land_Register_Maps_2019_3001_to_3026.pdf,0.03,not owned by a public authority,,permissioned,,,,5,,,,Prior approval 191513,2019-12-16,2019-12-16,,,
,,,,,,,,,,,,,,,,,,,http://opendatacommunities.org/doc/unitary-authority/reading,Reading Borough Council,BL4001,"""169-173 Basingstoke Road, Reading""",471880,171450,https://www.reading.gov.uk/media/8108/Brownfield-Register-Maps-BL4001-4025/pdf/Brownfield_Land_Register_Maps_2019_4001_to_4025.pdf,0.8,not owned by a public authority,,not permissioned,,,,50,,80.0,,Allocation SR4c in Local Plan,2017-12-15,2019-12-16,,,
,,,,,,,,,,,,,,,,,,,http://opendatacommunities.org/doc/unitary-authority/reading,Reading Borough Council,BL4005,"""Alice Burrows Home, Dwyer Road, Reading""",468230,171880,https://www.reading.gov.uk/media/8108/Brownfield-Register-Maps-BL4001-4025/pdf/Brownfield_Land_Register_Maps_2019_4001_to_4025.pdf,0.48,owned by a public authority,,not permissioned,,,,18,,27.0,,Allocation WR3p in Local Plan.,2017-12-15,2019-12-16,,,
,,,,,,,,,,,,,,,,,,,http://opendatacommunities.org/doc/unitary-authority/reading,Reading Borough Council,BL4006,"""Land at Conwy Close, Tilehurst, Reading""",467703,172997,https://www.reading.gov.uk/media/8108/Brownfield-Register-Maps-BL4001-4025/pdf/Brownfield_Land_Register_Maps_2019_4001_to_4025.pdf,1.04,owned by a public authority,,permissioned,,,,44,,,,Permission 161390 under construction at 31/03/2019,2017-12-15,2019-12-16,,,
,,,,,,,,,,,,,,,,,,,http://opendatacommunities.org/doc/unitary-authority/reading,Reading Borough Council,BL4007,"""5 Westcote Road, Reading""",469853,172805,https://www.reading.gov.uk/media/8108/Brownfield-Register-Maps-BL4001-4025/pdf/Brownfield_Land_Register_Maps_2019_4001_to_4025.pdf,0.97,not owned by a public authority,,permissioned,,,,7,,,,Permission 160246 under construction,2017-12-15,2019-12-16,,,
,,,,,,,,,,,,,,,,,,,http://opendatacommunities.org/doc/unitary-authority/reading,Reading Borough Council,BL4008,"""Amethyst Lane, Reading""",469480,172660,https://www.reading.gov.uk/media/8108/Brownfield-Register-Maps-BL4001-4025/pdf/Brownfield_Land_Register_Maps_2019_4001_to_4025.pdf,0.57,owned by a public authority,,not permissioned,,,,32,,48.0,,Allocation WR3n in Local Plan.,2017-12-15,2019-12-16,,,
,,,,,,,,,,,,,,,,,,,http://opendatacommunities.org/doc/unitary-authority/reading,Reading Borough Council,BL4009,"""62-79 Armadale Court, Westcote Road, Reading""",469740,172590,https://www.reading.gov.uk/media/8108/Brownfield-Register-Maps-BL4001-4025/pdf/Brownfield_Land_Register_Maps_2019_4001_to_4025.pdf,0.38,not owned by a public authority,,not permissioned,,,,8,,,,Permission 131528 now expired.,2017-12-15,2019-12-16,,,
,,,,,,,,,,,,,,,,,,,http://opendatacommunities.org/doc/unitary-authority/reading,Reading Borough Council,BL4011,"""Former Elvian School Site, Bath Road, Reading""",469627,172441,https://www.reading.gov.uk/media/8108/Brownfield-Register-Maps-BL4001-4025/pdf/Brownfield_Land_Register_Maps_2019_4001_to_4025.pdf,5.0,not owned by a public authority,,permissioned,,,,10,,,,Permission 151175.  161877 is reserved matters for school. School and most of residential development complete and remainder under construction at 31/03/2019.,2017-12-15,2019-12-16,,,
,,,,,,,,,,,,,,,,,,,http://opendatacommunities.org/doc/unitary-authority/reading,Reading Borough Council,BL4012,"""Phase 3, Dee Park Estate, Spey Road, Reading""",468331,173531,https://www.reading.gov.uk/media/8108/Brownfield-Register-Maps-BL4001-4025/pdf/Brownfield_Land_Register_Maps_2019_4001_to_4025.pdf,16.4,mixed ownership,,permissioned,,,,108,,,,Outline permission 091606.  Phases 1 and 2 already complete,2017-12-15,2019-12-16,,,
,,,,,,,,,,,,,,,,,,,http://opendatacommunities.org/doc/unitary-authority/reading,Reading Borough Council,BL4013,"""103 Dee Road, Reading""",468520,173340,https://www.reading.gov.uk/media/8108/Brownfield-Register-Maps-BL4001-4025/pdf/Brownfield_Land_Register_Maps_2019_4001_to_4025.pdf,0.85,owned by a public authority,,not permissioned,,,,34,,50.0,,"Allocation WR3m in Local Plan.  Previously permitted for redevelopment for 42 dwellings (100126), now expired.",2017-12-15,2019-12-16,,,
,,,,,,,,,,,,,,,,,,,http://opendatacommunities.org/doc/unitary-authority/reading,Reading Borough Council,BL4015,"""1025-1027 Oxford Road, Tilehurst, Reading""",467250,175250,https://www.reading.gov.uk/media/8108/Brownfield-Register-Maps-BL4001-4025/pdf/Brownfield_Land_Register_Maps_2019_4001_to_4025.pdf,0.19,not owned by a public authority,,permissioned,,,,12,,,,061080 was original outline permission.  070937 is reserved matters permission.  Existing dwellings on site have been demolished.,2017-12-15,2019-12-16,,,
,,,,,,,,,,,,,,,,,,,http://opendatacommunities.org/doc/unitary-authority/reading,Reading Borough Council,BL4016,"""Charters Car Sales, Oxford Road, Reading""",467250,175320,https://www.reading.gov.uk/media/8108/Brownfield-Register-Maps-BL4001-4025/pdf/Brownfield_Land_Register_Maps_2019_4001_to_4025.pdf,0.33,not owned by a public authority,,not permissioned,,,,12,,18.0,,Allocation WR3r in Local Plan,2017-12-15,2019-12-16,,,
,,,,,,,,,,,,,,,,,,,http://opendatacommunities.org/doc/unitary-authority/reading,Reading Borough Council,BL4018,"""Norcot Community Centre, Lyndhurst Road, Reading""",467880,174500,https://www.reading.gov.uk/media/8108/Brownfield-Register-Maps-BL4001-4025/pdf/Brownfield_Land_Register_Maps_2019_4001_to_4025.pdf,0.13,owned by a public authority,,not permissioned,,,,18,,,,Application 181377 has resolution to grant permission subject to Section 106. Allocation WR3q in Local Plan,2017-12-15,2019-12-16,,,
,,,,,,,,,,,,,,,,,,,http://opendatacommunities.org/doc/unitary-authority/reading,Reading Borough Council,BL4019,"""816 Oxford Road, Reading""",468800,174090,https://www.reading.gov.uk/media/8108/Brownfield-Register-Maps-BL4001-4025/pdf/Brownfield_Land_Register_Maps_2019_4001_to_4025.pdf,0.23,not owned by a public authority,,not permissioned,,,,13,,20.0,,Allocation WR3l in Local Plan.,2017-12-15,2019-12-16,,,
,,,,,,,,,,,,,,,,,,,http://opendatacommunities.org/doc/unitary-authority/reading,Reading Borough Council,BL4020,"""784-794 Oxford Road, Reading""",468870,174030,https://www.reading.gov.uk/media/8108/Brownfield-Register-Maps-BL4001-4025/pdf/Brownfield_Land_Register_Maps_2019_4001_to_4025.pdf,0.22,not owned by a public authority,,not permissioned,,,,14,,22.0,,Allocation WR3k in Local Plan.,2017-12-15,2019-12-16,,,
,,,,,,,,,,,,,,,,,,,http://opendatacommunities.org/doc/unitary-authority/reading,Reading Borough Council,BL4021,"""750 & 752 Oxford Road, Tilehurst, Reading""",468955,173958,https://www.reading.gov.uk/media/8108/Brownfield-Register-Maps-BL4001-4025/pdf/Brownfield_Land_Register_Maps_2019_4001_to_4025.pdf,0.07,not owned by a public authority,,permissioned,,,,8,,,,Permission 160938,2017-12-15,2019-12-16,,,
,,,,,,,,,,,,,,,,,,,http://opendatacommunities.org/doc/unitary-authority/reading,Reading Borough Council,BL4022,"""St George's Hall, St George's Road, Reading""",469038,173643,https://www.reading.gov.uk/media/8108/Brownfield-Register-Maps-BL4001-4025/pdf/Brownfield_Land_Register_Maps_2019_4001_to_4025.pdf,0.31,not owned by a public authority,,permissioned,,,,12,,,,Permission 152301 under construction at 31/03/2019,2017-12-15,2019-12-16,,,
,,,,,,,,,,,,,,,,,,,http://opendatacommunities.org/doc/unitary-authority/reading,Reading Borough Council,BL4023,"""1a Elm Park Road, Reading""",469853,173533,https://www.reading.gov.uk/media/8108/Brownfield-Register-Maps-BL4001-4025/pdf/Brownfield_Land_Register_Maps_2019_4001_to_4025.pdf,0.02,not owned by a public authority,,permissioned,,,,5,,,,Permission 171226 under construction at 31/03/2019,2018-12-16,2019-12-16,,,
,,,,,,,,,,,,,,,,,,,http://opendatacommunities.org/doc/unitary-authority/reading,Reading Borough Council,BL4024,"""The Pond House PH, 738 Oxford Road, Reading""",468987,173970,https://www.reading.gov.uk/media/8108/Brownfield-Register-Maps-BL4001-4025/pdf/Brownfield_Land_Register_Maps_2019_4001_to_4025.pdf,0.08,not owned by a public authority,,permissioned,,,,6,,,,Planning permission 171127 under construction at 31/03/2019.  Permission 150539 is an alternative development for 3 houses.,2018-12-16,2019-12-16,,,
,,,,,,,,,,,,,,,,,,,http://opendatacommunities.org/doc/unitary-authority/reading,Reading Borough Council,BL4025,"""2-6 Water Road and 158 Dee Road""",468674,173325,https://www.reading.gov.uk/media/8108/Brownfield-Register-Maps-BL4001-4025/pdf/Brownfield_Land_Register_Maps_2019_4001_to_4025.pdf,0.21,not owned by a public authority,,permissioned,,,,7,,,,Outline planning permission 161507,2018-12-16,2019-12-16,,,
,,,,,,,,,,,,,,,,,,,http://opendatacommunities.org/doc/unitary-authority/reading,Reading Borough Council,BL5001,"""Land at Moulsford Mews, Reading""",469720,173680,https://www.reading.gov.uk/media/8110/Brownfield-Register-Maps-BL5001-5012/pdf/Brownfield_Land_Register_Maps_2019_5001_to_5012.pdf,0.16,owned by a public authority,,not permissioned,,,,10,,16.0,,"Allocation WR3j in Local Plan. Originally permitted as health clinic as part of Battle Hospital development, but this part of the development was not delivered.",2017-12-15,2019-12-16,,,
,,,,,,,,,,,,,,,,,,,http://opendatacommunities.org/doc/unitary-authority/reading,Reading Borough Council,BL5002,"""Part of Former Battle Hospital, Portman Road, Reading""",469900,173900,https://www.reading.gov.uk/media/8110/Brownfield-Register-Maps-BL5001-5012/pdf/Brownfield_Land_Register_Maps_2019_5001_to_5012.pdf,2.77,owned by a public authority,,permissioned,,,,184,,,,"Permission 180319, for which demolition underway at 31/03/2019.  Allocation WR3i in Local Plan.",2017-12-15,2019-12-16,,,
,,,,,,,,,,,,,,,,,,,http://opendatacommunities.org/doc/unitary-authority/reading,Reading Borough Council,BL5003,"""Reading University Boat Club, Thames Promenade, Caversham, Reading""",471310,174600,https://www.reading.gov.uk/media/8110/Brownfield-Register-Maps-BL5001-5012/pdf/Brownfield_Land_Register_Maps_2019_5001_to_5012.pdf,0.56,not owned by a public authority,,not permissioned,,,,16,,25.0,,Allocation CA1a in Local Plan,2017-12-15,2019-12-16,,,
,,,,,,,,,,,,,,,,,,,http://opendatacommunities.org/doc/unitary-authority/reading,Reading Borough Council,BL5004,"""St Martin's Precinct, Church Street, Caversham, Reading""",471395,174747,https://www.reading.gov.uk/media/8110/Brownfield-Register-Maps-BL5001-5012/pdf/Brownfield_Land_Register_Maps_2019_5001_to_5012.pdf,1.71,not owned by a public authority,,permissioned,,,,40,,,,Permission 140997,2017-12-15,2019-12-16,,,
,,,,,,,,,,,,,,,,,,,http://opendatacommunities.org/doc/unitary-authority/reading,Reading Borough Council,BL5006,"""458-478 Oxford Road and 1-3 Chester Street, Reading""",469519,173724,https://www.reading.gov.uk/media/8110/Brownfield-Register-Maps-BL5001-5012/pdf/Brownfield_Land_Register_Maps_2019_5001_to_5012.pdf,0.1,not owned by a public authority,,permissioned,,,,5,,,,Permission for a retail unit and nine dwellings (162355).,2017-12-15,2019-12-16,,,
,,,,,,,,,,,,,,,,,,,http://opendatacommunities.org/doc/unitary-authority/reading,Reading Borough Council,BL5007,"""361-363 Oxford Road, Reading""",469972,173502,https://www.reading.gov.uk/media/8110/Brownfield-Register-Maps-BL5001-5012/pdf/Brownfield_Land_Register_Maps_2019_5001_to_5012.pdf,0.27,not owned by a public authority,,permissioned,,,,6,,,,Permission 170530 under construction at 31/03/2019,2017-12-15,2019-12-16,,,
,,,,,,,,,,,,,,,,,,,http://opendatacommunities.org/doc/unitary-authority/reading,Reading Borough Council,BL5008,"""Rear of 303-315 Oxford Road, Reading""",470140,173410,https://www.reading.gov.uk/media/8110/Brownfield-Register-Maps-BL5001-5012/pdf/Brownfield_Land_Register_Maps_2019_5001_to_5012.pdf,0.22,not owned by a public authority,,not permissioned,,,,14,,20.0,,Allocation WR3h in Local Plan.,2017-12-15,2019-12-16,,,
,,,,,,,,,,,,,,,,,,,http://opendatacommunities.org/doc/unitary-authority/reading,Reading Borough Council,BL5009,"""307-311 Gosbrook Road, Caversham, Reading""",472100,174550,https://www.reading.gov.uk/media/8110/Brownfield-Register-Maps-BL5001-5012/pdf/Brownfield_Land_Register_Maps_2019_5001_to_5012.pdf,0.05,not owned by a public authority,,permissioned,,,,5,,,,Permission 060683. Under construction at 31/03/2019.,2017-12-15,2019-12-16,,,
,,,,,,,,,,,,,,,,,,,http://opendatacommunities.org/doc/unitary-authority/reading,Reading Borough Council,BL5010,"""Land at Lowfield Road, Caversham, Reading""",473030,175880,https://www.reading.gov.uk/media/8110/Brownfield-Register-Maps-BL5001-5012/pdf/Brownfield_Land_Register_Maps_2019_5001_to_5012.pdf,0.93,owned by a public authority,,not permissioned,,,,24,,36.0,,Allocation CA1c in Local Plan.  Current temporary planning permission for temporary accommodation.,2017-12-15,2019-12-16,,,
,,,,,,,,,,,,,,,,,,,http://opendatacommunities.org/doc/unitary-authority/reading,Reading Borough Council,BL5011,"""Caversham Park House, Caversham, Reading""",472460,176280,https://www.reading.gov.uk/media/8110/Brownfield-Register-Maps-BL5001-5012/pdf/Brownfield_Land_Register_Maps_2019_5001_to_5012.pdf,0.74,owned by a public authority,,not permissioned,,,,40,,45.0,,Allocation CA2 in Local Plan,2017-12-15,2019-12-16,,,
,,,,,,,,,,,,,,,,,,,http://opendatacommunities.org/doc/unitary-authority/reading,Reading Borough Council,BL5012,"""2 Priory Avenue, Caversham, Reading""",471223,174807,https://www.reading.gov.uk/media/8110/Brownfield-Register-Maps-BL5001-5012/pdf/Brownfield_Land_Register_Maps_2019_5001_to_5012.pdf,0.03,not owned by a public authority,,permissioned,,,,6,,,,Permission 181716,2019-12-16,2019-12-16,,,
