address,address-text,deliverable,end-date,entry-date,hazardous-substances,hectares,latitude,longitude,maximum-net-dwellings,minimum-net-dwellings,notes,organisation,ownership-status,planning-permission-date,planning-permission-history,planning-permission-status,planning-permission-type,site,OrganisationURI,OrganisationLabel,SiteReference,SiteNameAddress,GeoX,GeoY,SiteplanURL,Hectares,OwnershipStatus,HazardousSubstances,PlanningStatus,PermissionType,PermissionDate,PlanningHistory,MinNetDwellings,NetDwellingsRangeFrom,NetDwellingsRangeTo,Deliverable,Notes,FirstAddedDate,LastUpdatedDate,EndDate,site-plan-url,start-date
,,,,,,,,,,,,,,,,,,,http://opendatacommunities.org/doc/district-council/boston,Boston Borough Council,BLR/BOS/001,"Whitehorse Lane, Boston",532779,343690,http://www.boston.gov.uk/CHttpHandler.ashx?id=22152&p=0,0.48,not owned by public authority,,permissioned,,,,50,,,,"Planning permission for the development of 60 dwellings (B/17/0121). The site is identified as a housing allocation capable of providing 50 dwellings in the South East Lincolnshire Local Plan 2011-2036: Publication Version (March 2017), site ref no: Cen001.",20-Nov-17,11-Dec-18,,,
,,,,,,,,,,,,,,,,,,,http://opendatacommunities.org/doc/district-council/boston,Boston Borough Council,BLR/BOS/002,"138-142 High Street, Boston",532756,343410,http://www.boston.gov.uk/CHttpHandler.ashx?id=22153&p=0,0.19,not owned by public authority,,permissioned,,,,17,,,,"9 dwellings completed, 8 outstanding",20-Nov-17,11-Dec-18,,,
,,,,,,,,,,,,,,,,,,,http://opendatacommunities.org/doc/district-council/boston,Boston Borough Council,BLR/BOS/003,"Land to the north of Langrick Road, Boston",531238,344591,http://www.boston.gov.uk/CHttpHandler.ashx?id=22154&p=0,1.16,not owned by public authority,,pending decision,,,,35,,,,"The site is identified as a housing allocation capable of providing 35 dwellings in the South East Lincolnshire Local Plan 2011-2036: Publication Version (March 2017), site ref no: Fen002.""",20-Nov-17,11-Dec-18,,,
,,,,,,,,,,,,,,,,,,,http://opendatacommunities.org/doc/district-council/boston,Boston Borough Council,BLR/BOS/005,"Land adjacent to 155 Swineshead Road, Frampton Holme, Boston",529364,342891,http://www.boston.gov.uk/CHttpHandler.ashx?id=22156&p=0,0.34,not owned by public authority,,permissioned,,,,8,,,,"7 dwellings completed, 1 outstanding",20-Nov-17,11-Dec-18,,,
,,,,,,,,,,,,,,,,,,,http://opendatacommunities.org/doc/district-council/boston,Boston Borough Council,BLR/BOS/007,"Land to the north of Main Ridge East, Boston",533258,344202,http://www.boston.gov.uk/CHttpHandler.ashx?id=22158&p=0,0.25,not owned by public authority,,not permissioned,,,,8,,14,,An outline  planning application B/09/0074 for residential development (maximum 14 dwellings) plus means of access has lapsed. The South East Lincolnshire Strategic Housing Land Availability Assessment (April 2017) indicates the redevelopment of the site would not harm the character of the area or natural or heritage assets. Facilities are available on foot or bicycle owing to being centrally located. ref no: Pil005,20-Nov-17,11-Dec-18,,,
,,,,,,,,,,,,,,,,,,,http://opendatacommunities.org/doc/district-council/boston,Boston Borough Council,BLR/BOS/009,"Boston College De Montfort Campus, Mill Road, Boston",533914,343457,http://www.boston.gov.uk/CHttpHandler.ashx?id=22159&p=0,3.63,not owned by public authority,,permissioned,,,,108,,,,"69dwellings completed, 29 under construction, 10 outstanding",20-Nov-17,11-Dec-18,,,
,,,,,,,,,,,,,,,,,,,http://opendatacommunities.org/doc/district-council/boston,Boston Borough Council,BLR/BOS/010,"Land to the north-east of Freiston Road, Boston",533529,344204,http://www.boston.gov.uk/CHttpHandler.ashx?id=22160&p=0,0.26,not owned by public authority,,not permissioned,,,,8,,10,,"""The South East Lincolnshire Strategic Housing Land Availability Assessment (SHLAA) (April 2017) identifies that great care would need to be taken in producing a layout and design to ensure a satisfactory relationship to neighbouring dwellings. The site's development would require the use of a relatively narrow existing vehicular access, subject to the Highway Authority's approval. SHLAA ref no: Ski003""",20-Nov-17,11-Dec-18,,,
,,,,,,,,,,,,,,,,,,,http://opendatacommunities.org/doc/district-council/boston,Boston Borough Council,BLR/BOS/011,"Former Norton Lea (NHS) Site, Cork Tree Crescent, London Road, Boston",532514,342566,http://www.boston.gov.uk/CHttpHandler.ashx?id=22161&p=0,2.08,owned by public authority,,not permissioned,,,,60,,62,,"A planning application B/15/0009 for the Demolition of existing buildings and outline consent (up to 60 dwellings) with consideration given to access. (Matters relating to appearance, landscaping, layout and scale are reserved for later approval) has lapsed.  The Site is also a SHLAA site, Sou007 and is shown as a commitment on the SE Lincolnshire Local Plan. (The application had not lapsed on 31 Match 2017, which is the date housing data is calculated at).",20-Nov-17,11-Dec-18,,,
,,,,,,,,,,,,,,,,,,,http://opendatacommunities.org/doc/district-council/boston,Boston Borough Council,BLR/BOS/012,"Magnadata International, Norfolk Street, Boston",532974,344776,http://www.boston.gov.uk/CHttpHandler.ashx?id=22162&p=0,1.21,not owned by public authority,,pending decision,,,,36,,,,Planning permission granted subject to the signing of a s106 agreement (B/16/0007). The site is in the South East Lincolnshire Strategic Housing Land Availability Assessment (April 2017) ref no: Wit008,20-Nov-17,11-Dec-18,,,
,,,,,,,,,,,,,,,,,,,http://opendatacommunities.org/doc/district-council/boston,Boston Borough Council,BLR/BOS/013,"Magnadata International, Horncastle Road, Boston",532890,345187,http://www.boston.gov.uk/CHttpHandler.ashx?id=22163&p=0,5.78,not owned by public authority,,pending decision,,,,173,,,,Planning permission granted subject to the signing of a s106 agreement (B/16/0011). South East Lincolnshire Strategic Housing Land Availability Assessment (SHLAA)(April 2017) ref nos: Wit006 and Wit007 are within the site. There is also land that is in the site and not in the SHLAA.,20-Nov-17,11-Dec-18,,,
,,,,,,,,,,,,,,,,,,,http://opendatacommunities.org/doc/district-council/boston,Boston Borough Council,BLR/BOS/014,"Land to the north of Fountain Lane, Boston",532693,344312,http://www.boston.gov.uk/CHttpHandler.ashx?id=22164&p=0,0.29,owned by public authority,,not permissioned,,,,9,,12,,The South East Lincolnshire Strategic Housing Land Availability Assessment (SHLAA) (April 2017) identifies that the site is near to the Boston Conservation Area and listed buildings - adverse impacts should be prevented by careful design. SHLAA ref no: Wit009,20-Nov-17,11-Dec-18,,,
,,,,,,,,,,,,,,,,,,,http://opendatacommunities.org/doc/district-council/boston,Boston Borough Council,BLR/BOS/015,"Land to the south of Swineshead Road, Boston",530042,342883,http://www.boston.gov.uk/CHttpHandler.ashx?id=22165&p=0,2.84,not owned by public authority,,not permissioned,,,,85,,114,,"Planning application B/05/0027 was refused and dismissed at appeal. However, the site is identified as a housing allocation capable of providing 85 dwellings in the South East Lincolnshire Local Plan 2011-2036: Publication Version (March 2017), site ref no: Wyb013. The South East Lincolnshire Strategic Housing Land Availability Assessment (April 2017) states that the Highway Authority indicates that access could be achieved via the existing main access off Wortleys Lane (perhaps with some carriageway widening & highway improvements). The existing access off the A52 is potentially acceptable but, as a point of principle, it would be safer if access were taken from Wortleys Lane.""",20-Nov-17,11-Dec-18,,,
,,,,,,,,,,,,,,,,,,,http://opendatacommunities.org/doc/district-council/boston,Boston Borough Council,BLR/BOS/016,"291-293 London Road, Wyberton, Boston",531442,341211,http://www.boston.gov.uk/CHttpHandler.ashx?id=22166&p=0,1.38,not owned by public authority,,not permissioned,,,,28,,41,,"The site is identified as a housing allocation capable of providing 41 dwellings in the South East Lincolnshire Local Plan 2011-2036: Publication Version (March 2017), site ref no: Wyb041.""",20-Nov-17,11-Dec-18,,,
,,,,,,,,,,,,,,,,,,,http://opendatacommunities.org/doc/district-council/boston,Boston Borough Council,BLR/BOS/019,"The Woadman, Church Road, Boston",533516,343651,http://www.boston.gov.uk/CHttpHandler.ashx?id=22169&p=0,0.1,not owned by public authority,,permissioned,,,,9,,,,All 9 outstanding,20-Nov-17,11-Dec-18,,,
,,,,,,,,,,,,,,,,,,,http://opendatacommunities.org/doc/district-council/boston,Boston Borough Council,BLR/BOS/020,"Former Phoenix Poultry Farm, Swineshead Road, Wyberton, Boston",530047,343063,http://www.boston.gov.uk/CHttpHandler.ashx?id=22170&p=0,1.01,not owned by public authority,,permissioned,,,,25,,,,All 25 outstanding,20-Nov-17,11-Dec-18,,,
,,,,,,,,,,,,,,,,,,,http://opendatacommunities.org/doc/district-council/boston,Boston Borough Council,BLR/BOS/022,"Millets, Market Place, Boston",532814,344111,http://www.boston.gov.uk/CHttpHandler.ashx?id=22173&p=0,0.02,not owned by public authority,,permissioned,,,,6,,,,"All 6 outstanding. A new planning application for the same development was submitted on 26/11/2018, B/18/0474. There is an accompanying Listed Building Application, B/18/0475.",20-Nov-17,11-Dec-18,,,
,,,,,,,,,,,,,,,,,,,http://opendatacommunities.org/doc/district-council/boston,Boston Borough Council,BLR/BOS/023,"Car Park to the rear of 27-29 Wide Bargate, Boston",533006,344316,http://www.boston.gov.uk/CHttpHandler.ashx?id=22174&p=0,0.04,not owned by public authority,,permissioned,,,,9,,,,9 dwellings under construction,20-Nov-17,11-Dec-18,,,
,,,,,,,,,,,,,,,,,,,http://opendatacommunities.org/doc/district-council/boston,Boston Borough Council,BLR/BOS/024,"The Duke of York, 7 Lincoln Lane, Boston",532508,344110,http://www.boston.gov.uk/CHttpHandler.ashx?id=22175&p=0,0.07,not owned by public authority,,permissioned,,,,12,,,,All 12 outstanding,20-Nov-17,11-Dec-18,,,
,,,,,,,,,,,,,,,,,,,http://opendatacommunities.org/doc/district-council/boston,Boston Borough Council,BLR/BOS/025,"Land north of Broadfield Lane (East of Friars Gate), Boston",532302,343533,http://www.boston.gov.uk/CHttpHandler.ashx?id=22176&p=0,0.14,not owned by public authority,,permissioned,,,,8,,,,All 8 outstanding,20-Nov-17,11-Dec-18,,,
,,,,,,,,,,,,,,,,,,,http://opendatacommunities.org/doc/district-council/boston,Boston Borough Council,BLR/BOS/026,"Exchange Buildings 36-39 Market Place, Boston",532788,344023,http://www.boston.gov.uk/CHttpHandler.ashx?id=22177&p=0,0.05,not owned by public authority,,permissioned,,,,8,,,,,20-Nov-17,11-Dec-18,,,
,,,,,,,,,,,,,,,,,,,http://opendatacommunities.org/doc/district-council/boston,Boston Borough Council,BLR/BOS/027,"New Castle Inn, 36 Fydell Street, Boston",532221,344434,http://www.boston.gov.uk/CHttpHandler.ashx?id=22178&p=0,0.12,not owned by public authority,,permissioned,,,,9,,,,"A planning application (B/18/0370) for the erection of 3 no. three storey apartment blocks consisting of 55 no. flats including some amenity facilities, following demolition of existing public house awaits a decision.",20-Nov-17,11-Dec-18,,,
,,,,,,,,,,,,,,,,,,,http://opendatacommunities.org/doc/district-council/boston,Boston Borough Council,BLR/BOS/029,"Former nightclub/World Buffet, 23-25 High Street & 24 Bridge Street, Boston",532731,343930,http://www.boston.gov.uk/CHttpHandler.ashx?id=22180&p=0,0.05,not owned by public authority,,permissioned,,,,11,,,,11 outstanding,20-Nov-17,11-Dec-18,,,
,,,,,,,,,,,,,,,,,,,http://opendatacommunities.org/doc/district-council/boston,Boston Borough Council,BLR/BOS/030,"Land off Carmel Green, Park Road, Boston",532185,342805,http://www.boston.gov.uk/CHttpHandler.ashx?id=22181&p=0,0.33,not owned by public authority,,permissioned,,,,6,,,,The site is for sale,20-Nov-17,11-Dec-18,,,
,,,,,,,,,,,,,,,,,,,http://opendatacommunities.org/doc/district-council/boston,Boston Borough Council,BLR/FIS/001,"Land at Norwood Yard off Church Green Road, Fishtoft",535845,342992,http://www.boston.gov.uk/CHttpHandler.ashx?id=22182&p=0,0.62,not owned by public authority,,permissioned,,,,20,,,,All 20 outstanding,20-Nov-17,11-Dec-18,,,
,,,,,,,,,,,,,,,,,,,http://opendatacommunities.org/doc/district-council/boston,Boston Borough Council,BLR/KIR/001,"31-33 London Road, Kirton",530321,338391,http://www.boston.gov.uk/CHttpHandler.ashx?id=22183&p=0,1.25,not owned by public authority,,not permissioned,,,,25,,31,,"The site is identified as a housing allocation capable of providing 25 dwellings in the South East Lincolnshire Local Plan 2011-2036: Publication Version (March 2017), site ref no: Kir016.",20-Nov-17,11-Dec-18,,,
,,,,,,,,,,,,,,,,,,,http://opendatacommunities.org/doc/district-council/boston,Boston Borough Council,BLR/KIR/002,"Mani Firs, London Road, Kirton",530165,338380,http://www.boston.gov.uk/CHttpHandler.ashx?id=22184&p=0,3.83,not owned by public authority,,permissioned,,,,105,,,,"A reserved matters application has been submited on 26/09/2018, B18/0398 and awaits a decision.",20-Nov-17,11-Dec-18,,,
,,,,,,,,,,,,,,,,,,,http://opendatacommunities.org/doc/district-council/boston,Boston Borough Council,BLR/SWI/001,"Golden Cross Inn, North End, Swineshead",523074,341372,http://www.boston.gov.uk/CHttpHandler.ashx?id=22186&p=0,0.15,not owned by public authority,,permissioned,,,,9,,,,"5 dwellings completed, 4 under construction",20-Nov-17,11-Dec-18,,,
,,,,,,,,,,,,,,,,,,,http://opendatacommunities.org/doc/district-council/boston,Boston Borough Council,BLR/SWI/003,"Former Youth Centre Site, Station Road, Swineshead",523155,341277,http://www.boston.gov.uk/CHttpHandler.ashx?id=22188&p=0,0.21,not owned by public authority,,permissioned,,,,8,,,,7 under construction and 1 outstanding,20-Nov-17,11-Dec-18,,,
,,,,,,,,,,,,,,,,,,,http://opendatacommunities.org/doc/district-council/boston,Boston Borough Council,BLR/SWI/004,"Old Station Yard, Swineshead Bridge, Boston",521958,342970,http://www.boston.gov.uk/CHttpHandler.ashx?id=22189&p=0,1.35,not owned by public authority,,permissioned,,,,35,,,,All 35 outstanding. Permission has been implemented owing to construction of access road.,20-Nov-17,11-Dec-18,,,
,,,,,,,,,,,,,,,,,,,http://opendatacommunities.org/doc/district-council/boston,Boston Borough Council,BLR/WRA/001,"Geo H Kime & Co., Main Road, Wrangle",542985,351319,http://www.boston.gov.uk/CHttpHandler.ashx?id=22190&p=0,0.5,not owned by public authority,,permissioned,,,,27,,,,All 27 outstanding,20-Nov-17,11-Dec-18,,,
,,,,,,,,,,,,,,,,,,,http://opendatacommunities.org/doc/district-council/boston,Boston Borough Council,BLR/BOS/031,"NCP Carpark, Red Lion Street, Boston",532813,344388,http://www.boston.gov.uk/CHttpHandler.ashx?id=24159&p=0,0.64,not owned by public authority,,permissioned,,,,14,,,,B/18/0059 Listed Building Consent for Listed building consent for single storey extension and refurbishment of 4 Wide Bargate. Demolition of part of the boundary wall to the Methodist Church and replacement with realigned wall and railings including pedestrian gate.,11-Dec-18,11-Dec-18,,,
,,,,,,,,,,,,,,,,,,,http://opendatacommunities.org/doc/district-council/boston,Boston Borough Council,BLR/BOS/032,"Crown House, Lincoln Lane, Boston",532583,344052,http://www.boston.gov.uk/CHttpHandler.ashx?id=24158&p=0,0.23,owned by public authority,,permissioned,,,,18,,,,,11-Dec-18,11-Dec-18,,,
,,,,,,,,,,,,,,,,,,,http://opendatacommunities.org/doc/district-council/boston,Boston Borough Council,BLR/BOS/033,"5-7 Witham Bank East, Boston.",532297,344672,http://www.boston.gov.uk/CHttpHandler.ashx?id=24157&p=0,0.12,not owned by public authority,,permissioned,,,,24,,,,B/16/0283 Listed building Consent for demolition of part of boundary wall shared with The Witham Tavern,11-Dec-18,11-Dec-18,,,
,,,,,,,,,,,,,,,,,,,http://opendatacommunities.org/doc/district-council/boston,Boston Borough Council,BLR/BOS/034,"10-13 London Road, Boston",532619,343225,http://www.boston.gov.uk/CHttpHandler.ashx?id=24156&p=0,0.11,not owned by public authority,,permissioned,,,,12,,,,,11-Dec-18,11-Dec-18,,,
,,,,,,,,,,,,,,,,,,,http://opendatacommunities.org/doc/district-council/boston,Boston Borough Council,BLR/SUT/001,"Land at Station Road, Sutterton, Boston",528370,335599,http://www.boston.gov.uk/CHttpHandler.ashx?id=24155&p=0,0.61,not owned by public authority,,permissioned,,,,21,,,,,11-Dec-18,11-Dec-18,,,
,,,,,,,,,,,,,,,,,,,http://opendatacommunities.org/doc/district-council/boston,Boston Borough Council,BLR/BOS/035,"1, Witham Town, Boston",532261,344719,http://www.boston.gov.uk/CHttpHandler.ashx?id=24154&p=0,0.21,not owned by public authority,,pending decision,,,,12,,,,"The site is in the Boston Conservation Area. Consent for demolition has been granted, B/11/0515, and implemented.",11-Dec-18,11-Dec-18,,,
