address,address-text,deliverable,end-date,entry-date,hazardous-substances,hectares,latitude,longitude,maximum-net-dwellings,minimum-net-dwellings,notes,organisation,ownership-status,planning-permission-date,planning-permission-history,planning-permission-status,planning-permission-type,site,OrganisationURI,OrganisationLabel,SiteReference,SiteNameAddress,GeoX,GeoY,SiteplanURL,Hectares,OwnershipStatus,HazardousSubstances,PlanningStatus,PermissionType,PermissionDate,PlanningHistory,MinNetDwellings,NetDwellingsRangeFrom,NetDwellingsRangeTo,Deliverable,Notes,FirstAddedDate,LastUpdatedDate,EndDate,site-plan-url,start-date
,,,,,,,,,,,,,,,,,,,http://opendatacommunities.org/id/metropolitan-district-council/doncaster,Doncaster MBC,111,"""Land at Stevens Road, Balby""",456440,402075,http://dmbc.maps.arcgis.com/apps/webappviewer/index.html?id=2ac0d9b40cc34eb2b05e80a122b7a6e2,2.47,not owned by a public authority,,pending decision,,,,196,,,,"11/00246/EXTM - Erection of 112 houses and 84 apartments (being extension of time on planning application 06/00014/FULM, granted on 09/04/2008). Application approved by Planning Committee subject to S106",31/12/2017,31/12/2018,,,
,,,,,,,,,,,,,,,,,,,http://opendatacommunities.org/id/metropolitan-district-council/doncaster,Doncaster MBC,253,"""Former Bloodstock Sales Site, Carr House Road""",459031,402723,http://dmbc.maps.arcgis.com/apps/webappviewer/index.html?id=2ac0d9b40cc34eb2b05e80a122b7a6e2,1.74,owned by a public authority,,pending decision,,,,46,,58,,18/02614/4FULM - pending,31/12/2017,31/12/2018,,,
,,,,,,,,,,,,,,,,,,,http://opendatacommunities.org/id/metropolitan-district-council/doncaster,Doncaster MBC,261,"""Plot 5A, off Carolina Way / Lakeside Boulevard""",459541,401281,http://dmbc.maps.arcgis.com/apps/webappviewer/index.html?id=2ac0d9b40cc34eb2b05e80a122b7a6e2,2,owned by a public authority,,not permissioned,,,,53,,66,,,31/12/2017,31/12/2018,,,
,,,,,,,,,,,,,,,,,,,http://opendatacommunities.org/id/metropolitan-district-council/doncaster,Doncaster MBC,262,"""Plot 6, Lakeside Boulevard""",459606,401695,http://dmbc.maps.arcgis.com/apps/webappviewer/index.html?id=2ac0d9b40cc34eb2b05e80a122b7a6e2,3.11,owned by a public authority,,not permissioned,,,,87,,109,,"Has previously been granted planning permission (Ref:06/02537/FULA)  for the erection of 308 apartments in 4 complexes, each varying in height between 2 and 4 storeys with limited 5 storey elements, with associated public open space, landscaped areas and car parking, together with a building for Class A3 use",31/12/2017,31/12/2018,,,
,,,,,,,,,,,,,,,,,,,http://opendatacommunities.org/id/metropolitan-district-council/doncaster,Doncaster MBC,375,"""Barnburgh House, Edlington Lane, New Edlington""",454066,399190,http://dmbc.maps.arcgis.com/apps/webappviewer/index.html?id=2ac0d9b40cc34eb2b05e80a122b7a6e2,0.24,owned by a public authority,,not permissioned,,,,7,,9,,,31/12/2017,31/12/2018,,,
,,,,,,,,,,,,,,,,,,,http://opendatacommunities.org/id/metropolitan-district-council/doncaster,Doncaster MBC,379,"""Garden Street, Mexborough""",447066,399969,http://dmbc.maps.arcgis.com/apps/webappviewer/index.html?id=2ac0d9b40cc34eb2b05e80a122b7a6e2,0.51,owned by a public authority,,not permissioned,,,,15,,19,,,31/12/2017,31/12/2018,,,
,,,,,,,,,,,,,,,,,,,http://opendatacommunities.org/id/metropolitan-district-council/doncaster,Doncaster MBC,414,"""Windhill, Whinhill Avenue, Mexborough""",448407,400390,http://dmbc.maps.arcgis.com/apps/webappviewer/index.html?id=2ac0d9b40cc34eb2b05e80a122b7a6e2,3.33,owned by a public authority,,not permissioned,,,,112,,140,,Former housing area that has been cleared of existing housing stock under housing renewal programme.  Permission 17/02056/FULM,31/12/2017,31/12/2018,,,
,,,,,,,,,,,,,,,,,,,http://opendatacommunities.org/id/metropolitan-district-council/doncaster,Doncaster MBC,415,"""Woodland View, Edwin Road, Woodlands""",453300,407688,http://dmbc.maps.arcgis.com/apps/webappviewer/index.html?id=2ac0d9b40cc34eb2b05e80a122b7a6e2,0.61,owned by a public authority,,permissioned,,,,14,,,,17/02056/FULM,31/12/2017,31/12/2018,,,
,,,,,,,,,,,,,,,,,,,http://opendatacommunities.org/id/metropolitan-district-council/doncaster,Doncaster MBC,440,"""Civic And Cultural Quarter, Waterdale""",457735,402911,http://dmbc.maps.arcgis.com/apps/webappviewer/index.html?id=2ac0d9b40cc34eb2b05e80a122b7a6e2,11.26,owned by a public authority,,permissioned,,,,33,,,,"""08/02535/OUTA - This is a large mixed use Outline permission, a significant proportion has now come forward with Reserved Matters and indeed built. There is a 1ha site (Scarborough House) identified for residential uses that has not yet had Reserved Matters.  Although this site has been temporary greened over, it previosuly contained Council Offices and car parking so is considered to be Brownfield. The capacity in this register reflects this part of the scheme only. Other residential elements are under construction (see 12/02500/REMM) and the original capacity of 450 units is no longer expected to materialise with a revised total of 130 units now expected""",31/12/2017,31/12/2018,,,
,,,,,,,,,,,,,,,,,,,http://opendatacommunities.org/id/metropolitan-district-council/doncaster,Doncaster MBC,569,"""Askern Saw Mills, High Street, Askern""",456287,413091,http://dmbc.maps.arcgis.com/apps/webappviewer/index.html?id=2ac0d9b40cc34eb2b05e80a122b7a6e2,15.08,not owned by a public authority,,permissioned,,,,220,,,,08/01077/OUTA - Reserved Matters now submitted (16/01651/REMM) but not yet determined.,31/12/2017,31/12/2018,,,
,,,,,,,,,,,,,,,,,,,http://opendatacommunities.org/id/metropolitan-district-council/doncaster,Doncaster MBC,602,"""28 Cow House Lane, Armthorpe""",463340,404746,http://dmbc.maps.arcgis.com/apps/webappviewer/index.html?id=2ac0d9b40cc34eb2b05e80a122b7a6e2,0.26,not owned by a public authority,,permissioned,,,,7,,,,15/00828/FUL,31/12/2017,31/12/2018,,,
,,,,,,,,,,,,,,,,,,,http://opendatacommunities.org/id/metropolitan-district-council/doncaster,Doncaster MBC,629,"""Land off Bankwood Lane, Rossington""",460828,398614,http://dmbc.maps.arcgis.com/apps/webappviewer/index.html?id=2ac0d9b40cc34eb2b05e80a122b7a6e2,0.53,not owned by a public authority,,not permissioned,,,,43,,54,,Previous planning permission (Ref: 11/01655/EXTM) but now lapsed. Subsequent temporary change of use from former factory and factory outlet to HGV parking for a period of 18 months (Retrospective - 16/02386/COUM) pending decision.,31/12/2017,31/12/2018,,,
,,,,,,,,,,,,,,,,,,,http://opendatacommunities.org/id/metropolitan-district-council/doncaster,Doncaster MBC,633,"""Land At 41 Sandford Road, Balby""",456616,401353,http://dmbc.maps.arcgis.com/apps/webappviewer/index.html?id=2ac0d9b40cc34eb2b05e80a122b7a6e2,1.11,not owned by a public authority,,not permissioned,,,,36,,45,,Previous planning permission (Ref: 11/02159/EXTM) but now lapsed. This was for a high density 3 x blocks apartment scheme totalling 125 units.,31/12/2017,31/12/2018,,,
,,,,,,,,,,,,,,,,,,,http://opendatacommunities.org/id/metropolitan-district-council/doncaster,Doncaster MBC,646,"""Site At Former Yorkshire Main Colliery , Broomhouse Lane, Balby""",454924,399479,http://dmbc.maps.arcgis.com/apps/webappviewer/index.html?id=2ac0d9b40cc34eb2b05e80a122b7a6e2,17.6,not owned by a public authority,,pending decision,,,,375,,,,18/02100/OUTM,31/12/2017,31/12/2018,,,
,,,,,,,,,,,,,,,,,,,http://opendatacommunities.org/id/metropolitan-district-council/doncaster,Doncaster MBC,654,"""163 Balby Road, Balby""",456620,401588,http://dmbc.maps.arcgis.com/apps/webappviewer/index.html?id=2ac0d9b40cc34eb2b05e80a122b7a6e2,0.16,not owned by a public authority,,permissioned,,,,9,,,,18/00501/FULM,31/12/2017,31/12/2018,,,
,,,,,,,,,,,,,,,,,,,http://opendatacommunities.org/id/metropolitan-district-council/doncaster,Doncaster MBC,662,"""Site Of Former Rossington Colliery, West End Lane, New Rossington""",460312,398504,http://dmbc.maps.arcgis.com/apps/webappviewer/index.html?id=2ac0d9b40cc34eb2b05e80a122b7a6e2,51.7,not owned by a public authority,,permissioned,,,,1034,,,,12/01107/OUTA - Outline permission capacity has been reduced to reflect subsequent Reserved Matters (15/00008/REMM /16/00871/REMM & 14/02683/REM) approvals and starts on site for initial residential phases of this large development scheme.,31/12/2017,31/12/2018,,,
,,,,,,,,,,,,,,,,,,,http://opendatacommunities.org/id/metropolitan-district-council/doncaster,Doncaster MBC,687,"""The Embankment, Leach Lane Industrial Estate, Leach Lane, Mexborough""",447541,399684,http://dmbc.maps.arcgis.com/apps/webappviewer/index.html?id=2ac0d9b40cc34eb2b05e80a122b7a6e2,0.55,not owned by a public authority,,permissioned,,,,24,,,,14/02813/FULM - Evidence provided from landowner/developer that site not currently viable as part of evidence submitted to Public Inquiry May 2017 hence excluded from 5YHLS. More recent evidence that the scheme will now go ahead however: http://wearedoncaster.co.uk/news/multimillion-pound-doncaster-waterfront-scheme-set-to-move-ahead/?utm_source=newsletter&amp;utm_medium=email&amp;utm_campaign=Mexborough&amp;utm_content=November%20(2),31/12/2017,31/12/2018,,,
,,,,,,,,,,,,,,,,,,,http://opendatacommunities.org/id/metropolitan-district-council/doncaster,Doncaster MBC,691,"""Former Earth Centre Car Park, Kilners Bridge, Denaby Main""",450606,399681,http://dmbc.maps.arcgis.com/apps/webappviewer/index.html?id=2ac0d9b40cc34eb2b05e80a122b7a6e2,6.63,not owned by a public authority,,permissioned,,,,175,,,,14/02981/FULM,31/12/2017,31/12/2018,,,
,,,,,,,,,,,,,,,,,,,http://opendatacommunities.org/id/metropolitan-district-council/doncaster,Doncaster MBC,790,"""Red Lion Hotel, 41 Bank Street, Mexborough""",447610,399776,http://dmbc.maps.arcgis.com/apps/webappviewer/index.html?id=2ac0d9b40cc34eb2b05e80a122b7a6e2,0.06,not owned by a public authority,,not permissioned,,,,16,,,,11/02702/FULM - Planning permission lapsed.  Current application pending for demolition of existing building (18/02022/FUL),31/12/2017,31/12/2018,,,
,,,,,,,,,,,,,,,,,,,http://opendatacommunities.org/id/metropolitan-district-council/doncaster,Doncaster MBC,791,"""Bentley House, Jossey Lane, Scawthorpe""",455989,405940,http://dmbc.maps.arcgis.com/apps/webappviewer/index.html?id=2ac0d9b40cc34eb2b05e80a122b7a6e2,2.28,not owned by a public authority,,not permissioned,,,,80,,,,Previous permission (12/01046/OUTM) lapsed.,31/12/2017,31/12/2018,,,
,,,,,,,,,,,,,,,,,,,http://opendatacommunities.org/id/metropolitan-district-council/doncaster,Doncaster MBC,794,"""Land at Former Industrial Estate, Briars Lane, Stainforth""",464454,412181,http://dmbc.maps.arcgis.com/apps/webappviewer/index.html?id=2ac0d9b40cc34eb2b05e80a122b7a6e2,4.14,not owned by a public authority,,permissioned,,,,152,,,,13/00897/FULM,31/12/2017,31/12/2018,,,
,,,,,,,,,,,,,,,,,,,http://opendatacommunities.org/id/metropolitan-district-council/doncaster,Doncaster MBC,797,"Land At Doncaster Football Ground, Bawtry Road, Doncaster, DN4 7PD",459481,402671,http://dmbc.maps.arcgis.com/apps/webappviewer/index.html?id=2ac0d9b40cc34eb2b05e80a122b7a6e2,3.384,not owned by a public authority,,permissioned,,,,152,,,,16/02139/FULM,31/12/2018,31/12/2018,,,
,,,,,,,,,,,,,,,,,,,http://opendatacommunities.org/id/metropolitan-district-council/doncaster,Doncaster MBC,805,"""The Old Vicarage, Stonegate, Thorne""",469001,413240,http://dmbc.maps.arcgis.com/apps/webappviewer/index.html?id=2ac0d9b40cc34eb2b05e80a122b7a6e2,0.11,not owned by a public authority,,permissioned,,,,11,,,,14/02119/FULM,31/12/2017,31/12/2018,,,
,,,,,,,,,,,,,,,,,,,http://opendatacommunities.org/id/metropolitan-district-council/doncaster,Doncaster MBC,833,"""Sandy Lane, Doncaster""",458985,402300,http://dmbc.maps.arcgis.com/apps/webappviewer/index.html?id=2ac0d9b40cc34eb2b05e80a122b7a6e2,1.3,not owned by a public authority,,not permissioned,,,,39,,49,,,31/12/2017,31/12/2018,,,
,,,,,,,,,,,,,,,,,,,http://opendatacommunities.org/id/metropolitan-district-council/doncaster,Doncaster MBC,835,"""Warmsworth Reservoir, Warmsworth""",454192,399952,http://dmbc.maps.arcgis.com/apps/webappviewer/index.html?id=2ac0d9b40cc34eb2b05e80a122b7a6e2,0.6,not owned by a public authority,,pending decision,,,,18,,29,,17/00537/OUTM - pending decsion (23 dwellings),31/12/2017,31/12/2018,,,
,,,,,,,,,,,,,,,,,,,http://opendatacommunities.org/id/metropolitan-district-council/doncaster,Doncaster MBC,838,"""Kirk Street/Ramsden Road/Eden Grove""",456390,402901,http://dmbc.maps.arcgis.com/apps/webappviewer/index.html?id=2ac0d9b40cc34eb2b05e80a122b7a6e2,21.3,not owned by a public authority,,permissioned,,,,930,,,,"There are several planning approvals for this site (06/03071/OUTM; 11/01077/REMM;14/00616/FULM). The original Outline permission included proposals for a wider mixed use development, but viability issues has subsequently resulted in further approvals for just additional residential uses. The site has had planning permission implemented (development platform created), but that scheme is no longer being delivered and no houses have been built. Likely that a fresh application will be required therefore.",31/12/2017,31/12/2018,,,
,,,,,,,,,,,,,,,,,,,http://opendatacommunities.org/id/metropolitan-district-council/doncaster,Doncaster MBC,850,"""Land At Alagu Close ,Off Highwoods Road, Mexborough""",446240,400459,http://dmbc.maps.arcgis.com/apps/webappviewer/index.html?id=2ac0d9b40cc34eb2b05e80a122b7a6e2,0.24,not owned by a public authority,,permissioned,,,,9,,,,15/00827/OUT,31/12/2017,31/12/2018,,,
,,,,,,,,,,,,,,,,,,,http://opendatacommunities.org/id/metropolitan-district-council/doncaster,Doncaster MBC,862,"""125A, 127, 127A, 129 AND 131A Balby Road, Balby""",456770,401784,http://dmbc.maps.arcgis.com/apps/webappviewer/index.html?id=2ac0d9b40cc34eb2b05e80a122b7a6e2,0.02,not owned by a public authority,,permissioned,,,,10,,,,14/02130/FULM,31/12/2017,31/12/2018,,,
,,,,,,,,,,,,,,,,,,,http://opendatacommunities.org/id/metropolitan-district-council/doncaster,Doncaster MBC,867,"""Campsall and District Working Men's Social Club, The Avenue, Campsall""",454447,414231,http://dmbc.maps.arcgis.com/apps/webappviewer/index.html?id=2ac0d9b40cc34eb2b05e80a122b7a6e2,0.38,not owned by a public authority,,not permissioned,,,,14,,18,,Previous planning permission (Ref: 12/00308/OUT) but now lapsed.,31/12/2017,31/12/2018,,,
,,,,,,,,,,,,,,,,,,,http://opendatacommunities.org/id/metropolitan-district-council/doncaster,Doncaster MBC,886,"""Oswin Avenue, Balby""",456129,401313,http://dmbc.maps.arcgis.com/apps/webappviewer/index.html?id=2ac0d9b40cc34eb2b05e80a122b7a6e2,0.25,not owned by a public authority,,permissioned,,,,22,,,,13/00522/FULM,31/12/2017,31/12/2018,,,
,,,,,,,,,,,,,,,,,,,http://opendatacommunities.org/id/metropolitan-district-council/doncaster,Doncaster MBC,888,"""Former Reservoir, Green Lane, Scawthorpe""",454533,406151,http://dmbc.maps.arcgis.com/apps/webappviewer/index.html?id=2ac0d9b40cc34eb2b05e80a122b7a6e2,0.86,not owned by a public authority,,permissioned,,,,12,,,,16/03030/FULM,31/12/2017,31/12/2018,,,
,,,,,,,,,,,,,,,,,,,http://opendatacommunities.org/id/metropolitan-district-council/doncaster,Doncaster MBC,890,"""Land Rear Of 67 - 79 South End, Station Road, Dunscroft""",464757,410355,http://dmbc.maps.arcgis.com/apps/webappviewer/index.html?id=2ac0d9b40cc34eb2b05e80a122b7a6e2,0.16,not owned by a public authority,,permissioned,,,,7,,,,14/01809/FUL,31/12/2017,31/12/2018,,,
,,,,,,,,,,,,,,,,,,,http://opendatacommunities.org/id/metropolitan-district-council/doncaster,Doncaster MBC,893,"""Land Of The Former Cinema, Edlington Lane, Edlington""",453997,399134,http://dmbc.maps.arcgis.com/apps/webappviewer/index.html?id=2ac0d9b40cc34eb2b05e80a122b7a6e2,0.11,not owned by a public authority,,permissioned,,,,16,,,,14/02581/FULM,31/12/2017,31/12/2018,,,
,,,,,,,,,,,,,,,,,,,http://opendatacommunities.org/id/metropolitan-district-council/doncaster,Doncaster MBC,894,"""Former Nurses Home, Cemetery Road, Mexborough""",447501,400459,http://dmbc.maps.arcgis.com/apps/webappviewer/index.html?id=2ac0d9b40cc34eb2b05e80a122b7a6e2,0.3,not owned by a public authority,,permissioned,,,,9,,,,15/02583/OUT,31/12/2017,31/12/2018,,,
,,,,,,,,,,,,,,,,,,,http://opendatacommunities.org/id/metropolitan-district-council/doncaster,Doncaster MBC,897,"""Princegate House, Princegate, Doncaster""",457617,403089,http://dmbc.maps.arcgis.com/apps/webappviewer/index.html?id=2ac0d9b40cc34eb2b05e80a122b7a6e2,0.07,not owned by a public authority,,permissioned,,,,8,,,,14/02938/FUL,31/12/2017,31/12/2018,,,
,,,,,,,,,,,,,,,,,,,http://opendatacommunities.org/id/metropolitan-district-council/doncaster,Doncaster MBC,899,"""Site Of Former Rossington Colliery, West End Lane, New Rossington""",460159,398592,http://dmbc.maps.arcgis.com/apps/webappviewer/index.html?id=2ac0d9b40cc34eb2b05e80a122b7a6e2,2.84,not owned by a public authority,,permissioned,,,,96,,,,15/00008/REMM,31/12/2017,31/12/2018,,,
,,,,,,,,,,,,,,,,,,,http://opendatacommunities.org/id/metropolitan-district-council/doncaster,Doncaster MBC,901,"""East Lane House, 60 East Lane, Stainforth""",464555,411664,http://dmbc.maps.arcgis.com/apps/webappviewer/index.html?id=2ac0d9b40cc34eb2b05e80a122b7a6e2,0.17,not owned by a public authority,,permissioned,,,,10,,,,15/00219/FULM,31/12/2017,31/12/2018,,,
,,,,,,,,,,,,,,,,,,,http://opendatacommunities.org/id/metropolitan-district-council/doncaster,Doncaster MBC,902,"""Snooker Club, 21 - 27 St Sepulchre Gate, Doncaster""",457379,403266,http://dmbc.maps.arcgis.com/apps/webappviewer/index.html?id=2ac0d9b40cc34eb2b05e80a122b7a6e2,0.05,not owned by a public authority,,permissioned,,,,6,,,,15/00474/FUL,31/12/2017,31/12/2018,,,
,,,,,,,,,,,,,,,,,,,http://opendatacommunities.org/id/metropolitan-district-council/doncaster,Doncaster MBC,906,"""Denison House, 15 South Parade, Doncaster""",457980,403082,http://dmbc.maps.arcgis.com/apps/webappviewer/index.html?id=2ac0d9b40cc34eb2b05e80a122b7a6e2,0.16,not owned by a public authority,,permissioned,,,,11,,,,15/01088/FULM,31/12/2017,31/12/2018,,,
,,,,,,,,,,,,,,,,,,,http://opendatacommunities.org/id/metropolitan-district-council/doncaster,Doncaster MBC,913,"""Armthorpe Shopping Centre, Mill Street, Armthorpe""",463000,404772,http://dmbc.maps.arcgis.com/apps/webappviewer/index.html?id=2ac0d9b40cc34eb2b05e80a122b7a6e2,0.36,not owned by a public authority,,permissioned,,,,9,,,,15/02042/COU,31/12/2017,31/12/2018,,,
,,,,,,,,,,,,,,,,,,,http://opendatacommunities.org/id/metropolitan-district-council/doncaster,Doncaster MBC,914,"""Land South Of Armthorpe Shopping Centre,  Mill Street, Armthorpe""",462986,404711,http://dmbc.maps.arcgis.com/apps/webappviewer/index.html?id=2ac0d9b40cc34eb2b05e80a122b7a6e2,0.28,not owned by a public authority,,permissioned,,,,11,,,,17/01854/FULM,31/12/2017,31/12/2018,,,
,,,,,,,,,,,,,,,,,,,http://opendatacommunities.org/id/metropolitan-district-council/doncaster,Doncaster MBC,915,"""Land North Of Armthorpe Shopping Centre, Mill Street, Armthorpe""",463048,404838,http://dmbc.maps.arcgis.com/apps/webappviewer/index.html?id=2ac0d9b40cc34eb2b05e80a122b7a6e2,0.18,not owned by a public authority,,permissioned,,,,7,,,,18/00153/FUL,31/12/2017,31/12/2018,,,
,,,,,,,,,,,,,,,,,,,http://opendatacommunities.org/id/metropolitan-district-council/doncaster,Doncaster MBC,916,"""Belmont Works, 3 Havelock Road, Balby""",457071,402054,http://dmbc.maps.arcgis.com/apps/webappviewer/index.html?id=2ac0d9b40cc34eb2b05e80a122b7a6e2,0.1,not owned by a public authority,,permissioned,,,,8,,,,15/02051/OUT,31/12/2017,31/12/2018,,,
,,,,,,,,,,,,,,,,,,,http://opendatacommunities.org/id/metropolitan-district-council/doncaster,Doncaster MBC,918,"""Barnby Dun Car Centre, Top Road, Barnby Dun""",461836,409199,http://dmbc.maps.arcgis.com/apps/webappviewer/index.html?id=2ac0d9b40cc34eb2b05e80a122b7a6e2,0.21,not owned by a public authority,,permissioned,,,,6,,,,15/02336/OUT,31/12/2017,31/12/2018,,,
,,,,,,,,,,,,,,,,,,,http://opendatacommunities.org/id/metropolitan-district-council/doncaster,Doncaster MBC,922,"""Garage Site, Maple Road, Mexborough""",446949,400598,http://dmbc.maps.arcgis.com/apps/webappviewer/index.html?id=2ac0d9b40cc34eb2b05e80a122b7a6e2,0.21,not owned by a public authority,,permissioned,,,,5,,,,15/02546/FUL,31/12/2017,31/12/2018,,,
,,,,,,,,,,,,,,,,,,,http://opendatacommunities.org/id/metropolitan-district-council/doncaster,Doncaster MBC,923,"""Electricity Sub Station, Young Street, Doncaster""",457588,403113,http://dmbc.maps.arcgis.com/apps/webappviewer/index.html?id=2ac0d9b40cc34eb2b05e80a122b7a6e2,0.03,not owned by a public authority,,permissioned,,,,10,,,,15/02624/FULM,31/12/2017,31/12/2018,,,
,,,,,,,,,,,,,,,,,,,http://opendatacommunities.org/id/metropolitan-district-council/doncaster,Doncaster MBC,944,"""Land On Part Of Former Brodsworth Colliery Site, Long Lands Lane, Brodsworth""",452688,407831,http://dmbc.maps.arcgis.com/apps/webappviewer/index.html?id=2ac0d9b40cc34eb2b05e80a122b7a6e2,12.67,not owned by a public authority,,permissioned,,,,342,,,,17/00826/REMM,31/12/2017,31/12/2018,,,
,,,,,,,,,,,,,,,,,,,http://opendatacommunities.org/id/metropolitan-district-council/doncaster,Doncaster MBC,945,"""Tadcaster Arms Hotel, Doncaster Road, Armthorpe""",462133,404983,http://dmbc.maps.arcgis.com/apps/webappviewer/index.html?id=2ac0d9b40cc34eb2b05e80a122b7a6e2,0.33,not owned by a public authority,,permissioned,,,,22,,,,12/02053/FULM,31/12/2017,31/12/2018,,,
,,,,,,,,,,,,,,,,,,,http://opendatacommunities.org/id/metropolitan-district-council/doncaster,Doncaster MBC,946,"""Land Off Station Road, Dunscroft""",465502,409967,http://dmbc.maps.arcgis.com/apps/webappviewer/index.html?id=2ac0d9b40cc34eb2b05e80a122b7a6e2,0.14,not owned by a public authority,,permissioned,,,,5,,,,14/00484/OUT,31/12/2017,31/12/2018,,,
,,,,,,,,,,,,,,,,,,,http://opendatacommunities.org/id/metropolitan-district-council/doncaster,Doncaster MBC,947,"""Former Blacks Engineering Works, Barton Lane, Armthorpe""",462320,404706,http://dmbc.maps.arcgis.com/apps/webappviewer/index.html?id=2ac0d9b40cc34eb2b05e80a122b7a6e2,0.69,not owned by a public authority,,permissioned,,,,22,,,,16/01448/REMM,31/12/2017,31/12/2018,,,
,,,,,,,,,,,,,,,,,,,http://opendatacommunities.org/id/metropolitan-district-council/doncaster,Doncaster MBC,949,"""Land Off Site Of Former Rising Sun Public House, Hatfield Road, Thorne""",468546,412868,http://dmbc.maps.arcgis.com/apps/webappviewer/index.html?id=2ac0d9b40cc34eb2b05e80a122b7a6e2,0.5,not owned by a public authority,,permissioned,,,,12,,,,14/01584/FULM,31/12/2017,31/12/2018,,,
,,,,,,,,,,,,,,,,,,,http://opendatacommunities.org/id/metropolitan-district-council/doncaster,Doncaster MBC,950,"""Station Hotel, 93 Station Road, Bawtry""",465386,393458,http://dmbc.maps.arcgis.com/apps/webappviewer/index.html?id=2ac0d9b40cc34eb2b05e80a122b7a6e2,0.14,not owned by a public authority,,permissioned,,,,12,,,,17/03110/FULM,31/12/2017,31/12/2018,,,
,,,,,,,,,,,,,,,,,,,http://opendatacommunities.org/id/metropolitan-district-council/doncaster,Doncaster MBC,953,"""Plots 13 And 14 Lakeside Boulevard, Lakeside, Doncaster""",459331,402064,http://dmbc.maps.arcgis.com/apps/webappviewer/index.html?id=2ac0d9b40cc34eb2b05e80a122b7a6e2,5.55,not owned by a public authority,,permissioned,,,,147,,,,15/01559/FULM,31/12/2017,31/12/2018,,,
,,,,,,,,,,,,,,,,,,,http://opendatacommunities.org/id/metropolitan-district-council/doncaster,Doncaster MBC,955,"""Former Askern Selby Road Youth Club, Selby Road, Askern""",456057,413903,http://dmbc.maps.arcgis.com/apps/webappviewer/index.html?id=2ac0d9b40cc34eb2b05e80a122b7a6e2,0.3,not owned by a public authority,,permissioned,,,,16,,,,15/01706/OUT,31/12/2017,31/12/2018,,,
,,,,,,,,,,,,,,,,,,,http://opendatacommunities.org/id/metropolitan-district-council/doncaster,Doncaster MBC,956,"""Premier House, Selby Road, Askern""",456137,413847,http://dmbc.maps.arcgis.com/apps/webappviewer/index.html?id=2ac0d9b40cc34eb2b05e80a122b7a6e2,0.42,not owned by a public authority,,permissioned,,,,16,,,,15/01721/OUT,31/12/2017,31/12/2018,,,
,,,,,,,,,,,,,,,,,,,http://opendatacommunities.org/id/metropolitan-district-council/doncaster,Doncaster MBC,957,"""Land At Kingsway, Stainforth""",464256,411049,http://dmbc.maps.arcgis.com/apps/webappviewer/index.html?id=2ac0d9b40cc34eb2b05e80a122b7a6e2,5.39,not owned by a public authority,,permissioned,,,,170,,,,15/01733/4FULM,31/12/2017,31/12/2018,,,
,,,,,,,,,,,,,,,,,,,http://opendatacommunities.org/id/metropolitan-district-council/doncaster,Doncaster MBC,959,"""13 - 17 Cleveland Street, Doncaster""",457583,403167,http://dmbc.maps.arcgis.com/apps/webappviewer/index.html?id=2ac0d9b40cc34eb2b05e80a122b7a6e2,0.03,not owned by a public authority,,permissioned,,,,9,,,,15/02745/FUL,31/12/2017,31/12/2018,,,
,,,,,,,,,,,,,,,,,,,http://opendatacommunities.org/id/metropolitan-district-council/doncaster,Doncaster MBC,960,"""The Highwoods, Elm Road, Mexborough""",446514,400662,http://dmbc.maps.arcgis.com/apps/webappviewer/index.html?id=2ac0d9b40cc34eb2b05e80a122b7a6e2,0.17,not owned by a public authority,,permissioned,,,,13,,,,15/02857/FULM,31/12/2017,31/12/2018,,,
,,,,,,,,,,,,,,,,,,,http://opendatacommunities.org/id/metropolitan-district-council/doncaster,Doncaster MBC,961,"""Former Yorkshire Water Reservoir Site, Ridge Balk Lane, Woodlands""",452732,408115,http://dmbc.maps.arcgis.com/apps/webappviewer/index.html?id=2ac0d9b40cc34eb2b05e80a122b7a6e2,0.6,not owned by a public authority,,permissioned,,,,12,,,,15/02892/FULM,31/12/2017,31/12/2018,,,
,,,,,,,,,,,,,,,,,,,http://opendatacommunities.org/id/metropolitan-district-council/doncaster,Doncaster MBC,963,"""Land Off West Street, Thorne""",468669,412830,http://dmbc.maps.arcgis.com/apps/webappviewer/index.html?id=2ac0d9b40cc34eb2b05e80a122b7a6e2,0.05,not owned by a public authority,,permissioned,,,,6,,,,16/00179/FUL,31/12/2017,31/12/2018,,,
,,,,,,,,,,,,,,,,,,,http://opendatacommunities.org/id/metropolitan-district-council/doncaster,Doncaster MBC,965,"""Units 1 And 2 Old Bawtry Road, Finningley""",467099,398895,http://dmbc.maps.arcgis.com/apps/webappviewer/index.html?id=2ac0d9b40cc34eb2b05e80a122b7a6e2,1.6,not owned by a public authority,,permissioned,,,,45,,,,16/00280/REMM,31/12/2017,31/12/2018,,,
,,,,,,,,,,,,,,,,,,,http://opendatacommunities.org/id/metropolitan-district-council/doncaster,Doncaster MBC,966,"""Bawtry Hall, South Parade, Bawtry""",465031,392909,http://dmbc.maps.arcgis.com/apps/webappviewer/index.html?id=2ac0d9b40cc34eb2b05e80a122b7a6e2,0.37,not owned by a public authority,,permissioned,,,,8,,,,16/00733/FUL,31/12/2017,31/12/2018,,,
,,,,,,,,,,,,,,,,,,,http://opendatacommunities.org/id/metropolitan-district-council/doncaster,Doncaster MBC,967,"""Danum House, St Sepulchre Gate, Doncaster""",457377,403170,http://dmbc.maps.arcgis.com/apps/webappviewer/index.html?id=2ac0d9b40cc34eb2b05e80a122b7a6e2,0.23,not owned by a public authority,,permissioned,,,,78,,,,17/03054/FULM,31/12/2017,31/12/2018,,,
,,,,,,,,,,,,,,,,,,,http://opendatacommunities.org/id/metropolitan-district-council/doncaster,Doncaster MBC,969,"""Toll Bar Garage, Askern Road, Toll Bar""",456205,407819,http://dmbc.maps.arcgis.com/apps/webappviewer/index.html?id=2ac0d9b40cc34eb2b05e80a122b7a6e2,0.12,not owned by a public authority,,permissioned,,,,8,,,,16/00916/FUL,31/12/2017,31/12/2018,,,
,,,,,,,,,,,,,,,,,,,http://opendatacommunities.org/id/metropolitan-district-council/doncaster,Doncaster MBC,973,"""98 North Eastern Road, Thorne""",468227,413942,http://dmbc.maps.arcgis.com/apps/webappviewer/index.html?id=2ac0d9b40cc34eb2b05e80a122b7a6e2,0.33,not owned by a public authority,,permissioned,,,,5,,,,16/01249/REM,31/12/2017,31/12/2018,,,
,,,,,,,,,,,,,,,,,,,http://opendatacommunities.org/id/metropolitan-district-council/doncaster,Doncaster MBC,974,"""Diamond Carwash, Carr House Road, Hyde Park, Doncaster""",457875,402400,http://dmbc.maps.arcgis.com/apps/webappviewer/index.html?id=2ac0d9b40cc34eb2b05e80a122b7a6e2,0.17,not owned by a public authority,,permissioned,,,,8,,,,16/01252/FUL,31/12/2017,31/12/2018,,,
,,,,,,,,,,,,,,,,,,,http://opendatacommunities.org/id/metropolitan-district-council/doncaster,Doncaster MBC,976,"""Stag Inn, 15 Dockin Hill Road, Doncaster""",457887,403832,http://dmbc.maps.arcgis.com/apps/webappviewer/index.html?id=2ac0d9b40cc34eb2b05e80a122b7a6e2,0.05,not owned by a public authority,,permissioned,,,,5,,,,16/01562/FUL,31/12/2017,31/12/2018,,,
,,,,,,,,,,,,,,,,,,,http://opendatacommunities.org/id/metropolitan-district-council/doncaster,Doncaster MBC,977,"""Viking Reclamations, Cow House Lane, Armthorpe""",463405,404847,http://dmbc.maps.arcgis.com/apps/webappviewer/index.html?id=2ac0d9b40cc34eb2b05e80a122b7a6e2,0.17,not owned by a public authority,,permissioned,,,,10,,,,16/01581/OUT,31/12/2017,31/12/2018,,,
,,,,,,,,,,,,,,,,,,,http://opendatacommunities.org/id/metropolitan-district-council/doncaster,Doncaster MBC,979,"""Units 1 To 3, Scawthorpe Hall, The Sycamores, Scawthorpe""",454585,406094,http://dmbc.maps.arcgis.com/apps/webappviewer/index.html?id=2ac0d9b40cc34eb2b05e80a122b7a6e2,0.35,not owned by a public authority,,permissioned,,,,5,,,,16/00280/REMM,31/12/2017,31/12/2018,,,
,,,,,,,,,,,,,,,,,,,http://opendatacommunities.org/id/metropolitan-district-council/doncaster,Doncaster MBC,980,"""Doncaster Racecourse, Leger Way, Intake""",459297,402915,http://dmbc.maps.arcgis.com/apps/webappviewer/index.html?id=2ac0d9b40cc34eb2b05e80a122b7a6e2,2.38,not owned by a public authority,,permissioned,,,,80,,,,16/01752/FULM,31/12/2017,31/12/2018,,,
,,,,,,,,,,,,,,,,,,,http://opendatacommunities.org/id/metropolitan-district-council/doncaster,Doncaster MBC,981,"""4-29 Bristol Grove, 4-18 (evens) Exeter Road, 6-12 (evens) Parkway South, 4-18 And 24-30 (evens) Winchester Avenue, Wheatley""",459278,404791,http://dmbc.maps.arcgis.com/apps/webappviewer/index.html?id=2ac0d9b40cc34eb2b05e80a122b7a6e2,1.93,owned by a public authority,,permissioned,,,,30,,,,16/01864/3FULM,31/12/2017,31/12/2018,,,
,,,,,,,,,,,,,,,,,,,http://opendatacommunities.org/id/metropolitan-district-council/doncaster,Doncaster MBC,983,"""4 Kings Road, Wheatley""",458187,403653,http://dmbc.maps.arcgis.com/apps/webappviewer/index.html?id=2ac0d9b40cc34eb2b05e80a122b7a6e2,0.04,not owned by a public authority,,permissioned,,,,5,,,,16/01929/COU,31/12/2017,31/12/2018,,,
,,,,,,,,,,,,,,,,,,,http://opendatacommunities.org/id/metropolitan-district-council/doncaster,Doncaster MBC,984,"""Former McCormick Tractors International, Wheatley Hall Road, Wheatley""",459209,405660,http://dmbc.maps.arcgis.com/apps/webappviewer/index.html?id=2ac0d9b40cc34eb2b05e80a122b7a6e2,41.41,not owned by a public authority,,permissioned,,,,600,,,,16/02060/OUTM,31/12/2017,31/12/2018,,,
,,,,,,,,,,,,,,,,,,,http://opendatacommunities.org/id/metropolitan-district-council/doncaster,Doncaster MBC,985,"""3 - 5 Church Street, Thorne""",468868,413244,http://dmbc.maps.arcgis.com/apps/webappviewer/index.html?id=2ac0d9b40cc34eb2b05e80a122b7a6e2,0.03,not owned by a public authority,,permissioned,,,,5,,,,16/02244/FUL,31/12/2017,31/12/2018,,,
,,,,,,,,,,,,,,,,,,,http://opendatacommunities.org/id/metropolitan-district-council/doncaster,Doncaster MBC,986,"""170 Beckett Road, Wheatley""",458859,404707,http://dmbc.maps.arcgis.com/apps/webappviewer/index.html?id=2ac0d9b40cc34eb2b05e80a122b7a6e2,0.05,not owned by a public authority,,permissioned,,,,7,,,,16/02721/FUL,31/12/2017,31/12/2018,,,
,,,,,,,,,,,,,,,,,,,http://opendatacommunities.org/id/metropolitan-district-council/doncaster,Doncaster MBC,987,"""Thorne Hall, Ellison Street, Thorne""",468876,412972,http://dmbc.maps.arcgis.com/apps/webappviewer/index.html?id=2ac0d9b40cc34eb2b05e80a122b7a6e2,0.1,not owned by a public authority,,permissioned,,,,6,,,,16/02725/FUL,31/12/2017,31/12/2018,,,
,,,,,,,,,,,,,,,,,,,http://opendatacommunities.org/id/metropolitan-district-council/doncaster,Doncaster MBC,988,"""Land Off Coulman Road, Thorne""",469493,414073,http://dmbc.maps.arcgis.com/apps/webappviewer/index.html?id=2ac0d9b40cc34eb2b05e80a122b7a6e2,1.39,not owned by a public authority,,permissioned,,,,59,,,,16/02825/4FULM,31/12/2017,31/12/2018,,,
,,,,,,,,,,,,,,,,,,,http://opendatacommunities.org/id/metropolitan-district-council/doncaster,Doncaster MBC,992,"""Millcroft House (Adjacent 5 Mill Croft), Mill Croft, Stainforth""",464444,411271,http://dmbc.maps.arcgis.com/apps/webappviewer/index.html?id=2ac0d9b40cc34eb2b05e80a122b7a6e2,0.08,not owned by a public authority,,permissioned,,,,6,,,,17/00053/FUL,31/12/2017,31/12/2018,,,
,,,,,,,,,,,,,,,,,,,http://opendatacommunities.org/id/metropolitan-district-council/doncaster,Doncaster MBC,993,"""Crystals, 20 Market Place, Doncaster""",457673,403499,http://dmbc.maps.arcgis.com/apps/webappviewer/index.html?id=2ac0d9b40cc34eb2b05e80a122b7a6e2,0.05,not owned by a public authority,,permissioned,,,,9,,,,17/00142/FUL,31/12/2017,31/12/2018,,,
,,,,,,,,,,,,,,,,,,,http://opendatacommunities.org/id/metropolitan-district-council/doncaster,Doncaster MBC,1059,"Cherry Grange, Pickering Road, Bentley, Doncaster, DN5 0HE",456640,407048,http://dmbc.maps.arcgis.com/apps/webappviewer/index.html?id=2ac0d9b40cc34eb2b05e80a122b7a6e2,0.342,not owned by a public authority,,permissioned,,,,16,,,,15/01252/FULM,31/12/2018,31/12/2018,,,
,,,,,,,,,,,,,,,,,,,http://opendatacommunities.org/id/metropolitan-district-council/doncaster,Doncaster MBC,1060,"Land Between Hatfield, Stainforth, Dunscroft And Dunsville, Doncaster, DN7",466546,411088,http://dmbc.maps.arcgis.com/apps/webappviewer/index.html?id=2ac0d9b40cc34eb2b05e80a122b7a6e2,268.386,not owned by a public authority,,permissioned,,,,3100,,,,15/01300/OUTA,31/12/2018,31/12/2018,,,
,,,,,,,,,,,,,,,,,,,http://opendatacommunities.org/id/metropolitan-district-council/doncaster,Doncaster MBC,1061,"Rosedene Services, Sunnyside, Edenthorpe ,Doncaster, DN3 2QA",461276,406964,http://dmbc.maps.arcgis.com/apps/webappviewer/index.html?id=2ac0d9b40cc34eb2b05e80a122b7a6e2,0.352,not owned by a public authority,,permissioned,,,,14,,,,16/01430/FULM,31/12/2018,31/12/2018,,,
,,,,,,,,,,,,,,,,,,,http://opendatacommunities.org/id/metropolitan-district-council/doncaster,Doncaster MBC,1062,"Conisbrough Methodist Church, Chapel Lane, Conisbrough, Doncaster, DN12 2BW",451267,398500,http://dmbc.maps.arcgis.com/apps/webappviewer/index.html?id=2ac0d9b40cc34eb2b05e80a122b7a6e2,0.082,not owned by a public authority,,permissioned,,,,5,,,,16/01431/FUL,31/12/2018,31/12/2018,,,
,,,,,,,,,,,,,,,,,,,http://opendatacommunities.org/id/metropolitan-district-council/doncaster,Doncaster MBC,1063,"Land At The Talisman, Chestnut Grove, Conisbrough, Doncaster, DN12 2JA",450753,398076,http://dmbc.maps.arcgis.com/apps/webappviewer/index.html?id=2ac0d9b40cc34eb2b05e80a122b7a6e2,0.193,not owned by a public authority,,permissioned,,,,5,,,,16/02751/FUL,31/12/2018,31/12/2018,,,
,,,,,,,,,,,,,,,,,,,http://opendatacommunities.org/id/metropolitan-district-council/doncaster,Doncaster MBC,1065,"Owston Hall Walled Kitchen Garden, Stockbridge Lane, Owston, Doncaster, DN6 9JF",454819,411236,http://dmbc.maps.arcgis.com/apps/webappviewer/index.html?id=2ac0d9b40cc34eb2b05e80a122b7a6e2,0.742,not owned by a public authority,,permissioned,,,,8,,,,17/00068/FUL,31/12/2018,31/12/2018,,,
,,,,,,,,,,,,,,,,,,,http://opendatacommunities.org/id/metropolitan-district-council/doncaster,Doncaster MBC,1067,"Poplar Farm, Manor Lane, Adwick Upon Dearne, Mexborough, S64 0NN",447029,401655,http://dmbc.maps.arcgis.com/apps/webappviewer/index.html?id=2ac0d9b40cc34eb2b05e80a122b7a6e2,0.353,not owned by a public authority,,permissioned,,,,10,,,,17/00351/FULM,31/12/2018,31/12/2018,,,
,,,,,,,,,,,,,,,,,,,http://opendatacommunities.org/id/metropolitan-district-council/doncaster,Doncaster MBC,1068,"Land At Former The Warrenne Youth Centre, Broadway, Dunscroft, Doncaster, DN7 4HX",465055,408312,http://dmbc.maps.arcgis.com/apps/webappviewer/index.html?id=2ac0d9b40cc34eb2b05e80a122b7a6e2,0.322,not owned by a public authority,,permissioned,,,,14,,,,17/00879/FULM,31/12/2018,31/12/2018,,,
,,,,,,,,,,,,,,,,,,,http://opendatacommunities.org/id/metropolitan-district-council/doncaster,Doncaster MBC,1070,"24 Avenue Road, Wheatley, Doncaster, DN2 4AQ",458401,404043,http://dmbc.maps.arcgis.com/apps/webappviewer/index.html?id=2ac0d9b40cc34eb2b05e80a122b7a6e2,0.064,not owned by a public authority,,permissioned,,,,11,,,,17/01087/FULM,31/12/2018,31/12/2018,,,
,,,,,,,,,,,,,,,,,,,http://opendatacommunities.org/id/metropolitan-district-council/doncaster,Doncaster MBC,1071,"1 Scot Lane, Doncaster, DN1 1EW",457526,403313,http://dmbc.maps.arcgis.com/apps/webappviewer/index.html?id=2ac0d9b40cc34eb2b05e80a122b7a6e2,0.029,not owned by a public authority,,permissioned,,,,10,,,,17/01145/COU,31/12/2018,31/12/2018,,,
,,,,,,,,,,,,,,,,,,,http://opendatacommunities.org/id/metropolitan-district-council/doncaster,Doncaster MBC,1072,"Spar Stores, 7 High Street, Hatfield, Doncaster, DN7 6RS",466322,409522,http://dmbc.maps.arcgis.com/apps/webappviewer/index.html?id=2ac0d9b40cc34eb2b05e80a122b7a6e2,0.056,not owned by a public authority,,permissioned,,,,5,,,,17/01182/FUL,31/12/2018,31/12/2018,,,
,,,,,,,,,,,,,,,,,,,http://opendatacommunities.org/id/metropolitan-district-council/doncaster,Doncaster MBC,1074,"St Peters House, Princes Street, Doncaster, DN1 3NJ",457849,403269,http://dmbc.maps.arcgis.com/apps/webappviewer/index.html?id=2ac0d9b40cc34eb2b05e80a122b7a6e2,0.087,not owned by a public authority,,permissioned,,,,51,,,,17/01457/PRIOR,31/12/2018,31/12/2018,,,
,,,,,,,,,,,,,,,,,,,http://opendatacommunities.org/id/metropolitan-district-council/doncaster,Doncaster MBC,1076,"Suite Express House, 39A Skellow Road, Carcroft, Doncaster, DN6 8HQ",454263,409726,http://dmbc.maps.arcgis.com/apps/webappviewer/index.html?id=2ac0d9b40cc34eb2b05e80a122b7a6e2,0.093,not owned by a public authority,,permissioned,,,,7,,,,17/01587/FUL,31/12/2018,31/12/2018,,,
,,,,,,,,,,,,,,,,,,,http://opendatacommunities.org/id/metropolitan-district-council/doncaster,Doncaster MBC,1077,"Units 1 To 2 Queens Court, Rowan Garth, Bentley, Doncaster, DN5 9QB",456107,404901,http://dmbc.maps.arcgis.com/apps/webappviewer/index.html?id=2ac0d9b40cc34eb2b05e80a122b7a6e2,0.227,not owned by a public authority,,permissioned,,,,9,,,,17/01797/FUL,31/12/2018,31/12/2018,,,
,,,,,,,,,,,,,,,,,,,http://opendatacommunities.org/id/metropolitan-district-council/doncaster,Doncaster MBC,1078,"White And Carter, Station Road, Blaxton, Doncaster, DN9 3AQ",467203,399811,http://dmbc.maps.arcgis.com/apps/webappviewer/index.html?id=2ac0d9b40cc34eb2b05e80a122b7a6e2,0.274,not owned by a public authority,,permissioned,,,,8,,,,17/01856/FUL,31/12/2018,31/12/2018,,,
,,,,,,,,,,,,,,,,,,,http://opendatacommunities.org/id/metropolitan-district-council/doncaster,Doncaster MBC,1079,"Armthorpe Shopping Centre, Mill Street, Armthorpe, Doncaster, DN3 3DL",463032,404771,http://dmbc.maps.arcgis.com/apps/webappviewer/index.html?id=2ac0d9b40cc34eb2b05e80a122b7a6e2,0.816,not owned by a public authority,,permissioned,,,,6,,,,17/01908/FULM,31/12/2018,31/12/2018,,,
,,,,,,,,,,,,,,,,,,,http://opendatacommunities.org/id/metropolitan-district-council/doncaster,Doncaster MBC,1081,"Cedar Adult Centre, Warde Avenue, Balby, Doncaster, DN4 9DX",455817,400735,http://dmbc.maps.arcgis.com/apps/webappviewer/index.html?id=2ac0d9b40cc34eb2b05e80a122b7a6e2,0.707,owned by a public authority,,permissioned,,,,25,,,,17/02293/3FULM,31/12/2018,31/12/2018,,,
,,,,,,,,,,,,,,,,,,,http://opendatacommunities.org/id/metropolitan-district-council/doncaster,Doncaster MBC,1082,"Conisbrough Social Education Centre, Old Road, Conisbrough, Doncaster, DN12 3LR",450116,398161,http://dmbc.maps.arcgis.com/apps/webappviewer/index.html?id=2ac0d9b40cc34eb2b05e80a122b7a6e2,1.183,owned by a public authority,,permissioned,,,,41,,,,17/02355/3FULM,31/12/2018,31/12/2018,,,
,,,,,,,,,,,,,,,,,,,http://opendatacommunities.org/id/metropolitan-district-council/doncaster,Doncaster MBC,1084,"Prudential Chambers, 4 Silver Street, Doncaster, DN1 1HQ",457644,403260,http://dmbc.maps.arcgis.com/apps/webappviewer/index.html?id=2ac0d9b40cc34eb2b05e80a122b7a6e2,0.003,not owned by a public authority,,permissioned,,,,6,,,,17/02770/PRIOR,31/12/2018,31/12/2018,,,
,,,,,,,,,,,,,,,,,,,http://opendatacommunities.org/id/metropolitan-district-council/doncaster,Doncaster MBC,1085,"7 - 9 Scot Lane, Doncaster, DN1 1EW",457547,403343,http://dmbc.maps.arcgis.com/apps/webappviewer/index.html?id=2ac0d9b40cc34eb2b05e80a122b7a6e2,0.025,not owned by a public authority,,permissioned,,,,9,,,,17/02798/COU,31/12/2018,31/12/2018,,,
,,,,,,,,,,,,,,,,,,,http://opendatacommunities.org/id/metropolitan-district-council/doncaster,Doncaster MBC,1086,"Site Of Former Westminster Club, Westminster Crescent, Intake, Doncaster, DN2 6HU",460386,404370,http://dmbc.maps.arcgis.com/apps/webappviewer/index.html?id=2ac0d9b40cc34eb2b05e80a122b7a6e2,0.485,not owned by a public authority,,permissioned,,,,23,,,,17/02929/FULM,31/12/2018,31/12/2018,,,
