address,address-text,deliverable,end-date,entry-date,hazardous-substances,hectares,latitude,longitude,maximum-net-dwellings,minimum-net-dwellings,notes,organisation,ownership-status,planning-permission-date,planning-permission-history,planning-permission-status,planning-permission-type,site,OrganisationURI,OrganisationLabel,SiteReference,SiteNameAddress,GeoX,GeoY,SiteplanURL,Hectares,OwnershipStatus,HazardousSubstances,PlanningStatus,PermissionType,PermissionDate,PlanningHistory,MinNetDwellings,NetDwellingsRangeFrom,NetDwellingsRangeTo,Deliverable,Notes,FirstAddedDate,LastUpdatedDate,EndDate,site-plan-url,start-date
,,,,,,,,,,,,,,,,,,,http://opendatacommunities.org/id/district-council/south-lakeland,South Lakeland District Council,BLR1,"""Former Cedar House School, Kirkby Lonsdale""",360661,478799,https://my.southlakeland.gov.uk/mysouthlakeland.aspx?SouthLakes/MyMapsSouthLakes&SearchLayer=Brownfield&SearchField=site_ref&SearchValue=BLR01,0.87,not owned by a public authority,,permissioned,,,,20,,,,"Hybrid application, part full, part outline (pending RM app SL/2017/0421)",2017-12-01,2018-12-01,,,
,,,,,,,,,,,,,,,,,,,http://opendatacommunities.org/id/district-council/south-lakeland,South Lakeland District Council,BLR2,"""Busher House, Busher Walk, Kendal""",351407,493287,https://my.southlakeland.gov.uk/mysouthlakeland.aspx?SouthLakes/MyMapsSouthLakes&SearchLayer=Brownfield&SearchField=site_ref&SearchValue=BLR02,0.17,owned by a public authority,,permissioned,,,,16,,,,,2017-12-01,2018-12-01,,,
,,,,,,,,,,,,,,,,,,,http://opendatacommunities.org/id/district-council/south-lakeland,South Lakeland District Council,BLR3,"""Sawyers Arms Hotel, Stricklandgate, Kendal""",351483,493087,https://my.southlakeland.gov.uk/mysouthlakeland.aspx?SouthLakes/MyMapsSouthLakes&SearchLayer=Brownfield&SearchField=site_ref&SearchValue=BLR03,0.03,not owned by a public authority,,permissioned,,,,12,,,,,2017-12-01,2018-12-01,,,
,,,,,,,,,,,,,,,,,,,http://opendatacommunities.org/id/district-council/south-lakeland,South Lakeland District Council,BLR4,"""Royal Hotel, Burton-in-Kendal""",353047,476466,https://my.southlakeland.gov.uk/mysouthlakeland.aspx?SouthLakes/MyMapsSouthLakes&SearchLayer=Brownfield&SearchField=site_ref&SearchValue=BLR04,0.26,not owned by a public authority,,pending decision,,,,6,,6,,,2017-12-01,2018-12-01,,,
,,,,,,,,,,,,,,,,,,,http://opendatacommunities.org/id/district-council/south-lakeland,South Lakeland District Council,BLR5,"""West End Nursery, Ulverston""",329363,477244,https://my.southlakeland.gov.uk/mysouthlakeland.aspx?SouthLakes/MyMapsSouthLakes&SearchLayer=Brownfield&SearchField=site_ref&SearchValue=BLR05,0.61,not owned by a public authority,,pending decision,,,,8,,,,,2017-12-01,2018-12-01,,,
,,,,,,,,,,,,,,,,,,,http://opendatacommunities.org/id/district-council/south-lakeland,South Lakeland District Council,BLR6,"""Depot on the south side of Parkside Road, Kendal""",351822,491855,https://my.southlakeland.gov.uk/mysouthlakeland.aspx?SouthLakes/MyMapsSouthLakes&SearchLayer=Brownfield&SearchField=site_ref&SearchValue=BLR06,0.18,not owned by a public authority,,pending decision,,,,6,,,,,2017-12-01,2018-12-01,,,
,,,,,,,,,,,,,,,,,,,http://opendatacommunities.org/id/district-council/south-lakeland,South Lakeland District Council,BLR7,"""Depot on the north side of Parkside Road, Kendal""",351834,491976,https://my.southlakeland.gov.uk/mysouthlakeland.aspx?SouthLakes/MyMapsSouthLakes&SearchLayer=Brownfield&SearchField=site_ref&SearchValue=BLR07,1.17,not owned by a public authority,,pending decision,,,,43,,,,,2017-12-01,2018-12-01,,,
,,,,,,,,,,,,,,,,,,,http://opendatacommunities.org/id/district-council/south-lakeland,South Lakeland District Council,BLR8,"""Ulverston Town Hall, Queen St, Ulverston""",328573,478254,https://my.southlakeland.gov.uk/mysouthlakeland.aspx?SouthLakes/MyMapsSouthLakes&SearchLayer=Brownfield&SearchField=site_ref&SearchValue=BLR08,0.07,owned by a public authority,,permissioned,,,,17,,,,,2017-12-01,2018-12-01,,,
,,,,,,,,,,,,,,,,,,,http://opendatacommunities.org/id/district-council/south-lakeland,South Lakeland District Council,BLR9,"""Stables, Cartmel Racecourse, Cartmel""",337839,478932,https://my.southlakeland.gov.uk/mysouthlakeland.aspx?SouthLakes/MyMapsSouthLakes&SearchLayer=Brownfield&SearchField=site_ref&SearchValue=BLR09,0.48,not owned by a public authority,,not permissioned,,,,15,,15,,,2017-12-01,2018-12-01,,,
,,,,,,,,,,,,,,,,,,,http://opendatacommunities.org/id/district-council/south-lakeland,South Lakeland District Council,BLR10,"""Mixed use allocation at Berners Pool, Grange""",340464,477192,https://my.southlakeland.gov.uk/mysouthlakeland.aspx?SouthLakes/MyMapsSouthLakes&SearchLayer=Brownfield&SearchField=site_ref&SearchValue=BLR10,0.61,owned by a public authority,,not permissioned,,,,20,,40,,,2017-12-01,2018-12-01,,,
,,,,,,,,,,,,,,,,,,,http://opendatacommunities.org/id/district-council/south-lakeland,South Lakeland District Council,BLR11,"""Mixed use allocation at Guide's Lot, Grange""",339535,476616,https://my.southlakeland.gov.uk/mysouthlakeland.aspx?SouthLakes/MyMapsSouthLakes&SearchLayer=Brownfield&SearchField=site_ref&SearchValue=BLR11,1.15,owned by a public authority,,not permissioned,,,,16,,16,,,2017-12-01,2018-12-01,,,
,,,,,,,,,,,,,,,,,,,http://opendatacommunities.org/id/district-council/south-lakeland,South Lakeland District Council,BLR12,"""Morecambe Road Scrapyard, Ulverston""",329147,478089,https://my.southlakeland.gov.uk/mysouthlakeland.aspx?SouthLakes/MyMapsSouthLakes&SearchLayer=Brownfield&SearchField=site_ref&SearchValue=BLR12,0.39,not owned by a public authority,,not permissioned,,,,12,,12,,,2017-12-01,2018-12-01,,,
,,,,,,,,,,,,,,,,,,,http://opendatacommunities.org/id/district-council/south-lakeland,South Lakeland District Council,BLR13,"""North of Watery Lane, Ulverston""",329175,477937,https://my.southlakeland.gov.uk/mysouthlakeland.aspx?SouthLakes/MyMapsSouthLakes&SearchLayer=Brownfield&SearchField=site_ref&SearchValue=BLR13,0.12,not owned by a public authority,,pending decision,,,,5,,8,,,2017-12-01,2018-12-01,,,
,,,,,,,,,,,,,,,,,,,http://opendatacommunities.org/id/district-council/south-lakeland,South Lakeland District Council,BLR14,"""Millers Scrap Yard, Back Lane, Ulverston""",328805,478521,https://my.southlakeland.gov.uk/mysouthlakeland.aspx?SouthLakes/MyMapsSouthLakes&SearchLayer=Brownfield&SearchField=site_ref&SearchValue=BLR14,0.2,not owned by a public authority,,not permissioned,,,,6,,10,,,2017-12-01,2018-12-01,,,
,,,,,,,,,,,,,,,,,,,http://opendatacommunities.org/id/district-council/south-lakeland,South Lakeland District Council,BLR15,"""Dragley Beck Depot, Ulverston""",329113,477598,https://my.southlakeland.gov.uk/mysouthlakeland.aspx?SouthLakes/MyMapsSouthLakes&SearchLayer=Brownfield&SearchField=site_ref&SearchValue=BLR15,0.15,owned by a public authority,,not permissioned,,,,6,,6,,,2017-12-01,2018-12-01,,,
,,,,,,,,,,,,,,,,,,,http://opendatacommunities.org/id/district-council/south-lakeland,South Lakeland District Council,BLR16,"""Land off Queen's Drive, Arnside""",345782,478277,https://my.southlakeland.gov.uk/mysouthlakeland.aspx?SouthLakes/MyMapsSouthLakes&SearchLayer=Brownfield&SearchField=site_ref&SearchValue=BLR16,0.12,not owned by a public authority,,not permissioned,,,,6,,6,,,2017-12-01,2018-12-01,,,
,,,,,,,,,,,,,,,,,,,http://opendatacommunities.org/id/district-council/south-lakeland,South Lakeland District Council,BLR17,"""Land at Sandside Road and Quarry Lane, Sandside""",347856,480772,https://my.southlakeland.gov.uk/mysouthlakeland.aspx?SouthLakes/MyMapsSouthLakes&SearchLayer=Brownfield&SearchField=site_ref&SearchValue=BLR17,3.09,not owned by a public authority,,not permissioned,,,,20,,40,,"Employment, Residential, community facilities",2017-12-01,2018-12-01,,,
,,,,,,,,,,,,,,,,,,,http://opendatacommunities.org/id/district-council/south-lakeland,South Lakeland District Council,BLR18,"""Police Station, Neville St, Ulverston""",328815,478193,https://my.southlakeland.gov.uk/mysouthlakeland.aspx?SouthLakes/MyMapsSouthLakes&SearchLayer=Brownfield&SearchField=site_ref&SearchValue=BLR18,0.28,owned by a public authority,,not permissioned,,,,10,,20,,Site being marketed. http://www.carigietcowen.co.uk/property_900.shtml,2017-12-01,2018-12-01,,,
,,,,,,,,,,,,,,,,,,,http://opendatacommunities.org/id/district-council/south-lakeland,South Lakeland District Council,BLR19,"""Rear of Captain French Health Centre, Chapel Lane""",351439,492172,https://my.southlakeland.gov.uk/mysouthlakeland.aspx?SouthLakes/MyMapsSouthLakes&SearchLayer=Brownfield&SearchField=site_ref&SearchValue=BLR19,0.28,not owned by a public authority,,not permissioned,,,,8,,,,Expired permission for 8 dwellings.,2017-12-01,2018-12-01,,,
,,,,,,,,,,,,,,,,,,,http://opendatacommunities.org/id/district-council/south-lakeland,South Lakeland District Council,BLR20,"""Armadale Hotel, Arrad Foot""",330770,480794,https://my.southlakeland.gov.uk/mysouthlakeland.aspx?SouthLakes/MyMapsSouthLakes&SearchLayer=Brownfield&SearchField=site_ref&SearchValue=BLR20,0.04,not owned by a public authority,,permissioned,,,,7,,,,Permission granted April 2018 for residential development.,2017-12-01,2018-12-01,,,
,,,,,,,,,,,,,,,,,,,http://opendatacommunities.org/id/district-council/south-lakeland,South Lakeland District Council,BLR21,"""Former Garage, Ashleigh Road, Arnside""",345836,478924,https://my.southlakeland.gov.uk/mysouthlakeland.aspx?SouthLakes/MyMapsSouthLakes&SearchLayer=Brownfield&SearchField=site_ref&SearchValue=BLR21,0.07,not owned by a public authority,,not permissioned,,,,6,,6,,Garage demolished.,2017-12-01,2018-12-01,,,
,,,,,,,,,,,,,,,,,,,http://opendatacommunities.org/id/district-council/south-lakeland,South Lakeland District Council,BLR22,"""Garages at Stewart Close, Arnside""",345940,477893,https://my.southlakeland.gov.uk/mysouthlakeland.aspx?SouthLakes/MyMapsSouthLakes&SearchLayer=Brownfield&SearchField=site_ref&SearchValue=BLR22,0.07,not owned by a public authority,,not permissioned,,,,6,,6,,,2017-12-01,2018-12-01,,,
,,,,,,,,,,,,,,,,,,,http://opendatacommunities.org/id/district-council/south-lakeland,South Lakeland District Council,BLR23,"""Hartley's Brewery, Ulverston""",328842,478396,https://my.southlakeland.gov.uk/mysouthlakeland.aspx?SouthLakes/MyMapsSouthLakes&SearchLayer=Brownfield&SearchField=site_ref&SearchValue=BLR23,0.34,not owned by a public authority,,not permissioned,,,,20,,50,,Being marketed for redevelopmnet.  Previous lapsed planning permission for retail development.,2018-12-01,2018-12-01,,,
,,,,,,,,,,,,,,,,,,,http://opendatacommunities.org/id/district-council/south-lakeland,South Lakeland District Council,BLR24,"""K Village, Kendal""",351737,491811,https://my.southlakeland.gov.uk/mysouthlakeland.aspx?SouthLakes/MyMapsSouthLakes&SearchLayer=Brownfield&SearchField=site_ref&SearchValue=BLR24,0.93,not owned by a public authority,,permissioned,,,,88,,,,,2018-12-01,2018-12-01,,,
,,,,,,,,,,,,,,,,,,,http://opendatacommunities.org/id/district-council/south-lakeland,South Lakeland District Council,BLR25,"""114 Highgate, Kendal""",351443,492404,https://my.southlakeland.gov.uk/mysouthlakeland.aspx?SouthLakes/MyMapsSouthLakes&SearchLayer=Brownfield&SearchField=site_ref&SearchValue=BLR25,0.07,not owned by a public authority,,not permissioned,,,,5,,15,,A planning application (SL/2018/0120) was submittted but not progressed. Site is being actively marketed for redevelopment for residential  (4no. Conversion and 11no. new build) and café-bar use. See link in SiteInformation field.,2018-12-01,2018-12-01,,,
,,,,,,,,,,,,,,,,,,,http://opendatacommunities.org/id/district-council/south-lakeland,South Lakeland District Council,BLR26,"""Kendal Magistrates' Court""",351472,493503,https://my.southlakeland.gov.uk/mysouthlakeland.aspx?SouthLakes/MyMapsSouthLakes&SearchLayer=Brownfield&SearchField=site_ref&SearchValue=BLR26,0.53,owned by a public authority,,not permissioned,,,,25,,60,,,2018-12-01,2018-12-01,,,
