address,address-text,deliverable,end-date,entry-date,hazardous-substances,hectares,latitude,longitude,maximum-net-dwellings,minimum-net-dwellings,notes,organisation,ownership-status,planning-permission-date,planning-permission-history,planning-permission-status,planning-permission-type,site,OrganisationURI,OrganisationLabel,SiteReference,SiteNameAddress,GeoX,GeoY,SiteplanURL,Hectares,OwnershipStatus,HazardousSubstances,PlanningStatus,PermissionType,PermissionDate,PlanningHistory,MinNetDwellings,NetDwellingsRangeFrom,NetDwellingsRangeTo,Deliverable,Notes,FirstAddedDate,LastUpdatedDate,EndDate,site-plan-url,start-date
,,,,,,,,,,,,,,,,,,,http://opendatacommunities.org/id/district-council/newcastle-staffs,Newcastle-under-Lyme Borough Council,AB17,"Former working men's club, New Road, Audley",380500.04,350966.03,https://publicaccess.newcastle-staffs.gov.uk/online-applications/applicationDetails.do?activeTab=map&keyVal=NSLI1MBMGW500,0.33,not owned by a public authority,,permissioned,,,,12,,,,15/0692/FUL,18/12/2017,11/12/2018,,,
,,,,,,,,,,,,,,,,,,,http://opendatacommunities.org/id/district-council/newcastle-staffs,Newcastle-under-Lyme Borough Council,BL24,"Land adjacent 31 Banbury Street, Talke",382763.99,354225.54,https://publicaccess.newcastle-staffs.gov.uk/online-applications/applicationDetails.do?activeTab=map&keyVal=MZJMHBBM4V000,0.27,not owned by a public authority,,permissioned,,,,13,,,,14/00027/FUL,18/12/2017,11/12/2018,,,
,,,,,,,,,,,,,,,,,,,http://opendatacommunities.org/id/district-council/newcastle-staffs,Newcastle-under-Lyme Borough Council,BL25,"Methodist Church, Chapel Street, Butt Lane",382709.62,354579.04,https://publicaccess.newcastle-staffs.gov.uk/online-applications/applicationDetails.do?activeTab=map&keyVal=N3VI2EBM4V000,0.1,not owned by a public authority,,not permissioned,,,,10,,,,Site lapsed residential planning permission 14/00266/FUL,18/12/2017,11/12/2018,,,
,,,,,,,,,,,,,,,,,,,http://opendatacommunities.org/id/district-council/newcastle-staffs,Newcastle-under-Lyme Borough Council,BL8,"Land to the south of West Avenue, Kidsgrove",382320.75,354379.67,https://publicaccess.newcastle-staffs.gov.uk/online-applications/applicationDetails.do?activeTab=map&keyVal=NNMN7MBMN3F00,1.41,not owned by a public authority,,permissioned,,,,44,,,,15/00368/OUT,18/12/2017,11/12/2018,,,
,,,,,,,,,,,,,,,,,,,http://opendatacommunities.org/id/district-council/newcastle-staffs,Newcastle-under-Lyme Borough Council,CH4,"Wilmott Drive, Cross Heath, Newcastle-under-Lyme",383733.27,347403.55,https://publicaccess.newcastle-staffs.gov.uk/online-applications/applicationDetails.do?activeTab=map&keyVal=ONOB4WBMK6800,8.8,not owned by a public authority,,permissioned,,,,276,,,,17/00281/FUL,18/12/2017,11/12/2018,,,
,,,,,,,,,,,,,,,,,,,http://opendatacommunities.org/id/district-council/newcastle-staffs,Newcastle-under-Lyme Borough Council,CT13,"Heathcote Street, Chesterton (Chesterton Ex-Servicemens Club)",383261.93,349639.24,https://www.newcastle-staffs.gov.uk/sites/default/files/IMCE/Planning/Planning_Policy/NonLocal/CT13.pdf,0.1,not owned by a public authority,,not permissioned,,,,5,,,,Part of lapsed mixed use residential permission 07/00620/OUT,18/12/2017,11/12/2018,,,
,,,,,,,,,,,,,,,,,,,http://opendatacommunities.org/id/district-council/newcastle-staffs,Newcastle-under-Lyme Borough Council,CT22,Ex Servicemens Club Heathcote Street,383301.66,349652.16,https://publicaccess.newcastle-staffs.gov.uk/online-applications/applicationDetails.do?activeTab=map&keyVal=OQ3EWWBMH0G00,0.31,not owned by a public authority,,permissioned,,,,14,,,,17/00417/FUL,18/12/2017,11/12/2018,,,
,,,,,,,,,,,,,,,,,,,http://opendatacommunities.org/id/district-council/newcastle-staffs,Newcastle-under-Lyme Borough Council,CT23,"Corona Park, Sandford Street, Chesterton",383316.01,349573.7,https://publicaccess.newcastle-staffs.gov.uk/online-applications/applicationDetails.do?activeTab=map&keyVal=L7AIQNBM4V000,0.3,not owned by a public authority,,permissioned,,,,8,,,,10/00480/FUL - Development commenced 8 completed.,18/12/2017,11/12/2018,,,
,,,,,,,,,,,,,,,,,,,http://opendatacommunities.org/id/district-council/newcastle-staffs,Newcastle-under-Lyme Borough Council,CT9,"Hulston Site, Birch House Road, Chesterton, Newcastle-under-Lyme",382972.553,350016.82,https://www.newcastle-staffs.gov.uk/sites/default/files/IMCE/Planning/Planning_Policy/NonLocal/CT9.pdf,0.61,not owned by a public authority,,not permissioned,,,,26,,,,Has a resolution to grant planning permission subject to the entering into a section 106 agreement 17/01033/FUL,11/12/2018,11/12/2018,,,
,,,,,,,,,,,,,,,,,,,http://opendatacommunities.org/id/district-council/newcastle-staffs,Newcastle-under-Lyme Borough Council,HD18,"London Road, Chesterton (Bennett Arms)",383898.49,348500.06,https://publicaccess.newcastle-staffs.gov.uk/online-applications/applicationDetails.do?activeTab=map&keyVal=KGT5XUBM06A00,0.15,not owned by a public authority,,permissioned,,,,7,,,,09/00155/FUL  - lapsed permisison for 7 dwellings,18/12/2017,11/12/2018,,,
,,,,,,,,,,,,,,,,,,,http://opendatacommunities.org/id/district-council/newcastle-staffs,Newcastle-under-Lyme Borough Council,HD25,"Midland House, London Road, Chesterton",383429.56,348978.9,https://publicaccess.newcastle-staffs.gov.uk/online-applications/applicationDetails.do?activeTab=map&keyVal=OAVL23BMIW400,0.16,not owned by a public authority,,permissioned,,,,14,,,,16/00623/REM,18/12/2017,11/12/2018,,,
,,,,,,,,,,,,,,,,,,,http://opendatacommunities.org/id/district-council/newcastle-staffs,Newcastle-under-Lyme Borough Council,HM3,"Wrinehill Garage, Main Road, Betley",375406.14,346942.86,https://publicaccess.newcastle-staffs.gov.uk/online-applications/applicationDetails.do?activeTab=map&keyVal=J7L744BMX0000,0.16,not owned by a public authority,,permissioned,,,,9,,,,17/00968/FUL,18/12/2017,11/12/2018,,,
,,,,,,,,,,,,,,,,,,,http://opendatacommunities.org/id/district-council/newcastle-staffs,Newcastle-under-Lyme Borough Council,KG15,"Former Garages at Gloucester Road, Kidsgrove",384391.62,355291.53,https://publicaccess.newcastle-staffs.gov.uk/online-applications/applicationDetails.do?activeTab=map&keyVal=P323PPBMI9400,0.29,owned by a public authority,,permissioned,,,,8,,,,18/00059/REM,18/12/2017,11/12/2018,,,
,,,,,,,,,,,,,,,,,,,http://opendatacommunities.org/id/district-council/newcastle-staffs,Newcastle-under-Lyme Borough Council,KG16,"Lock Up Garages Sussex Drive, Kidsgrove",383911.41,354986.08,https://publicaccess.newcastle-staffs.gov.uk/online-applications/applicationDetails.do?activeTab=map&keyVal=PEJ7HOBMFQG00,0.13,not owned by a public authority,,permissioned,,,,6,,,,18/00686/REM,18/12/2017,11/12/2018,,,
,,,,,,,,,,,,,,,,,,,http://opendatacommunities.org/id/district-council/newcastle-staffs,Newcastle-under-Lyme Borough Council,KG6,"William Road, Kidsgrove (site of the Galley PH)",384185.12,354982.18,https://publicaccess.newcastle-staffs.gov.uk/online-applications/applicationDetails.do?activeTab=map&keyVal=LRRZTZBM4V000,0.18,not owned by a public authority,,permissioned,,,,10,,,,11/00494/FUL,18/12/2017,11/12/2018,,,
,,,,,,,,,,,,,,,,,,,http://opendatacommunities.org/id/district-council/newcastle-staffs,Newcastle-under-Lyme Borough Council,KL16,"Pepper Street, Keele",380433.678,346322.315,https://publicaccess.newcastle-staffs.gov.uk/online-applications/applicationDetails.do?activeTab=map&keyVal=P6CXZXBMGZH00,14.16,not owned by a public authority,,permissioned,,,,100,,,,18/00262/REM,11/12/2018,11/12/2018,,,
,,,,,,,,,,,,,,,,,,,http://opendatacommunities.org/id/district-council/newcastle-staffs,Newcastle-under-Lyme Borough Council,KL17,"The Hawthorns, Keele (West)",380744.36,345461.41,https://publicaccess.newcastle-staffs.gov.uk/online-applications/applicationDetails.do?activeTab=map&keyVal=NXN863BM02600,5.69,not owned by a public authority,,permissioned,,,,83,,,,15/01004/FUL,18/12/2017,11/12/2018,,,
,,,,,,,,,,,,,,,,,,,http://opendatacommunities.org/id/district-council/newcastle-staffs,Newcastle-under-Lyme Borough Council,KS19,"Land at junction of Church Street and Chapel Street, Silverdale",382025.88,346635.15,https://publicaccess.newcastle-staffs.gov.uk/online-applications/applicationDetails.do?activeTab=map&keyVal=O1WRHBBMJ3D00,0.12,not owned by a public authority,,permissioned,,,,6,,,,16/00088/FUL,18/12/2017,11/12/2018,,,
,,,,,,,,,,,,,,,,,,,http://opendatacommunities.org/id/district-council/newcastle-staffs,Newcastle-under-Lyme Borough Council,LW12,"Tadgedale Quarry, Mucklestone Road, Loggerheads",373288.61,336510.4,https://publicaccess.newcastle-staffs.gov.uk/online-applications/applicationDetails.do?activeTab=map&keyVal=NHY8TYBMKD200,5.84,not owned by a public authority,,permissioned,,,,128,,,,15/00015/OUT,18/12/2017,11/12/2018,,,
,,,,,,,,,,,,,,,,,,,http://opendatacommunities.org/id/district-council/newcastle-staffs,Newcastle-under-Lyme Borough Council,LW36,Land Adjacent The Sheet Anchor Newcastle Road Whitmore ST5 5BU,379620.19,340444.3,https://publicaccess.newcastle-staffs.gov.uk/online-applications/applicationDetails.do?activeTab=map&keyVal=OANVPWBMITT00,0.48,not owned by a public authority,,permissioned,,,,6,,,,16/00609/FUL,18/12/2017,11/12/2018,,,
,,,,,,,,,,,,,,,,,,,http://opendatacommunities.org/id/district-council/newcastle-staffs,Newcastle-under-Lyme Borough Council,RC1,"Land at Heathcote St, Kidsgrove",384152.74,354531.83,https://publicaccess.newcastle-staffs.gov.uk/online-applications/applicationDetails.do?activeTab=map&keyVal=OSCVPKBMLB800,0.27,not owned by a public authority,,permissioned,,,,14,,,,17/00552/FUL,18/12/2017,11/12/2018,,,
,,,,,,,,,,,,,,,,,,,http://opendatacommunities.org/id/district-council/newcastle-staffs,Newcastle-under-Lyme Borough Council,SP15,"Former Site Of Silverdale Station, Station Road, Silverdale",381575.32,346649.12,https://publicaccess.newcastle-staffs.gov.uk/online-applications/applicationDetails.do?activeTab=map&keyVal=LLNJ0UBM4V000,0.62,not owned by a public authority,,permissioned,,,,23,,,,11/00284/FUL,18/12/2017,11/12/2018,,,
,,,,,,,,,,,,,,,,,,,http://opendatacommunities.org/id/district-council/newcastle-staffs,Newcastle-under-Lyme Borough Council,TB5,"Keele Road, Newcastle (Hamptons Scrapyard and land to the West)",383315.198,345666.493,https://publicaccess.newcastle-staffs.gov.uk/online-applications/applicationDetails.do?activeTab=map&keyVal=NGH9TABMHXZ00,4.97,not owned by a public authority,,permissioned,,,,138,,,,14/00948/OUT,11/12/2018,11/12/2018,,,
,,,,,,,,,,,,,,,,,,,http://opendatacommunities.org/id/district-council/newcastle-staffs,Newcastle-under-Lyme Borough Council,TB6,"Former Pool Dam Pub Site, Orme Road, Poolfields, Newcastle",383755.16,345833.584,https://www.newcastle-staffs.gov.uk/sites/default/files/IMCE/Planning/Planning_Policy/NonLocal/TB6.pdf,0.34,not owned by a public authority,,not permissioned,,,,12,,,,Site promoted by registered provider,11/12/2018,11/12/2018,,,
,,,,,,,,,,,,,,,,,,,http://opendatacommunities.org/id/district-council/newcastle-staffs,Newcastle-under-Lyme Borough Council,TB7,"Orme Road, (Orme Centre)",384552.062,345748.784,https://publicaccess.newcastle-staffs.gov.uk/online-applications/applicationDetails.do?activeTab=map&keyVal=ODUO4UBMGWD00,0.36,not owned by a public authority,,permissioned,,,,95,,,,"16/00796/OUT - Proposal has, in part, Full and Outline consent",11/12/2018,11/12/2018,,,
,,,,,,,,,,,,,,,,,,,http://opendatacommunities.org/id/district-council/newcastle-staffs,Newcastle-under-Lyme Borough Council,TB22,"35 Higherland, Newcastle",384342.52,345581.69,https://publicaccess.newcastle-staffs.gov.uk/online-applications/applicationDetails.do?activeTab=map&keyVal=O72N0PBMJZ900,0.2,not owned by a public authority,,permissioned,,,,12,,,,16/00405/REM,18/12/2017,11/12/2018,,,
,,,,,,,,,,,,,,,,,,,http://opendatacommunities.org/id/district-council/newcastle-staffs,Newcastle-under-Lyme Borough Council,TC7,"Land bound by Ryecroft, Ryebank , Merrial Street, Corporation Street & Liverpool Road, Newcastle",384790.824,346231.748,https://publicaccess.newcastle-staffs.gov.uk/online-applications/applicationDetails.do?activeTab=map&keyVal=OTPE9ZBMFYL00,1.91,owned by a public authority,,not permissioned,,,,90,,,,17/00637/FUL - Has a resolution to grant planning permission subject to the entering into a section 111  and 106 agreement,11/12/2018,11/12/2018,,,
,,,,,,,,,,,,,,,,,,,http://opendatacommunities.org/id/district-council/newcastle-staffs,Newcastle-under-Lyme Borough Council,TC14,Nelson Place (Jubilee Baths),385116.792,346148.987,https://publicaccess.newcastle-staffs.gov.uk/online-applications/applicationDetails.do?activeTab=map&keyVal=ON9XYRBMJG400,0.19,not owned by a public authority,,permissioned,,,,193,,,,17/00252/FUL,11/12/2018,11/12/2018,,,
,,,,,,,,,,,,,,,,,,,http://opendatacommunities.org/id/district-council/newcastle-staffs,Newcastle-under-Lyme Borough Council,TC17,"Centurian House, West Street, Newcastle",385165.99,345941.19,https://publicaccess.newcastle-staffs.gov.uk/online-applications/applicationDetails.do?activeTab=map&keyVal=NRXT2EBMFNL00,0.02,not owned by a public authority,,permissioned,,,,6,,,,15/00652/FUL,18/12/2017,11/12/2018,,,
,,,,,,,,,,,,,,,,,,,http://opendatacommunities.org/id/district-council/newcastle-staffs,Newcastle-under-Lyme Borough Council,TC26,"London Rd, Newcastle (former Bristol St Motors)",385203.63,345384.45,https://publicaccess.newcastle-staffs.gov.uk/online-applications/applicationDetails.do?activeTab=map&keyVal=OILIFRBMI6Y00,1.41,not owned by a public authority,,permissioned,,,,499,,,,16/01106/FUL,18/12/2017,11/12/2018,,,
,,,,,,,,,,,,,,,,,,,http://opendatacommunities.org/id/district-council/newcastle-staffs,Newcastle-under-Lyme Borough Council,TC32,"Newcastle Baptist Church, London Road, Newcastle",385158.72,345618.39,https://publicaccess.newcastle-staffs.gov.uk/online-applications/applicationDetails.do?activeTab=map&keyVal=N7MNLEBM4V000,0.09,not owned by a public authority,,permissioned,,,,22,,,,14/00477/FUL,18/12/2017,11/12/2018,,,
,,,,,,,,,,,,,,,,,,,http://opendatacommunities.org/id/district-council/newcastle-staffs,Newcastle-under-Lyme Borough Council,TC34,"2-4 Marsh Parade
Newcastle Under Lyme
Staffordshire
ST5 1",385378.335,346055.244,https://publicaccess.newcastle-staffs.gov.uk/online-applications/applicationDetails.do?activeTab=map&keyVal=OM4WXBBMHAI00,0.1,not owned by a public authority,,permissioned,,,,27,,,,17/00179/FUL,18/12/2017,11/12/2018,,,
,,,,,,,,,,,,,,,,,,,http://opendatacommunities.org/id/district-council/newcastle-staffs,Newcastle-under-Lyme Borough Council,TC36,"Former Savoy Cinema / Metropolis Nightclub 
Newcastle Under Lyme
 Staffordshire
ST5 1QQ",384823.823,345923.636,https://publicaccess.newcastle-staffs.gov.uk/online-applications/applicationDetails.do?activeTab=map&keyVal=OM35BKBMH7A00,0.09,not owned by a public authority,,permissioned,,,,227,,,,17/00174/FUL,11/12/2018,11/12/2018,,,
,,,,,,,,,,,,,,,,,,,http://opendatacommunities.org/id/district-council/newcastle-staffs,Newcastle-under-Lyme Borough Council,TC39,"Enjoy Car Life Site, Blackfriars Road, Newcastle",384624.914,345749.807,https://www.newcastle-staffs.gov.uk/sites/default/files/IMCE/Planning/Planning_Policy/NonLocal/TC39.pdf,0.3,not owned by a public authority,,not permissioned,,,,14,,,,,11/12/2018,11/12/2018,,,
,,,,,,,,,,,,,,,,,,,http://opendatacommunities.org/id/district-council/newcastle-staffs,Newcastle-under-Lyme Borough Council,TC40,"Car Park, Blackfriars Road, Newcastle",384676.049,345736.233,https://www.newcastle-staffs.gov.uk/sites/default/files/IMCE/Planning/Planning_Policy/NonLocal/TC40.pdf,0.2,owned by a public authority,,not permissioned,,,,10,,,,,11/12/2018,11/12/2018,,,
,,,,,,,,,,,,,,,,,,,http://opendatacommunities.org/id/district-council/newcastle-staffs,Newcastle-under-Lyme Borough Council,TK11,"Wedgwood Road, Kidsgrove",382873.75,352947.507,https://www.newcastle-staffs.gov.uk/sites/default/files/IMCE/Planning/Planning_Policy/NonLocal/TK11.pdf,0.25,not owned by a public authority,,not permissioned,,,,6,,,,Site promoted by registered provider,11/12/2018,11/12/2018,,,
,,,,,,,,,,,,,,,,,,,http://opendatacommunities.org/id/district-council/newcastle-staffs,Newcastle-under-Lyme Borough Council,TK22,"Former Talke Social Club, Coal Pit Hill, Talke",382535.15,353363.81,https://publicaccess.newcastle-staffs.gov.uk/online-applications/applicationDetails.do?activeTab=map&keyVal=JUHD8XBM06500,0.23,not owned by a public authority,,permissioned,,,,5,,,,08/00014/FUL,18/12/2017,11/12/2018,,,
,,,,,,,,,,,,,,,,,,,http://opendatacommunities.org/id/district-council/newcastle-staffs,Newcastle-under-Lyme Borough Council,WL15,"Priory Day Centre, Lymewood Grove, Newcastle",384670.79,345540.72,https://publicaccess.newcastle-staffs.gov.uk/online-applications/applicationDetails.do?activeTab=map&keyVal=N4FSTHBM4V000,0.66,not owned by a public authority,,permissioned,,,,13,,,,14/00284/FUL,18/12/2017,11/12/2018,,,
