address,address-text,deliverable,end-date,entry-date,hazardous-substances,hectares,latitude,longitude,maximum-net-dwellings,minimum-net-dwellings,notes,organisation,ownership-status,planning-permission-date,planning-permission-history,planning-permission-status,planning-permission-type,site,OrganisationURI,OrganisationLabel,SiteReference,SiteNameAddress,GeoX,GeoY,SiteplanURL,Hectares,OwnershipStatus,HazardousSubstances,PlanningStatus,PermissionType,PermissionDate,PlanningHistory,MinNetDwellings,NetDwellingsRangeFrom,NetDwellingsRangeTo,Deliverable,Notes,FirstAddedDate,LastUpdatedDate,EndDate,site-plan-url,start-date
,,,,,,,,,,,,,,,,,,,http://opendatacommunities.org/id/unitary-authority/leicester,Leicester City Council,MRQ5191,"""Velodrome Saffron Lane""",458703.62,302220,https://maps.leicester.gov.uk/map/Aurora.svc/run?script=%5CAurora%5Cw3%5CPLANNING%5Cw3LP.AuroraScript%24&inspect_query=BFReg&inspect_value=19&show_layers=BFReg&hide_layers=Wards&nocache=32281332-3504-d8fd-d4e6-2ea6a181fb0a&resize=always,1.28,not owned by a public authority,,not permissioned,,,,53,,53,,,31/12/2017,31/12/2017,,,
,,,,,,,,,,,,,,,,,,,http://opendatacommunities.org/id/unitary-authority/leicester,Leicester City Council,NGS5719_20131484,"""241 Loughborough Road - Rear of Bestway""",459356.75,307619.1,https://maps.leicester.gov.uk/map/Aurora.svc/run?script=%5CAurora%5Cw3%5CPLANNING%5Cw3LP.AuroraScript%24&inspect_query=BFReg&inspect_value=31&show_layers=BFReg&hide_layers=Wards&nocache=32281332-3504-d8fd-d4e6-2ea6a181fb0a&resize=always,2.7,not owned by a public authority,,permissioned,,,,161,,,,,31/12/2017,31/12/2017,,,
,,,,,,,,,,,,,,,,,,,http://opendatacommunities.org/id/unitary-authority/leicester,Leicester City Council,MJS5316,"""Abbey Meadows - remainder of site""",458963.35,306121.6,https://maps.leicester.gov.uk/map/Aurora.svc/run?script=%5CAurora%5Cw3%5CPLANNING%5Cw3LP.AuroraScript%24&inspect_query=BFReg&inspect_value=61&show_layers=BFReg&hide_layers=Wards&nocache=32281332-3504-d8fd-d4e6-2ea6a181fb0a&resize=always,1.7,not owned by a public authority,,not permissioned,,,,110,,110,,,31/12/2017,31/12/2017,,,
,,,,,,,,,,,,,,,,,,,http://opendatacommunities.org/id/unitary-authority/leicester,Leicester City Council,MKE9020,"""Abbey Park Road Bus Depot (MHT)""",459057.37,305771.59,https://maps.leicester.gov.uk/map/Aurora.svc/run?script=%5CAurora%5Cw3%5CPLANNING%5Cw3LP.AuroraScript%24&inspect_query=BFReg&inspect_value=68&show_layers=BFReg&hide_layers=Wards&nocache=32281332-3504-d8fd-d4e6-2ea6a181fb0a&resize=always,3.65,not owned by a public authority,,not permissioned,,,,400,,400,,,31/12/2017,31/12/2017,,,
,,,,,,,,,,,,,,,,,,,http://opendatacommunities.org/id/unitary-authority/leicester,Leicester City Council,LMU4746_20130021,"""Former Merlin Works - Bath Lane (No 1 Westbridge)""",458041.56,304551.5,https://maps.leicester.gov.uk/map/Aurora.svc/run?script=%5CAurora%5Cw3%5CPLANNING%5Cw3LP.AuroraScript%24&inspect_query=BFReg&inspect_value=71&show_layers=BFReg&hide_layers=Wards&nocache=32281332-3504-d8fd-d4e6-2ea6a181fb0a&resize=always,0.61,not owned by a public authority,,permissioned,,,,388,,,,,31/12/2017,31/12/2017,,,
,,,,,,,,,,,,,,,,,,,http://opendatacommunities.org/id/unitary-authority/leicester,Leicester City Council,NMF7932_20011249,"""Leicester House - Lee Circle""",459073.21,304835.44,https://maps.leicester.gov.uk/map/Aurora.svc/run?script=%5CAurora%5Cw3%5CPLANNING%5Cw3LP.AuroraScript%24&inspect_query=BFReg&inspect_value=96&show_layers=BFReg&hide_layers=Wards&nocache=32281332-3504-d8fd-d4e6-2ea6a181fb0a&resize=always,0.2,not owned by a public authority,,permissioned,,,,96,,,,,31/12/2017,31/12/2017,,,
,,,,,,,,,,,,,,,,,,,http://opendatacommunities.org/id/unitary-authority/leicester,Leicester City Council,NNP0827_20161604,"""38-44 York Street and 31-33 Dover Street""",459008.38,304126.87,https://maps.leicester.gov.uk/map/Aurora.svc/run?script=%5CAurora%5Cw3%5CPLANNING%5Cw3LP.AuroraScript%24&inspect_query=BFReg&inspect_value=110&show_layers=BFReg&hide_layers=Wards&nocache=32281332-3504-d8fd-d4e6-2ea6a181fb0a&resize=always,0.08,not owned by a public authority,,permissioned,,,,49,,,,,31/12/2017,31/12/2017,,,
,,,,,,,,,,,,,,,,,,,http://opendatacommunities.org/id/unitary-authority/leicester,Leicester City Council,LPM0921,"""Former Filbert Street Stadium (remainder of site)""",458347.55,303147.5,https://maps.leicester.gov.uk/map/Aurora.svc/run?script=%5CAurora%5Cw3%5CPLANNING%5Cw3LP.AuroraScript%24&inspect_query=BFReg&inspect_value=122&show_layers=BFReg&hide_layers=Wards&nocache=32281332-3504-d8fd-d4e6-2ea6a181fb0a&resize=always,1.33,not owned by a public authority,,not permissioned,,,,73,,73,,,31/12/2017,31/12/2017,,,
,,,,,,,,,,,,,,,,,,,http://opendatacommunities.org/id/unitary-authority/leicester,Leicester City Council,ORJ0995_20132156,"""143-147 Queens Road""",459908.91,302394.86,https://maps.leicester.gov.uk/map/Aurora.svc/run?script=%5CAurora%5Cw3%5CPLANNING%5Cw3LP.AuroraScript%24&inspect_query=BFReg&inspect_value=176&show_layers=BFReg&hide_layers=Wards&nocache=32281332-3504-d8fd-d4e6-2ea6a181fb0a&resize=always,0.12,not owned by a public authority,,permissioned,,,,41,,,,,31/12/2017,31/12/2017,,,
,,,,,,,,,,,,,,,,,,,http://opendatacommunities.org/id/unitary-authority/leicester,Leicester City Council,RIF9950_20072213,"""10-12 Fairfax Road""",461102.88,306849.05,https://maps.leicester.gov.uk/map/Aurora.svc/run?script=%5CAurora%5Cw3%5CPLANNING%5Cw3LP.AuroraScript%24&inspect_query=BFReg&inspect_value=181&show_layers=BFReg&hide_layers=Wards&nocache=32281332-3504-d8fd-d4e6-2ea6a181fb0a&resize=always,0.2,not owned by a public authority,,not permissioned,,,,30,,30,,,31/12/2017,31/12/2017,,,
,,,,,,,,,,,,,,,,,,,http://opendatacommunities.org/id/unitary-authority/leicester,Leicester City Council,NMB8286,"""4 Wheat Street""",459178.45,304986.67,https://maps.leicester.gov.uk/map/Aurora.svc/run?script=%5CAurora%5Cw3%5CPLANNING%5Cw3LP.AuroraScript%24&inspect_query=BFReg&inspect_value=187&show_layers=BFReg&hide_layers=Wards&nocache=32281332-3504-d8fd-d4e6-2ea6a181fb0a&resize=always,0.06,not owned by a public authority,,not permissioned,,,,34,,34,,,31/12/2017,31/12/2017,,,
,,,,,,,,,,,,,,,,,,,http://opendatacommunities.org/id/unitary-authority/leicester,Leicester City Council,MSI2463,"""101 Knighton Fields Road West""",458817.3,301842.85,https://maps.leicester.gov.uk/map/Aurora.svc/run?script=%5CAurora%5Cw3%5CPLANNING%5Cw3LP.AuroraScript%24&inspect_query=BFReg&inspect_value=209&show_layers=BFReg&hide_layers=Wards&nocache=32281332-3504-d8fd-d4e6-2ea6a181fb0a&resize=always,0.08,not owned by a public authority,,not permissioned,,,,22,,22,,,31/12/2017,31/12/2017,,,
,,,,,,,,,,,,,,,,,,,http://opendatacommunities.org/id/unitary-authority/leicester,Leicester City Council,ROG1398,"""Evington Valley Road (Former Dunlop Works) (PS09b18) (Northern half of PSO area)""",461200.26,303966.84,https://maps.leicester.gov.uk/map/Aurora.svc/run?script=%5CAurora%5Cw3%5CPLANNING%5Cw3LP.AuroraScript%24&inspect_query=BFReg&inspect_value=222&show_layers=BFReg&hide_layers=Wards&nocache=32281332-3504-d8fd-d4e6-2ea6a181fb0a&resize=always,2.37,not owned by a public authority,,not permissioned,,,,100,,100,,,31/12/2017,31/12/2017,,,
,,,,,,,,,,,,,,,,,,,http://opendatacommunities.org/id/unitary-authority/leicester,Leicester City Council,NNK0508_20160610,"""Chatham Street & York Street (Rear of 91 Granby Street)""",459003.58,304207.63,https://maps.leicester.gov.uk/map/Aurora.svc/run?script=%5CAurora%5Cw3%5CPLANNING%5Cw3LP.AuroraScript%24&inspect_query=BFReg&inspect_value=227&show_layers=BFReg&hide_layers=Wards&nocache=32281332-3504-d8fd-d4e6-2ea6a181fb0a&resize=always,0.09,not owned by a public authority,,permissioned,,,,134,,,,,31/12/2017,31/12/2017,,,
,,,,,,,,,,,,,,,,,,,http://opendatacommunities.org/id/unitary-authority/leicester,Leicester City Council,RJB9065_20111700,"""384 Gipsy Lane""",461189.5,306466.03,https://maps.leicester.gov.uk/map/Aurora.svc/run?script=%5CAurora%5Cw3%5CPLANNING%5Cw3LP.AuroraScript%24&inspect_query=BFReg&inspect_value=231&show_layers=BFReg&hide_layers=Wards&nocache=32281332-3504-d8fd-d4e6-2ea6a181fb0a&resize=always,0.12,not owned by a public authority,,permissioned,,,,21,,,,,31/12/2017,31/12/2017,,,
,,,,,,,,,,,,,,,,,,,http://opendatacommunities.org/id/unitary-authority/leicester,Leicester City Council,LWU5995,"""Sturdee Road - The Exchange""",458153.9,299592.65,https://maps.leicester.gov.uk/map/Aurora.svc/run?script=%5CAurora%5Cw3%5CPLANNING%5Cw3LP.AuroraScript%24&inspect_query=BFReg&inspect_value=297&show_layers=BFReg&hide_layers=Wards&nocache=32281332-3504-d8fd-d4e6-2ea6a181fb0a&resize=always,1,mixed ownership,,not permissioned,,,,33,,33,,,31/12/2017,31/12/2017,,,
,,,,,,,,,,,,,,,,,,,http://opendatacommunities.org/id/unitary-authority/leicester,Leicester City Council,KQR0931_20151042,"""Faircharm Trading Estate - Evelyn Drive""",457673.4,302585.83,https://maps.leicester.gov.uk/map/Aurora.svc/run?script=%5CAurora%5Cw3%5CPLANNING%5Cw3LP.AuroraScript%24&inspect_query=BFReg&inspect_value=303&show_layers=BFReg&hide_layers=Wards&nocache=32281332-3504-d8fd-d4e6-2ea6a181fb0a&resize=always,2.8,not owned by a public authority,,permissioned,,,,66,,,,,31/12/2017,31/12/2017,,,
,,,,,,,,,,,,,,,,,,,http://opendatacommunities.org/id/unitary-authority/leicester,Leicester City Council,LMP6876_20140991,"""Bath Lane/Blackfriars - Phase 2 and 3""",458067.36,304714.12,https://maps.leicester.gov.uk/map/Aurora.svc/run?script=%5CAurora%5Cw3%5CPLANNING%5Cw3LP.AuroraScript%24&inspect_query=BFReg&inspect_value=330&show_layers=BFReg&hide_layers=Wards&nocache=32281332-3504-d8fd-d4e6-2ea6a181fb0a&resize=always,0.89,not owned by a public authority,,permissioned,,,,165,,,,,31/12/2017,31/12/2017,,,
,,,,,,,,,,,,,,,,,,,http://opendatacommunities.org/id/unitary-authority/leicester,Leicester City Council,LMN2396_20162182,"""Vaughan Way - Highcross Street""",458322.66,304794.21,https://maps.leicester.gov.uk/map/Aurora.svc/run?script=%5CAurora%5Cw3%5CPLANNING%5Cw3LP.AuroraScript%24&inspect_query=BFReg&inspect_value=338&show_layers=BFReg&hide_layers=Wards&nocache=32281332-3504-d8fd-d4e6-2ea6a181fb0a&resize=always,0.67,not owned by a public authority,,permissioned,,,,300,,,,,31/12/2017,31/12/2017,,,
,,,,,,,,,,,,,,,,,,,http://opendatacommunities.org/id/unitary-authority/leicester,Leicester City Council,MNT2721_20131289,"""35 Albion Street - Black Boy PH""",458925.75,304121.13,https://maps.leicester.gov.uk/map/Aurora.svc/run?script=%5CAurora%5Cw3%5CPLANNING%5Cw3LP.AuroraScript%24&inspect_query=BFReg&inspect_value=343&show_layers=BFReg&hide_layers=Wards&nocache=32281332-3504-d8fd-d4e6-2ea6a181fb0a&resize=always,0.05,not owned by a public authority,,permissioned,,,,25,,,,,31/12/2017,31/12/2017,,,
,,,,,,,,,,,,,,,,,,,http://opendatacommunities.org/id/unitary-authority/leicester,Leicester City Council,MNC0497_20141671,"""32-38 Market Place - Odeon Arcade""",458701.78,304495.97,https://maps.leicester.gov.uk/map/Aurora.svc/run?script=%5CAurora%5Cw3%5CPLANNING%5Cw3LP.AuroraScript%24&inspect_query=BFReg&inspect_value=346&show_layers=BFReg&hide_layers=Wards&nocache=32281332-3504-d8fd-d4e6-2ea6a181fb0a&resize=always,0.11,not owned by a public authority,,permissioned,,,,100,,,,,31/12/2017,31/12/2017,,,
,,,,,,,,,,,,,,,,,,,http://opendatacommunities.org/id/unitary-authority/leicester,Leicester City Council,MOK1188_20141519,"""Henshaw Street/Grange Lane""",458511.34,303788.25,https://maps.leicester.gov.uk/map/Aurora.svc/run?script=%5CAurora%5Cw3%5CPLANNING%5Cw3LP.AuroraScript%24&inspect_query=BFReg&inspect_value=355&show_layers=BFReg&hide_layers=Wards&nocache=32281332-3504-d8fd-d4e6-2ea6a181fb0a&resize=always,0.04,not owned by a public authority,,permissioned,,,,14,,,,,31/12/2017,31/12/2017,,,
,,,,,,,,,,,,,,,,,,,http://opendatacommunities.org/id/unitary-authority/leicester,Leicester City Council,MOF0206_20132288,"""20 Deacon Street""",458503.04,303807.24,https://maps.leicester.gov.uk/map/Aurora.svc/run?script=%5CAurora%5Cw3%5CPLANNING%5Cw3LP.AuroraScript%24&inspect_query=BFReg&inspect_value=356&show_layers=BFReg&hide_layers=Wards&nocache=32281332-3504-d8fd-d4e6-2ea6a181fb0a&resize=always,0.07,not owned by a public authority,,permissioned,,,,24,,,,,31/12/2017,31/12/2017,,,
,,,,,,,,,,,,,,,,,,,http://opendatacommunities.org/id/unitary-authority/leicester,Leicester City Council,NOD1145_20140475,"""2 Regent Street""",459311.87,303941.99,https://maps.leicester.gov.uk/map/Aurora.svc/run?script=%5CAurora%5Cw3%5CPLANNING%5Cw3LP.AuroraScript%24&inspect_query=BFReg&inspect_value=358&show_layers=BFReg&hide_layers=Wards&nocache=32281332-3504-d8fd-d4e6-2ea6a181fb0a&resize=always,0.04,not owned by a public authority,,permissioned,,,,12,,,,,31/12/2017,31/12/2017,,,
,,,,,,,,,,,,,,,,,,,http://opendatacommunities.org/id/unitary-authority/leicester,Leicester City Council,NNQ0585_20152147,"""127-133 Granby Street""",459098,304196.75,https://maps.leicester.gov.uk/map/Aurora.svc/run?script=%5CAurora%5Cw3%5CPLANNING%5Cw3LP.AuroraScript%24&inspect_query=BFReg&inspect_value=360&show_layers=BFReg&hide_layers=Wards&nocache=32281332-3504-d8fd-d4e6-2ea6a181fb0a&resize=always,0.11,not owned by a public authority,,permissioned,,,,61,,,,,31/12/2017,31/12/2017,,,
,,,,,,,,,,,,,,,,,,,http://opendatacommunities.org/id/unitary-authority/leicester,Leicester City Council,NNY4783_20140794,"""44 Conduit Street""",459446.87,304083.82,https://maps.leicester.gov.uk/map/Aurora.svc/run?script=%5CAurora%5Cw3%5CPLANNING%5Cw3LP.AuroraScript%24&inspect_query=BFReg&inspect_value=361&show_layers=BFReg&hide_layers=Wards&nocache=32281332-3504-d8fd-d4e6-2ea6a181fb0a&resize=always,0.02,not owned by a public authority,,permissioned,,,,14,,,,,31/12/2017,31/12/2017,,,
,,,,,,,,,,,,,,,,,,,http://opendatacommunities.org/id/unitary-authority/leicester,Leicester City Council,MMM1532_20140075,"""27 Churchgate""",458716.23,304732.11,https://maps.leicester.gov.uk/map/Aurora.svc/run?script=%5CAurora%5Cw3%5CPLANNING%5Cw3LP.AuroraScript%24&inspect_query=BFReg&inspect_value=364&show_layers=BFReg&hide_layers=Wards&nocache=32281332-3504-d8fd-d4e6-2ea6a181fb0a&resize=always,0.03,not owned by a public authority,,permissioned,,,,11,,,,,31/12/2017,31/12/2017,,,
,,,,,,,,,,,,,,,,,,,http://opendatacommunities.org/id/unitary-authority/leicester,Leicester City Council,MNG7025_20161670,"""15-23 Hotel Street and 6 Millstone Lane""",458670.86,304326.15,https://maps.leicester.gov.uk/map/Aurora.svc/run?script=%5CAurora%5Cw3%5CPLANNING%5Cw3LP.AuroraScript%24&inspect_query=BFReg&inspect_value=367&show_layers=BFReg&hide_layers=Wards&nocache=32281332-3504-d8fd-d4e6-2ea6a181fb0a&resize=always,0.1,not owned by a public authority,,permissioned,,,,36,,,,,31/12/2017,31/12/2017,,,
,,,,,,,,,,,,,,,,,,,http://opendatacommunities.org/id/unitary-authority/leicester,Leicester City Council,LMR5420_20152055,"""47 Vaughan Way - Kimberley House""",458252.48,304623.83,https://maps.leicester.gov.uk/map/Aurora.svc/run?script=%5CAurora%5Cw3%5CPLANNING%5Cw3LP.AuroraScript%24&inspect_query=BFReg&inspect_value=369&show_layers=BFReg&hide_layers=Wards&nocache=32281332-3504-d8fd-d4e6-2ea6a181fb0a&resize=always,0.09,not owned by a public authority,,permissioned,,,,54,,,,,31/12/2017,31/12/2017,,,
,,,,,,,,,,,,,,,,,,,http://opendatacommunities.org/id/unitary-authority/leicester,Leicester City Council,MJN5350,"""Abbey Meadows - Bestway Holdings""",458787.6,306328.2,https://maps.leicester.gov.uk/map/Aurora.svc/run?script=%5CAurora%5Cw3%5CPLANNING%5Cw3LP.AuroraScript%24&inspect_query=BFReg&inspect_value=370&show_layers=BFReg&hide_layers=Wards&nocache=32281332-3504-d8fd-d4e6-2ea6a181fb0a&resize=always,1.97,not owned by a public authority,,not permissioned,,,,159,,159,,,31/12/2017,31/12/2017,,,
,,,,,,,,,,,,,,,,,,,http://opendatacommunities.org/id/unitary-authority/leicester,Leicester City Council,LTG6915_20132190,"""Milligan Road - LCCC""",458184.62,301331.53,https://maps.leicester.gov.uk/map/Aurora.svc/run?script=%5CAurora%5Cw3%5CPLANNING%5Cw3LP.AuroraScript%24&inspect_query=BFReg&inspect_value=371&show_layers=BFReg&hide_layers=Wards&nocache=32281332-3504-d8fd-d4e6-2ea6a181fb0a&resize=always,0.13,not owned by a public authority,,permissioned,,,,14,,,,,31/12/2017,31/12/2017,,,
,,,,,,,,,,,,,,,,,,,http://opendatacommunities.org/id/unitary-authority/leicester,Leicester City Council,OIH4966_20141915,"""148 Melton Road""",459751.5,306862.65,https://maps.leicester.gov.uk/map/Aurora.svc/run?script=%5CAurora%5Cw3%5CPLANNING%5Cw3LP.AuroraScript%24&inspect_query=BFReg&inspect_value=375&show_layers=BFReg&hide_layers=Wards&nocache=32281332-3504-d8fd-d4e6-2ea6a181fb0a&resize=always,0.12,not owned by a public authority,,permissioned,,,,10,,,,,31/12/2017,31/12/2017,,,
,,,,,,,,,,,,,,,,,,,http://opendatacommunities.org/id/unitary-authority/leicester,Leicester City Council,MJD7815_20160614,"""Abbey Meadows - Sock Island/Wolsey Works""",458843.97,306296.35,https://maps.leicester.gov.uk/map/Aurora.svc/run?script=%5CAurora%5Cw3%5CPLANNING%5Cw3LP.AuroraScript%24&inspect_query=BFReg&inspect_value=377&show_layers=BFReg&hide_layers=Wards&nocache=32281332-3504-d8fd-d4e6-2ea6a181fb0a&resize=always,2.4,not owned by a public authority,,permissioned,,,,188,,,,,31/12/2017,31/12/2017,,,
,,,,,,,,,,,,,,,,,,,http://opendatacommunities.org/id/unitary-authority/leicester,Leicester City Council,OJE3495_20141780,"""137 Harrison Road""",459929.9,306491.26,https://maps.leicester.gov.uk/map/Aurora.svc/run?script=%5CAurora%5Cw3%5CPLANNING%5Cw3LP.AuroraScript%24&inspect_query=BFReg&inspect_value=380&show_layers=BFReg&hide_layers=Wards&nocache=32281332-3504-d8fd-d4e6-2ea6a181fb0a&resize=always,0.1,not owned by a public authority,,permissioned,,,,13,,,,,31/12/2017,31/12/2017,,,
,,,,,,,,,,,,,,,,,,,http://opendatacommunities.org/id/unitary-authority/leicester,Leicester City Council,JOB6819_20140575,"""Westcotes Drive - Former Cherryleas Assessment Centre""",457164.98,303918.19,https://maps.leicester.gov.uk/map/Aurora.svc/run?script=%5CAurora%5Cw3%5CPLANNING%5Cw3LP.AuroraScript%24&inspect_query=BFReg&inspect_value=381&show_layers=BFReg&hide_layers=Wards&nocache=32281332-3504-d8fd-d4e6-2ea6a181fb0a&resize=always,0.67,not owned by a public authority,,permissioned,,,,23,,,,,31/12/2017,31/12/2017,,,
,,,,,,,,,,,,,,,,,,,http://opendatacommunities.org/id/unitary-authority/leicester,Leicester City Council,LLU6012_20151587,"""Northgate Street/Soar Lane""",458058.16,304925.45,https://maps.leicester.gov.uk/map/Aurora.svc/run?script=%5CAurora%5Cw3%5CPLANNING%5Cw3LP.AuroraScript%24&inspect_query=BFReg&inspect_value=388&show_layers=BFReg&hide_layers=Wards&nocache=32281332-3504-d8fd-d4e6-2ea6a181fb0a&resize=always,5.72,mixed ownership,,permissioned,,,,350,,,,,31/12/2017,31/12/2017,,,
,,,,,,,,,,,,,,,,,,,http://opendatacommunities.org/id/unitary-authority/leicester,Leicester City Council,LME6628_20152022,"""125-129 Vaughan Way""",458461.96,304926.7,https://maps.leicester.gov.uk/map/Aurora.svc/run?script=%5CAurora%5Cw3%5CPLANNING%5Cw3LP.AuroraScript%24&inspect_query=BFReg&inspect_value=389&show_layers=BFReg&hide_layers=Wards&nocache=32281332-3504-d8fd-d4e6-2ea6a181fb0a&resize=always,0.16,not owned by a public authority,,permissioned,,,,120,,,,,31/12/2017,31/12/2017,,,
,,,,,,,,,,,,,,,,,,,http://opendatacommunities.org/id/unitary-authority/leicester,Leicester City Council,NON9618_20161730,"""14 West Walk""",459397.16,303717.67,https://maps.leicester.gov.uk/map/Aurora.svc/run?script=%5CAurora%5Cw3%5CPLANNING%5Cw3LP.AuroraScript%24&inspect_query=BFReg&inspect_value=396&show_layers=BFReg&hide_layers=Wards&nocache=32281332-3504-d8fd-d4e6-2ea6a181fb0a&resize=always,0.03,not owned by a public authority,,permissioned,,,,12,,,,,31/12/2017,31/12/2017,,,
,,,,,,,,,,,,,,,,,,,http://opendatacommunities.org/id/unitary-authority/leicester,Leicester City Council,OOK3308_20152256,"""140-142 New Walk""",459529.96,303703.59,https://maps.leicester.gov.uk/map/Aurora.svc/run?script=%5CAurora%5Cw3%5CPLANNING%5Cw3LP.AuroraScript%24&inspect_query=BFReg&inspect_value=397&show_layers=BFReg&hide_layers=Wards&nocache=32281332-3504-d8fd-d4e6-2ea6a181fb0a&resize=always,0.12,not owned by a public authority,,permissioned,,,,52,,,,,31/12/2017,31/12/2017,,,
,,,,,,,,,,,,,,,,,,,http://opendatacommunities.org/id/unitary-authority/leicester,Leicester City Council,MNG5567_20151258,"""13 Hotel Street""",458650.6,304364.37,https://maps.leicester.gov.uk/map/Aurora.svc/run?script=%5CAurora%5Cw3%5CPLANNING%5Cw3LP.AuroraScript%24&inspect_query=BFReg&inspect_value=399&show_layers=BFReg&hide_layers=Wards&nocache=32281332-3504-d8fd-d4e6-2ea6a181fb0a&resize=always,0.04,not owned by a public authority,,permissioned,,,,24,,,,,31/12/2017,31/12/2017,,,
,,,,,,,,,,,,,,,,,,,http://opendatacommunities.org/id/unitary-authority/leicester,Leicester City Council,MLN7820_20170050,"""99 Burleys Way - Thames Tower""",458877.05,305219.03,https://maps.leicester.gov.uk/map/Aurora.svc/run?script=%5CAurora%5Cw3%5CPLANNING%5Cw3LP.AuroraScript%24&inspect_query=BFReg&inspect_value=401&show_layers=BFReg&hide_layers=Wards&nocache=32281332-3504-d8fd-d4e6-2ea6a181fb0a&resize=always,0.16,not owned by a public authority,,permissioned,,,,63,,,,,31/12/2017,31/12/2017,,,
,,,,,,,,,,,,,,,,,,,http://opendatacommunities.org/id/unitary-authority/leicester,Leicester City Council,HOG0666_20151721,"""Former Queensmead School - Hamelin Road""",456099.51,303867.94,https://maps.leicester.gov.uk/map/Aurora.svc/run?script=%5CAurora%5Cw3%5CPLANNING%5Cw3LP.AuroraScript%24&inspect_query=BFReg&inspect_value=403&show_layers=BFReg&hide_layers=Wards&nocache=32281332-3504-d8fd-d4e6-2ea6a181fb0a&resize=always,0.96,Owned by a public authority,,permissioned,,,,82,,,,,31/12/2017,31/12/2017,,,
,,,,,,,,,,,,,,,,,,,http://opendatacommunities.org/id/unitary-authority/leicester,Leicester City Council,OOL1167_20160108,"""100 London Road""",459610.52,303765.19,https://maps.leicester.gov.uk/map/Aurora.svc/run?script=%5CAurora%5Cw3%5CPLANNING%5Cw3LP.AuroraScript%24&inspect_query=BFReg&inspect_value=404&show_layers=BFReg&hide_layers=Wards&nocache=32281332-3504-d8fd-d4e6-2ea6a181fb0a&resize=always,0.02,not owned by a public authority,,permissioned,,,,10,,,,,31/12/2017,31/12/2017,,,
,,,,,,,,,,,,,,,,,,,http://opendatacommunities.org/id/unitary-authority/leicester,Leicester City Council,LMM3464_20151041,"""61 Great Central Street""",458236.51,304764.02,https://maps.leicester.gov.uk/map/Aurora.svc/run?script=%5CAurora%5Cw3%5CPLANNING%5Cw3LP.AuroraScript%24&inspect_query=BFReg&inspect_value=407&show_layers=BFReg&hide_layers=Wards&nocache=32281332-3504-d8fd-d4e6-2ea6a181fb0a&resize=always,0.14,not owned by a public authority,,permissioned,,,,73,,,,,31/12/2017,31/12/2017,,,
,,,,,,,,,,,,,,,,,,,http://opendatacommunities.org/id/unitary-authority/leicester,Leicester City Council,NLF9214,"""233 Belgrave Gate""",459080.3,305313.9,https://maps.leicester.gov.uk/map/Aurora.svc/run?script=%5CAurora%5Cw3%5CPLANNING%5Cw3LP.AuroraScript%24&inspect_query=BFReg&inspect_value=408&show_layers=BFReg&hide_layers=Wards&nocache=32281332-3504-d8fd-d4e6-2ea6a181fb0a&resize=always,0.02,not owned by a public authority,,permissioned,,,,20,,,,,31/12/2017,31/12/2017,,,
,,,,,,,,,,,,,,,,,,,http://opendatacommunities.org/id/unitary-authority/leicester,Leicester City Council,NMA6450_20160424,"""Lee Circle Fleet House""",459064.27,304949.87,https://maps.leicester.gov.uk/map/Aurora.svc/run?script=%5CAurora%5Cw3%5CPLANNING%5Cw3LP.AuroraScript%24&inspect_query=BFReg&inspect_value=409&show_layers=BFReg&hide_layers=Wards&nocache=32281332-3504-d8fd-d4e6-2ea6a181fb0a&resize=always,0.24,not owned by a public authority,,permissioned,,,,155,,,,,31/12/2017,31/12/2017,,,
,,,,,,,,,,,,,,,,,,,http://opendatacommunities.org/id/unitary-authority/leicester,Leicester City Council,NMS0955_20150866,"""21 Morledge Street""",459308.39,304656.2,https://maps.leicester.gov.uk/map/Aurora.svc/run?script=%5CAurora%5Cw3%5CPLANNING%5Cw3LP.AuroraScript%24&inspect_query=BFReg&inspect_value=410&show_layers=BFReg&hide_layers=Wards&nocache=32281332-3504-d8fd-d4e6-2ea6a181fb0a&resize=always,0.1,not owned by a public authority,,permissioned,,,,115,,,,,31/12/2017,31/12/2017,,,
,,,,,,,,,,,,,,,,,,,http://opendatacommunities.org/id/unitary-authority/leicester,Leicester City Council,NNB0817_20170374,"""2-4 Colton Street""",459107.65,304416.62,https://maps.leicester.gov.uk/map/Aurora.svc/run?script=%5CAurora%5Cw3%5CPLANNING%5Cw3LP.AuroraScript%24&inspect_query=BFReg&inspect_value=411&show_layers=BFReg&hide_layers=Wards&nocache=32281332-3504-d8fd-d4e6-2ea6a181fb0a&resize=always,0.05,not owned by a public authority,,permissioned,,,,29,,,,,31/12/2017,31/12/2017,,,
,,,,,,,,,,,,,,,,,,,http://opendatacommunities.org/id/unitary-authority/leicester,Leicester City Council,MMG8030_20151727,"""63 Churchgate""",458679.75,304832.14,https://maps.leicester.gov.uk/map/Aurora.svc/run?script=%5CAurora%5Cw3%5CPLANNING%5Cw3LP.AuroraScript%24&inspect_query=BFReg&inspect_value=412&show_layers=BFReg&hide_layers=Wards&nocache=32281332-3504-d8fd-d4e6-2ea6a181fb0a&resize=always,0.05,not owned by a public authority,,permissioned,,,,14,,,,,31/12/2017,31/12/2017,,,
,,,,,,,,,,,,,,,,,,,http://opendatacommunities.org/id/unitary-authority/leicester,Leicester City Council,MNO1115_20160473,"""1A Stamford Street""",458910.58,304213.03,https://maps.leicester.gov.uk/map/Aurora.svc/run?script=%5CAurora%5Cw3%5CPLANNING%5Cw3LP.AuroraScript%24&inspect_query=BFReg&inspect_value=413&show_layers=BFReg&hide_layers=Wards&nocache=32281332-3504-d8fd-d4e6-2ea6a181fb0a&resize=always,0.02,not owned by a public authority,,permissioned,,,,15,,,,,31/12/2017,31/12/2017,,,
,,,,,,,,,,,,,,,,,,,http://opendatacommunities.org/id/unitary-authority/leicester,Leicester City Council,MNR6473_20161647,"""3 Welford Place""",458762.37,304171.34,https://maps.leicester.gov.uk/map/Aurora.svc/run?script=%5CAurora%5Cw3%5CPLANNING%5Cw3LP.AuroraScript%24&inspect_query=BFReg&inspect_value=414&show_layers=BFReg&hide_layers=Wards&nocache=32281332-3504-d8fd-d4e6-2ea6a181fb0a&resize=always,0.02,not owned by a public authority,,permissioned,,,,14,,,,,31/12/2017,31/12/2017,,,
,,,,,,,,,,,,,,,,,,,http://opendatacommunities.org/id/unitary-authority/leicester,Leicester City Council,MOC0876_20170098,"""37 Welford Road 12 Norton Street""",458708.25,303976.48,https://maps.leicester.gov.uk/map/Aurora.svc/run?script=%5CAurora%5Cw3%5CPLANNING%5Cw3LP.AuroraScript%24&inspect_query=BFReg&inspect_value=415&show_layers=BFReg&hide_layers=Wards&nocache=32281332-3504-d8fd-d4e6-2ea6a181fb0a&resize=always,0.15,not owned by a public authority,,permissioned,,,,41,,,,,31/12/2017,31/12/2017,,,
,,,,,,,,,,,,,,,,,,,http://opendatacommunities.org/id/unitary-authority/leicester,Leicester City Council,NNA7150_20161032,"""24 Rutland Street""",459071.25,304450.07,https://maps.leicester.gov.uk/map/Aurora.svc/run?script=%5CAurora%5Cw3%5CPLANNING%5Cw3LP.AuroraScript%24&inspect_query=BFReg&inspect_value=417&show_layers=BFReg&hide_layers=Wards&nocache=32281332-3504-d8fd-d4e6-2ea6a181fb0a&resize=always,0.05,not owned by a public authority,,permissioned,,,,10,,,,,31/12/2017,31/12/2017,,,
,,,,,,,,,,,,,,,,,,,http://opendatacommunities.org/id/unitary-authority/leicester,Leicester City Council,NOS0111_20161974,"""104 Regent Road""",459299.12,303610.63,https://maps.leicester.gov.uk/map/Aurora.svc/run?script=%5CAurora%5Cw3%5CPLANNING%5Cw3LP.AuroraScript%24&inspect_query=BFReg&inspect_value=419&show_layers=BFReg&hide_layers=Wards&nocache=32281332-3504-d8fd-d4e6-2ea6a181fb0a&resize=always,0.08,not owned by a public authority,,permissioned,,,,16,,,,,31/12/2017,31/12/2017,,,
,,,,,,,,,,,,,,,,,,,http://opendatacommunities.org/id/unitary-authority/leicester,Leicester City Council,KOK8748_20162254,"""10 Westcotes Drive - Scotia Hotel""",457586.3,303747.28,https://maps.leicester.gov.uk/map/Aurora.svc/run?script=%5CAurora%5Cw3%5CPLANNING%5Cw3LP.AuroraScript%24&inspect_query=BFReg&inspect_value=422&show_layers=BFReg&hide_layers=Wards&nocache=32281332-3504-d8fd-d4e6-2ea6a181fb0a&resize=always,0.04,not owned by a public authority,,permissioned,,,,10,,,,,31/12/2017,31/12/2017,,,
,,,,,,,,,,,,,,,,,,,http://opendatacommunities.org/id/unitary-authority/leicester,Leicester City Council,LUI2334_20152003,"""499A Saffron Lane""",458312.13,300843.89,https://maps.leicester.gov.uk/map/Aurora.svc/run?script=%5CAurora%5Cw3%5CPLANNING%5Cw3LP.AuroraScript%24&inspect_query=BFReg&inspect_value=424&show_layers=BFReg&hide_layers=Wards&nocache=32281332-3504-d8fd-d4e6-2ea6a181fb0a&resize=always,0.08,not owned by a public authority,,permissioned,,,,14,,,,,31/12/2017,31/12/2017,,,
,,,,,,,,,,,,,,,,,,,http://opendatacommunities.org/id/unitary-authority/leicester,Leicester City Council,MLW8504_20152315,"""44 Abbey Street""",458784.82,305004.16,https://maps.leicester.gov.uk/map/Aurora.svc/run?script=%5CAurora%5Cw3%5CPLANNING%5Cw3LP.AuroraScript%24&inspect_query=BFReg&inspect_value=425&show_layers=BFReg&hide_layers=Wards&nocache=32281332-3504-d8fd-d4e6-2ea6a181fb0a&resize=always,0.13,not owned by a public authority,,permissioned,,,,11,,,,,31/12/2017,31/12/2017,,,
,,,,,,,,,,,,,,,,,,,http://opendatacommunities.org/id/unitary-authority/leicester,Leicester City Council,NJO8867_20141845,"""190 Belgrave Road - Balmoral Hotel""",459484.78,306266.35,https://maps.leicester.gov.uk/map/Aurora.svc/run?script=%5CAurora%5Cw3%5CPLANNING%5Cw3LP.AuroraScript%24&inspect_query=BFReg&inspect_value=426&show_layers=BFReg&hide_layers=Wards&nocache=32281332-3504-d8fd-d4e6-2ea6a181fb0a&resize=always,0.08,not owned by a public authority,,permissioned,,,,21,,,,,31/12/2017,31/12/2017,,,
,,,,,,,,,,,,,,,,,,,http://opendatacommunities.org/id/unitary-authority/leicester,Leicester City Council,NJT3123_20161293,"""160 Belgrave Road - Belgrave Commercial Centre""",459430.2,306120.6,https://maps.leicester.gov.uk/map/Aurora.svc/run?script=%5CAurora%5Cw3%5CPLANNING%5Cw3LP.AuroraScript%24&inspect_query=BFReg&inspect_value=427&show_layers=BFReg&hide_layers=Wards&nocache=32281332-3504-d8fd-d4e6-2ea6a181fb0a&resize=always,0.08,not owned by a public authority,,permissioned,,,,34,,,,,31/12/2017,31/12/2017,,,
,,,,,,,,,,,,,,,,,,,http://opendatacommunities.org/id/unitary-authority/leicester,Leicester City Council,OJB3239_20151804,"""51 Melton Road""",459632.18,306438.1,https://maps.leicester.gov.uk/map/Aurora.svc/run?script=%5CAurora%5Cw3%5CPLANNING%5Cw3LP.AuroraScript%24&inspect_query=BFReg&inspect_value=428&show_layers=BFReg&hide_layers=Wards&nocache=32281332-3504-d8fd-d4e6-2ea6a181fb0a&resize=always,0.07,not owned by a public authority,,permissioned,,,,10,,,,,31/12/2017,31/12/2017,,,
,,,,,,,,,,,,,,,,,,,http://opendatacommunities.org/id/unitary-authority/leicester,Leicester City Council,RMJ1020_20162492,"""Green Lane Road - Former Shield Engineering""",461412.68,304810.93,https://maps.leicester.gov.uk/map/Aurora.svc/run?script=%5CAurora%5Cw3%5CPLANNING%5Cw3LP.AuroraScript%24&inspect_query=BFReg&inspect_value=429&show_layers=BFReg&hide_layers=Wards&nocache=32281332-3504-d8fd-d4e6-2ea6a181fb0a&resize=always,2.7,not owned by a public authority,,permissioned,,,,82,,,,,31/12/2017,31/12/2017,,,
,,,,,,,,,,,,,,,,,,,http://opendatacommunities.org/id/unitary-authority/leicester,Leicester City Council,SJL9029_20161429,"""Grosvenor Gate - Former nurses home""",461689.6,306228.56,https://maps.leicester.gov.uk/map/Aurora.svc/run?script=%5CAurora%5Cw3%5CPLANNING%5Cw3LP.AuroraScript%24&inspect_query=BFReg&inspect_value=430&show_layers=BFReg&hide_layers=Wards&nocache=32281332-3504-d8fd-d4e6-2ea6a181fb0a&resize=always,0.47,Owned by a public authority,,permissioned,,,,40,,,,,31/12/2017,31/12/2017,,,
,,,,,,,,,,,,,,,,,,,http://opendatacommunities.org/id/unitary-authority/leicester,Leicester City Council,KON3742_20171280,"""52 Western Road""",457838.9,303744.26,https://maps.leicester.gov.uk/map/Aurora.svc/run?script=%5CAurora%5Cw3%5CPLANNING%5Cw3LP.AuroraScript%24&inspect_query=BFReg&inspect_value=431&show_layers=BFReg&hide_layers=Wards&nocache=32281332-3504-d8fd-d4e6-2ea6a181fb0a&resize=always,0.18,not owned by a public authority,,permissioned,,,,279,,,,,31/12/2017,31/12/2017,,,
,,,,,,,,,,,,,,,,,,,http://opendatacommunities.org/id/unitary-authority/leicester,Leicester City Council,NRC9037_20161943,"""188 Welford Road""",459288.26,302438.17,https://maps.leicester.gov.uk/map/Aurora.svc/run?script=%5CAurora%5Cw3%5CPLANNING%5Cw3LP.AuroraScript%24&inspect_query=BFReg&inspect_value=434&show_layers=BFReg&hide_layers=Wards&nocache=32281332-3504-d8fd-d4e6-2ea6a181fb0a&resize=always,0.05,not owned by a public authority,,permissioned,,,,13,,,,,31/12/2017,31/12/2017,,,
,,,,,,,,,,,,,,,,,,,http://opendatacommunities.org/id/unitary-authority/leicester,Leicester City Council,NOT5363_20161047,"""57 The Oval - New Walk""",459455.08,303665.12,https://maps.leicester.gov.uk/map/Aurora.svc/run?script=%5CAurora%5Cw3%5CPLANNING%5Cw3LP.AuroraScript%24&inspect_query=BFReg&inspect_value=435&show_layers=BFReg&hide_layers=Wards&nocache=32281332-3504-d8fd-d4e6-2ea6a181fb0a&resize=always,1,not owned by a public authority,,permissioned,,,,54,,,,,31/12/2017,31/12/2017,,,
,,,,,,,,,,,,,,,,,,,http://opendatacommunities.org/id/unitary-authority/leicester,Leicester City Council,NOM0916_20160758,"""67-75 Princess Road East""",459206.8,303719.09,https://maps.leicester.gov.uk/map/Aurora.svc/run?script=%5CAurora%5Cw3%5CPLANNING%5Cw3LP.AuroraScript%24&inspect_query=BFReg&inspect_value=437&show_layers=BFReg&hide_layers=Wards&nocache=32281332-3504-d8fd-d4e6-2ea6a181fb0a&resize=always,0.14,not owned by a public authority,,permissioned,,,,110,,,,,31/12/2017,31/12/2017,,,
