address,address-text,deliverable,end-date,entry-date,hazardous-substances,hectares,latitude,longitude,maximum-net-dwellings,minimum-net-dwellings,notes,organisation,ownership-status,planning-permission-date,planning-permission-history,planning-permission-status,planning-permission-type,site,OrganisationURI,OrganisationLabel,SiteReference,SiteNameAddress,GeoX,GeoY,SiteplanURL,Hectares,OwnershipStatus,HazardousSubstances,PlanningStatus,PermissionType,PermissionDate,PlanningHistory,MinNetDwellings,NetDwellingsRangeFrom,NetDwellingsRangeTo,Deliverable,Notes,FirstAddedDate,LastUpdatedDate,EndDate,site-plan-url,start-date
,,,,,,,,,,,,,,,,,,,http://opendatacommunities.org/id/london-borough-council/hillingdon,London Borough of Hillingdon,1197/APP/2015/4164,"Union Park, Packet Boat Lane, UB8 2GH",-0.482681,51.520932,https://maps.london.gov.uk/brownfield-site-register,1.41,Unkown Ownership,,permissioned,,,,251,,,,,2017-12-31,2017-12-31,,,
,,,,,,,,,,,,,,,,,,,http://opendatacommunities.org/id/london-borough-council/hillingdon,London Borough of Hillingdon,38567/APP/2016/869,"Jebsen House, 53-61 High Street, Ruislip, HA4 7BD",-0.424991,51.574941,https://maps.london.gov.uk/brownfield-site-register,0.09,Unkown Ownership,,permissioned,,,,22,,,,,2017-12-31,2017-12-31,,,
,,,,,,,,,,,,,,,,,,,http://opendatacommunities.org/id/london-borough-council/hillingdon,London Borough of Hillingdon,23156/APP/2016/1284,"Malt House, 128 Field End Road, Eastcote, HA4 9XQ",-0.39567,51.574978,https://maps.london.gov.uk/brownfield-site-register,0.25,Unkown Ownership,,permissioned,,,,30,,,,,2017-12-31,2017-12-31,,,
,,,,,,,,,,,,,,,,,,,http://opendatacommunities.org/id/london-borough-council/hillingdon,London Borough of Hillingdon,16323/APP/2015/4701,"Metro House, 201 Pinner Road, Northwood, HA6 1BX",-0.416225,51.604079,https://maps.london.gov.uk/brownfield-site-register,0.12,Unkown Ownership,,permissioned,,,,13,,,,,2017-12-31,2017-12-31,,,
,,,,,,,,,,,,,,,,,,,http://opendatacommunities.org/id/london-borough-council/hillingdon,London Borough of Hillingdon,28388/APP/2017/1447,"Quilters, 178-182, Highs Street, Ruilsip",-0.422959,51.572253,https://maps.london.gov.uk/brownfield-site-register,0.04,Unkown Ownership,,permissioned,,,,9,,,,,2017-12-31,2017-12-31,,,
,,,,,,,,,,,,,,,,,,,http://opendatacommunities.org/id/london-borough-council/hillingdon,London Borough of Hillingdon,70877/APP/2017/1652,"Former Site of Southside, Honeycroft Hill, Uxbridge, UB10 9NH",-0.470114,51.547363,https://maps.london.gov.uk/brownfield-site-register,0.25,Unkown Ownership,,permissioned,,,,7,,,,,2017-12-31,2017-12-31,,,
,,,,,,,,,,,,,,,,,,,http://opendatacommunities.org/id/london-borough-council/hillingdon,London Borough of Hillingdon,70376/APP/2015/3764,"Chambers Business Park, Sipson Road, West Drayton, UB7 0HX",-0.454794,51.488003,https://maps.london.gov.uk/brownfield-site-register,0.43,Unkown Ownership,,permissioned,,,,7,,,,,2017-12-31,2017-12-31,,,
,,,,,,,,,,,,,,,,,,,http://opendatacommunities.org/id/london-borough-council/hillingdon,London Borough of Hillingdon,1711/APP/2016/1469,"50-52 High Street, Northwood, HA6 1BL",-0.416153,51.606747,https://maps.london.gov.uk/brownfield-site-register,0.05,Unkown Ownership,,permissioned,,,,3,,,,,2017-12-31,2017-12-31,,,
,,,,,,,,,,,,,,,,,,,http://opendatacommunities.org/id/london-borough-council/hillingdon,London Borough of Hillingdon,12571/APP/2015/3649,"U shaped ext NW of Harefield Place, The Drive, Ickenham, UB10 8AQ",-0.470141,51.566778,https://maps.london.gov.uk/brownfield-site-register,0.24,Unkown Ownership,,permissioned,,,,25,,,,,2017-12-31,2017-12-31,,,
,,,,,,,,,,,,,,,,,,,http://opendatacommunities.org/id/london-borough-council/hillingdon,London Borough of Hillingdon,1803/APP/2016/3764,"Victory House, 8-12 Lees Parade, Uxbridge Road, Hillingdon, UB10 0PQ",-0.449465,51.530669,https://maps.london.gov.uk/brownfield-site-register,0.09,Unkown Ownership,,permissioned,,,,6,,,,,2017-12-31,2017-12-31,,,
,,,,,,,,,,,,,,,,,,,http://opendatacommunities.org/id/london-borough-council/hillingdon,London Borough of Hillingdon,24043/APP/2016/3069,"37 The Drive, Ickenham, UB10 8AF",-0.470889,51.562714,https://maps.london.gov.uk/brownfield-site-register,0.33,Unkown Ownership,,permissioned,,,,7,,,,,2017-12-31,2017-12-31,,,
,,,,,,,,,,,,,,,,,,,http://opendatacommunities.org/id/london-borough-council/hillingdon,London Borough of Hillingdon,32215/APP/2016/4037,"Securitas House (formerly Lovell House), 271 High Street, Uxbridge, UB8 1LQ",-0.476501,51.544446,https://maps.london.gov.uk/brownfield-site-register,0.13,Unkown Ownership,,permissioned,,,,38,,,,,2017-12-31,2017-12-31,,,
,,,,,,,,,,,,,,,,,,,http://opendatacommunities.org/id/london-borough-council/hillingdon,London Borough of Hillingdon,72234/APP/2016/3531,"Q3 House, Mondial Way, Harlington, UB3 5AR",-0.443747,51.481752,https://maps.london.gov.uk/brownfield-site-register,0.25,Unkown Ownership,,permissioned,,,,42,,,,,2017-12-31,2017-12-31,,,
,,,,,,,,,,,,,,,,,,,http://opendatacommunities.org/id/london-borough-council/hillingdon,London Borough of Hillingdon,72309/APP/2016/3899,"Land at the rear of 113 - 127 Moorfield Road, Cowley, UB8 3SH",-0.476354,51.521591,https://maps.london.gov.uk/brownfield-site-register,0.12,Owned by a public authority,,permissioned,,,,5,,,,,2017-12-31,2017-12-31,,,
,,,,,,,,,,,,,,,,,,,http://opendatacommunities.org/id/london-borough-council/hillingdon,London Borough of Hillingdon,71923/APP/2016/3622,"Tavistock House, 5 Rockingham Road, Uxbridge, UB8 2UB",-0.487425,51.544018,https://maps.london.gov.uk/brownfield-site-register,0.09,Unkown Ownership,,permissioned,,,,16,,,,,2017-12-31,2017-12-31,,,
,,,,,,,,,,,,,,,,,,,http://opendatacommunities.org/id/london-borough-council/hillingdon,London Borough of Hillingdon,59314/APP/2016/2898,"91-93 Falling Lane, West Drayton, UB7 8AD",-0.468594,51.517447,https://maps.london.gov.uk/brownfield-site-register,0.08,Unkown Ownership,,permissioned,,,,6,,,,,2017-12-31,2017-12-31,,,
,,,,,,,,,,,,,,,,,,,http://opendatacommunities.org/id/london-borough-council/hillingdon,London Borough of Hillingdon,7796/APP/2016/2758,"107 West Drayton Road, Uxbridge, UB8 3LE",-0.446814,51.52269,https://maps.london.gov.uk/brownfield-site-register,0.06,Unkown Ownership,,permissioned,,,,4,,,,,2017-12-31,2017-12-31,,,
,,,,,,,,,,,,,,,,,,,http://opendatacommunities.org/id/london-borough-council/hillingdon,London Borough of Hillingdon,63502/APP/2016/3227,"Harefield House, High Street, Harefield, UB9 6RH",-0.482329,51.602703,https://maps.london.gov.uk/brownfield-site-register,0.46,Unkown Ownership,,permissioned,,,,9,,,,,2017-12-31,2017-12-31,,,
,,,,,,,,,,,,,,,,,,,http://opendatacommunities.org/id/london-borough-council/hillingdon,London Borough of Hillingdon,8396/APP/2016/777,"Tommy Flynns, Sutton Court Road, Hillingdon, UB10 9HR",-0.448153,51.540595,https://maps.london.gov.uk/brownfield-site-register,0.25,Unkown Ownership,,permissioned,,,,26,,,,,2017-12-31,2017-12-31,,,
,,,,,,,,,,,,,,,,,,,http://opendatacommunities.org/id/london-borough-council/hillingdon,London Borough of Hillingdon,584/APP/2016/2331,"53 Long Drive, Ruislip, HA4 0HN",-0.395188,51.557777,https://maps.london.gov.uk/brownfield-site-register,0.07,Unkown Ownership,,permissioned,,,,5,,,,,2017-12-31,2017-12-31,,,
,,,,,,,,,,,,,,,,,,,http://opendatacommunities.org/id/london-borough-council/hillingdon,London Borough of Hillingdon,72229/APP/2016/4186,"13 & 13A The Drive, Ickenham, UB10 8AF",-0.471081,51.560308,https://maps.london.gov.uk/brownfield-site-register,0.17,Unkown Ownership,,permissioned,,,,4,,,,,2017-12-31,2017-12-31,,,
,,,,,,,,,,,,,,,,,,,http://opendatacommunities.org/id/london-borough-council/hillingdon,London Borough of Hillingdon,72408/APP/2017/3021,"Building 2, Status Drive, Heathrow, UB3 5EY",-0.430041,51.481057,https://maps.london.gov.uk/brownfield-site-register,0.14,Unkown Ownership,,permissioned,,,,46,,,,,2017-12-31,2017-12-31,,,
,,,,,,,,,,,,,,,,,,,http://opendatacommunities.org/id/london-borough-council/hillingdon,London Borough of Hillingdon,12504/APP/2016/4179,"92 Pield Heath Road, Hillingdon, UB8 3NJ",-0.458836,51.526098,https://maps.london.gov.uk/brownfield-site-register,0.03,Unkown Ownership,,permissioned,,,,6,,,,,2017-12-31,2017-12-31,,,
,,,,,,,,,,,,,,,,,,,http://opendatacommunities.org/id/london-borough-council/hillingdon,London Borough of Hillingdon,10215/APP/2016/1443,"219 Swakeleys Road, Ickenham, UB10 8DP",-0.465319,51.562627,https://maps.london.gov.uk/brownfield-site-register,0.08,Unkown Ownership,,permissioned,,,,5,,,,,2017-12-31,2017-12-31,,,
,,,,,,,,,,,,,,,,,,,http://opendatacommunities.org/id/london-borough-council/hillingdon,London Borough of Hillingdon,43016/APP/2016/2840,"Waterloo Wharf, Waterloo Road, Uxbridge, UB8 2QX",-0.487609,51.543114,https://maps.london.gov.uk/brownfield-site-register,0.36,Unkown Ownership,,permissioned,,,,52,,,,,2017-12-31,2017-12-31,,,
,,,,,,,,,,,,,,,,,,,http://opendatacommunities.org/id/london-borough-council/hillingdon,London Borough of Hillingdon,12768/APP/2016/1580,"Former West Drayton Police Station, Station Road, West Drayton, UB7 7JQ",-0.467708,51.502872,https://maps.london.gov.uk/brownfield-site-register,0.64,Unkown Ownership,,permissioned,,,,53,,,,,2017-12-31,2017-12-31,,,
,,,,,,,,,,,,,,,,,,,http://opendatacommunities.org/id/london-borough-council/hillingdon,London Borough of Hillingdon,45516/APP/2017/434,"Mondial House, 5 Mondial Way,  Harlington, UB3 5AR",-0.442806,51.481897,https://maps.london.gov.uk/brownfield-site-register,0.19,Unkown Ownership,,permissioned,,,,16,,,,,2017-12-31,2017-12-31,,,
,,,,,,,,,,,,,,,,,,,http://opendatacommunities.org/id/london-borough-council/hillingdon,London Borough of Hillingdon,43151/APP/2017/323,"800-806 Wadsworth Business Centre, 21 Wadsworth Road, UB6 7LQ Hayes",-0.415748,51.521197,https://maps.london.gov.uk/brownfield-site-register,0.18,Unkown Ownership,,permissioned,,,,6,,,,,2017-12-31,2017-12-31,,,
,,,,,,,,,,,,,,,,,,,http://opendatacommunities.org/id/london-borough-council/hillingdon,London Borough of Hillingdon,22635/APP/2016/3277,"The Red Cow PH, 70 High Street, Yiewsley, UB7 7DS",-0.472093,51.512353,https://maps.london.gov.uk/brownfield-site-register,0.06,Unkown Ownership,,permissioned,,,,5,,,,,2017-12-31,2017-12-31,,,
,,,,,,,,,,,,,,,,,,,http://opendatacommunities.org/id/london-borough-council/hillingdon,London Borough of Hillingdon,19365/APP/2017/188,"Audit House, 260 Field End Road, Eastcote, HA4 9NB",-0.397702,51.575734,https://maps.london.gov.uk/brownfield-site-register,0.16,Unkown Ownership,,permissioned,,,,35,,,,,2017-12-31,2017-12-31,,,
,,,,,,,,,,,,,,,,,,,http://opendatacommunities.org/id/london-borough-council/hillingdon,London Borough of Hillingdon,45200/APP/2017/327,"Padcroft Works, Tavistock Road, Yiewsley, UB7 7RQ",-0.474821,51.51089,https://maps.london.gov.uk/brownfield-site-register,1.18,Unkown Ownership,,permissioned,,,,315,,,,,2017-12-31,2017-12-31,,,
,,,,,,,,,,,,,,,,,,,http://opendatacommunities.org/id/london-borough-council/hillingdon,London Borough of Hillingdon,71337/APP/2016/3869,"82-84 Otterfield Road, West Drayton, UB7 8PF",-0.4699,51.516161,https://maps.london.gov.uk/brownfield-site-register,0.12,Unkown Ownership,,permissioned,,,,6,,,,,2017-12-31,2017-12-31,,,
,,,,,,,,,,,,,,,,,,,http://opendatacommunities.org/id/london-borough-council/hillingdon,London Borough of Hillingdon,63937/APP/2016/1895,"28 Nicholas Way, Northwood, HA6 2TT",-0.440179,51.604966,https://maps.london.gov.uk/brownfield-site-register,0.36,Unkown Ownership,,permissioned,,,,0,,,,,2017-12-31,2017-12-31,,,
,,,,,,,,,,,,,,,,,,,http://opendatacommunities.org/id/london-borough-council/hillingdon,London Borough of Hillingdon,46616/APP/2017/1362,"Building 4, Status Drive, Heathrow, UB3 5EY",-0.429209,51.481945,https://maps.london.gov.uk/brownfield-site-register,0.09,Unkown Ownership,,permissioned,,,,45,,,,,2017-12-31,2017-12-31,,,
,,,,,,,,,,,,,,,,,,,http://opendatacommunities.org/id/london-borough-council/hillingdon,London Borough of Hillingdon,69183/APP/2017/1363,"Building 3, Status Drive, Heathrow, UB3 5EY",-0.429573,51.481497,https://maps.london.gov.uk/brownfield-site-register,0.08,Unkown Ownership,,permissioned,,,,36,,,,,2017-12-31,2017-12-31,,,
,,,,,,,,,,,,,,,,,,,http://opendatacommunities.org/id/london-borough-council/hillingdon,London Borough of Hillingdon,3894/APP/2017/1314,"Canada House, 272 Field End Road, Ruislip, HA4 9NA",-0.397753,51.575254,https://maps.london.gov.uk/brownfield-site-register,0.20,Unkown Ownership,,permissioned,,,,34,,,,,2017-12-31,2017-12-31,,,
,,,,,,,,,,,,,,,,,,,http://opendatacommunities.org/id/london-borough-council/hillingdon,London Borough of Hillingdon,2645/APP/2016/4571,"8 Linksway, Northwood, HA6 2XB",-0.436145,51.607409,https://maps.london.gov.uk/brownfield-site-register,0.30,Unkown Ownership,,permissioned,,,,0,,,,,2017-12-31,2017-12-31,,,
,,,,,,,,,,,,,,,,,,,http://opendatacommunities.org/id/london-borough-council/hillingdon,London Borough of Hillingdon,4519/APP/2016/3619,"22 New Road, Hillingdon, UB8 3DX",-0.443295,51.52687,https://maps.london.gov.uk/brownfield-site-register,0.11,Unkown Ownership,,permissioned,,,,8,,,,,2017-12-31,2017-12-31,,,
,,,,,,,,,,,,,,,,,,,http://opendatacommunities.org/id/london-borough-council/hillingdon,London Borough of Hillingdon,26134/APP/2016/1987,"Fanuc House, Station Approach, Ruislip, HA4 8LF",-0.421106,51.572127,https://maps.london.gov.uk/brownfield-site-register,0.19,Unkown Ownership,,permissioned,,,,40,,,,,2017-12-31,2017-12-31,,,
,,,,,,,,,,,,,,,,,,,http://opendatacommunities.org/id/london-borough-council/hillingdon,London Borough of Hillingdon,57069/APP/2017/143,"15-17 High Road, Ickenham, UB10 8LE",-0.443172,51.565744,https://maps.london.gov.uk/brownfield-site-register,0.12,Unkown Ownership,,permissioned,,,,7,,,,,2017-12-31,2017-12-31,,,
,,,,,,,,,,,,,,,,,,,http://opendatacommunities.org/id/london-borough-council/hillingdon,London Borough of Hillingdon,12156/APP/2016/4647,"Fassnidge Memorial Hall, High Street, Uxbridge, UB8 1JP",-0.482103,51.54802,https://maps.london.gov.uk/brownfield-site-register,0.18,Unkown Ownership,,permissioned,,,,80,,,,,2017-12-31,2017-12-31,,,
,,,,,,,,,,,,,,,,,,,http://opendatacommunities.org/id/london-borough-council/hillingdon,London Borough of Hillingdon,71497/APP/2016/9,"1-3 Chapel Court, 126 Church Road, Hayes, UB3 2LW",-0.418459,51.516482,https://maps.london.gov.uk/brownfield-site-register,0.15,Unkown Ownership,,permissioned,,,,8,,,,,2017-12-31,2017-12-31,,,
,,,,,,,,,,,,,,,,,,,http://opendatacommunities.org/id/london-borough-council/hillingdon,London Borough of Hillingdon,2695/APP/2016/79,"18 Linksway, Northwood, HA6 2XB",-0.435748,51.605919,https://maps.london.gov.uk/brownfield-site-register,0.32,Unkown Ownership,,permissioned,,,,0,,,,,2017-12-31,2017-12-31,,,
,,,,,,,,,,,,,,,,,,,http://opendatacommunities.org/id/london-borough-council/hillingdon,London Borough of Hillingdon,70895/APP/2015/4349,"Land Rear Of Crescent Parade, Uxbridge Road, Hillingdon, UB10 0LG",-0.453613,51.533746,https://maps.london.gov.uk/brownfield-site-register,0.14,Unkown Ownership,,permissioned,,,,9,,,,,2017-12-31,2017-12-31,,,
,,,,,,,,,,,,,,,,,,,http://opendatacommunities.org/id/london-borough-council/hillingdon,London Borough of Hillingdon,17502/APP/2015/3239,"Transport House, Uxbridge Road, Hillingdon, UB10 0LY",-0.445293,51.529501,https://maps.london.gov.uk/brownfield-site-register,0.07,Unkown Ownership,,permissioned,,,,12,,,,,2017-12-31,2017-12-31,,,
,,,,,,,,,,,,,,,,,,,http://opendatacommunities.org/id/london-borough-council/hillingdon,London Borough of Hillingdon,42570/APP/2015/2790,"Astral House, The Runway, Ruislip, HA4 6SE",-0.399638,51.556821,https://maps.london.gov.uk/brownfield-site-register,0.05,Unkown Ownership,,permissioned,,,,6,,,,,2017-12-31,2017-12-31,,,
,,,,,,,,,,,,,,,,,,,http://opendatacommunities.org/id/london-borough-council/hillingdon,London Borough of Hillingdon,3016/APP/2015/2420,"146 Field End Road, Eastcote, HA5 1RJ",-0.400007,51.578634,https://maps.london.gov.uk/brownfield-site-register,0.11,Unkown Ownership,,permissioned,,,,10,,,,,2017-12-31,2017-12-31,,,
,,,,,,,,,,,,,,,,,,,http://opendatacommunities.org/id/london-borough-council/hillingdon,London Borough of Hillingdon,65480/APP/2015/1862,"5 Station Road, West Drayton, UB7 7BT",0.472018,51.508916,https://maps.london.gov.uk/brownfield-site-register,0.26,Unkown Ownership,,permissioned,,,,38,,,,,2017-12-31,2017-12-31,,,
,,,,,,,,,,,,,,,,,,,http://opendatacommunities.org/id/london-borough-council/hillingdon,London Borough of Hillingdon,5564/APP/2015/3770,"The Broadway, 53-55 Joel Street, Northwood, HA6 1NZ",-0.408967,51.600683,https://maps.london.gov.uk/brownfield-site-register,0.14,Unkown Ownership,,permissioned,,,,10,,,,,2017-12-31,2017-12-31,,,
,,,,,,,,,,,,,,,,,,,http://opendatacommunities.org/id/london-borough-council/hillingdon,London Borough of Hillingdon,23710/APP/2014/4376,"34 Poll Hill Road, Hillingdon, UB10 0QA",-0.444539,51.530872,https://maps.london.gov.uk/brownfield-site-register,0.04,Unkown Ownership,,permissioned,,,,4,,,,,2017-12-31,2017-12-31,,,
,,,,,,,,,,,,,,,,,,,http://opendatacommunities.org/id/london-borough-council/hillingdon,London Borough of Hillingdon,43495/APP/2016/510,"Weir House, 50 Riverside Way, Uxbridge, UB8 2YF",-0.488518,51.544818,https://maps.london.gov.uk/brownfield-site-register,0.28,Unkown Ownership,,permissioned,,,,14,,,,,2017-12-31,2017-12-31,,,
,,,,,,,,,,,,,,,,,,,http://opendatacommunities.org/id/london-borough-council/hillingdon,London Borough of Hillingdon,26315/APP/2015/929,"366-370 Uxbridge Road, Hayes, UB4 0SE",-0.407033,51.518063,https://maps.london.gov.uk/brownfield-site-register,0.02,Unkown Ownership,,permissioned,,,,6,,,,,2017-12-31,2017-12-31,,,
,,,,,,,,,,,,,,,,,,,http://opendatacommunities.org/id/london-borough-council/hillingdon,London Borough of Hillingdon,2342/APP/2015/624,"Eagle House, The Runway, HA4 6SE",-0.40111,51.557334,https://maps.london.gov.uk/brownfield-site-register,0.20,Unkown Ownership,,permissioned,,,,22,,,,,2017-12-31,2017-12-31,,,
,,,,,,,,,,,,,,,,,,,http://opendatacommunities.org/id/london-borough-council/hillingdon,London Borough of Hillingdon,38402/APP/2007/1072,"RAF West Ruislip, High Road, Ickenham, UB10",-0.438962,51.568259,https://maps.london.gov.uk/brownfield-site-register,8.59,Unkown Ownership,,permissioned,,,,415,,,,,2017-12-31,2017-12-31,,,
,,,,,,,,,,,,,,,,,,,http://opendatacommunities.org/id/london-borough-council/hillingdon,London Borough of Hillingdon,585/APP/2009/2752,"St Andrews Park, Hillingdon Road, Uxbridge, UB10 0RZ",-0.468693,51.542171,https://maps.london.gov.uk/brownfield-site-register,46.34,Unkown Ownership,,permissioned,,,,1373,,,,,2017-12-31,2017-12-31,,,
,,,,,,,,,,,,,,,,,,,http://opendatacommunities.org/id/london-borough-council/hillingdon,London Borough of Hillingdon,59872/APP/2012/1838,"The Old Vinyl Factory, Blyth Road, Hayes, UB3 1BW",-0.428187,51.504803,https://maps.london.gov.uk/brownfield-site-register,5.17,Unkown Ownership,,permissioned,,,,510,,,,,2017-12-31,2017-12-31,,,
,,,,,,,,,,,,,,,,,,,http://opendatacommunities.org/id/london-borough-council/hillingdon,London Borough of Hillingdon,1425/APP/2011/3040,"20-30 Blyth Road, Hayes, UB3 1BY",-0.421348,51.503526,https://maps.london.gov.uk/brownfield-site-register,0.34,Unkown Ownership,,permissioned,,,,120,,,,,2017-12-31,2017-12-31,,,
,,,,,,,,,,,,,,,,,,,http://opendatacommunities.org/id/london-borough-council/hillingdon,London Borough of Hillingdon,11623/APP/2013/3606,"Enterprise House, 133 Blyth Road, Hayes, UB3 1DD",-0.425681,51.504901,https://maps.london.gov.uk/brownfield-site-register,0.63,Unkown Ownership,,permissioned,,,,96,,,,,2017-12-31,2017-12-31,,,
,,,,,,,,,,,,,,,,,,,http://opendatacommunities.org/id/london-borough-council/hillingdon,London Borough of Hillingdon,38058/APP/2013/1756,"Rainbow and Kirby Industrial Estate, Trout Road, Yiewsley, UB7 7XT",-0.47548,51.513744,https://maps.london.gov.uk/brownfield-site-register,2.26,Unkown Ownership,,permissioned,,,,149,,,,,2017-12-31,2017-12-31,,,
,,,,,,,,,,,,,,,,,,,http://opendatacommunities.org/id/london-borough-council/hillingdon,London Borough of Hillingdon,6616/APP/2013/1789,"Land to the rear of 122, High Street, Uxbridge, UB8 1JT",-0.480882,51.548601,https://maps.london.gov.uk/brownfield-site-register,0.06,Unkown Ownership,,permissioned,,,,5,,,,,2017-12-31,2017-12-31,,,
,,,,,,,,,,,,,,,,,,,http://opendatacommunities.org/id/london-borough-council/hillingdon,London Borough of Hillingdon,10954/APP/2011/1997,"The Kings Arm PH, 109 Coldharbour Lane, Hayes, UB3 3EG",-0.414988,51.510175,https://maps.london.gov.uk/brownfield-site-register,0.16,Unkown Ownership,,permissioned,,,,21,,,,,2017-12-31,2017-12-31,,,
,,,,,,,,,,,,,,,,,,,http://opendatacommunities.org/id/london-borough-council/hillingdon,London Borough of Hillingdon,SA5(a),"SA 5(a): Land South of the Railway, Hayes, Botwell",-0.415152,51.500773,https://maps.london.gov.uk/brownfield-site-register,11.89,Unkown Ownership,,not permissioned,,,,500,,,,,2017-12-31,2017-12-31,,,
,,,,,,,,,,,,,,,,,,,http://opendatacommunities.org/id/london-borough-council/hillingdon,London Borough of Hillingdon,SA36,"SA 36: Hayes Bridge, Uxbridge Road",-0.390603,51.513911,https://maps.london.gov.uk/brownfield-site-register,0.77,Unkown Ownership,,not permissioned,,,,40,,,,,2017-12-31,2017-12-31,,,
,,,,,,,,,,,,,,,,,,,http://opendatacommunities.org/id/london-borough-council/hillingdon,London Borough of Hillingdon,SA14(b),"SA 14(b): Hillingdon Circus and Master Brewer, Hillingdon, Uxbridge North",-0.446884,51.552739,https://maps.london.gov.uk/brownfield-site-register,3.48,Unkown Ownership,,not permissioned,,,,125,,,,,2017-12-31,2017-12-31,,,
,,,,,,,,,,,,,,,,,,,http://opendatacommunities.org/id/london-borough-council/hillingdon,London Borough of Hillingdon,SA14(a),"SA 14(a): Hillingdon Circus and Master Brewer, Hillingdon, Uxbridge North",-0.450169,51.553149,https://maps.london.gov.uk/brownfield-site-register,2.00,Unkown Ownership,,not permissioned,,,,125,,,,,2017-12-31,2017-12-31,,,
,,,,,,,,,,,,,,,,,,,http://opendatacommunities.org/id/london-borough-council/hillingdon,London Borough of Hillingdon,SA16,"SA 16: Northwood Station, Green Lane, Northwood",-0.422774,51.610069,https://maps.london.gov.uk/brownfield-site-register,1.21,Unkown Ownership,,not permissioned,,,,0,,,,,2017-12-31,2017-12-31,,,
,,,,,,,,,,,,,,,,,,,http://opendatacommunities.org/id/london-borough-council/hillingdon,London Borough of Hillingdon,SA26,"SA 26: 148-54 High Street / 25-30 Bakers Street, Uxbridge",-0.479017,51.546806,https://maps.london.gov.uk/brownfield-site-register,0.66,Unkown Ownership,,not permissioned,,,,0,,,,,2017-12-31,2017-12-31,,,
,,,,,,,,,,,,,,,,,,,http://opendatacommunities.org/id/london-borough-council/hillingdon,London Borough of Hillingdon,SA5(b),"SA 5(b): Land South of the Railway, Hayes, Botwell",-0.418525,51.50189,https://maps.london.gov.uk/brownfield-site-register,1.40,Unkown Ownership,,not permissioned,,,,97,,,,,2017-12-31,2017-12-31,,,
,,,,,,,,,,,,,,,,,,,http://opendatacommunities.org/id/london-borough-council/hillingdon,London Borough of Hillingdon,SA3(bi),"SA 3(bi): Eastern End of Blyth Road, Hayes, Botwell",-0.422543,51.503506,https://maps.london.gov.uk/brownfield-site-register,0.36,Unkown Ownership,,not permissioned,,,,93,,,,,2017-12-31,2017-12-31,,,
,,,,,,,,,,,,,,,,,,,http://opendatacommunities.org/id/london-borough-council/hillingdon,London Borough of Hillingdon,SA15,"SA 15: Royal Mail Sorting Office, Park Way, Manor",-0.412105,51.574492,https://maps.london.gov.uk/brownfield-site-register,0.26,Unkown Ownership,,not permissioned,,,,22,,,,,2017-12-31,2017-12-31,,,
,,,,,,,,,,,,,,,,,,,http://opendatacommunities.org/id/london-borough-council/hillingdon,London Borough of Hillingdon,11891/APP/2016/3583,"Bourne Court, South Ruislip, HA4 6SW",-0.401007,51.556316,https://maps.london.gov.uk/brownfield-site-register,0.73,Owned by a public authority,,permissioned,,,,69,,,,,2017-12-31,2017-12-31,,,
,,,,,,,,,,,,,,,,,,,http://opendatacommunities.org/id/london-borough-council/hillingdon,London Borough of Hillingdon,SA25,"SA 25: Long Lane, Hillingdon, Uxbridge North",-0.450098,51.551008,https://maps.london.gov.uk/brownfield-site-register,0.26,Unkown Ownership,,not permissioned,,,,25,,,,,2017-12-31,2017-12-31,,,
,,,,,,,,,,,,,,,,,,,http://opendatacommunities.org/id/london-borough-council/hillingdon,London Borough of Hillingdon,SA18,"SA 18: West End Road, South Ruislip",-0.404981,51.553831,https://maps.london.gov.uk/brownfield-site-register,0.76,Unkown Ownership,,not permissioned,,,,30,,,,,2017-12-31,2017-12-31,,,
,,,,,,,,,,,,,,,,,,,http://opendatacommunities.org/id/london-borough-council/hillingdon,London Borough of Hillingdon,SA24,"SA 24: Benlow Works, Silverdale Road, Hayes, Botwell",-0.414888,51.503981,https://maps.london.gov.uk/brownfield-site-register,0.47,Unkown Ownership,,not permissioned,,,,0,,,,,2017-12-31,2017-12-31,,,
,,,,,,,,,,,,,,,,,,,http://opendatacommunities.org/id/london-borough-council/hillingdon,London Borough of Hillingdon,SA11,"SA 11: Charles Wilson Engineers, Uxbridge Road, Charville",-0.436821,51.526365,https://maps.london.gov.uk/brownfield-site-register,0.84,Unkown Ownership,,not permissioned,,,,34,,,,,2017-12-31,2017-12-31,,,
,,,,,,,,,,,,,,,,,,,http://opendatacommunities.org/id/london-borough-council/hillingdon,London Borough of Hillingdon,SA29,"SA 29: Cape Boards Site, Iver Lane, Uxbridge South",-0.488121,51.531276,https://maps.london.gov.uk/brownfield-site-register,8.23,Unkown Ownership,,not permissioned,,,,315,,,,,2017-12-31,2017-12-31,,,
,,,,,,,,,,,,,,,,,,,http://opendatacommunities.org/id/london-borough-council/hillingdon,London Borough of Hillingdon,SA35,"SA 35: Former Vehicle Testing Station, Cygnet Way, Yeading",-0.390297,51.523345,https://maps.london.gov.uk/brownfield-site-register,1.69,Unkown Ownership,,not permissioned,,,,84,,,,,2017-12-31,2017-12-31,,,
,,,,,,,,,,,,,,,,,,,http://opendatacommunities.org/id/london-borough-council/hillingdon,London Borough of Hillingdon,SA4,"SA 4: Fairview Business Centre, Hayes, Botwell",-0.422746,51.505386,https://maps.london.gov.uk/brownfield-site-register,1.41,Unkown Ownership,,not permissioned,,,,119,,,,,2017-12-31,2017-12-31,,,
,,,,,,,,,,,,,,,,,,,http://opendatacommunities.org/id/london-borough-council/hillingdon,London Borough of Hillingdon,SA5(c),"SA 5(c): Land South of the Railway, Hayes, Botwell",-0.420557,51.502002,https://maps.london.gov.uk/brownfield-site-register,2.11,Unkown Ownership,,not permissioned,,,,110,,,,,2017-12-31,2017-12-31,,,
,,,,,,,,,,,,,,,,,,,http://opendatacommunities.org/id/london-borough-council/hillingdon,London Borough of Hillingdon,SA37,"SA 37: Former Coal Depot, Tavistock Road, Yiewsley",-0.481765,51.511019,https://maps.london.gov.uk/brownfield-site-register,4.88,Unkown Ownership,,not permissioned,,,,168,,,,,2017-12-31,2017-12-31,,,
,,,,,,,,,,,,,,,,,,,http://opendatacommunities.org/id/london-borough-council/hillingdon,London Borough of Hillingdon,SA27,SA 27: St Andrew's Park - Annington Homes Site,-0.470528,51.54538,https://maps.london.gov.uk/brownfield-site-register,3.09,Unkown Ownership,,not permissioned,,,,120,,,,,2017-12-31,2017-12-31,,,
,,,,,,,,,,,,,,,,,,,http://opendatacommunities.org/id/london-borough-council/hillingdon,London Borough of Hillingdon,SA22,"SA 22: Chailey Industrial Estate, Pump Lane, Botwell",-0.414898,51.505468,https://maps.london.gov.uk/brownfield-site-register,1.79,Unkown Ownership,,not permissioned,,,,198,,,,,2017-12-31,2017-12-31,,,
,,,,,,,,,,,,,,,,,,,http://opendatacommunities.org/id/london-borough-council/hillingdon,London Borough of Hillingdon,SA23,"SA 23: Silverdale Road/Western View, Hayes, Botwell",-0.417497,51.504382,https://maps.london.gov.uk/brownfield-site-register,1.38,Unkown Ownership,,not permissioned,,,,141,,,,,2017-12-31,2017-12-31,,,
,,,,,,,,,,,,,,,,,,,http://opendatacommunities.org/id/london-borough-council/hillingdon,London Borough of Hillingdon,SA8,"SA 8: Olympic House, 1a Grove Lane",-0.462234,51.527426,https://maps.london.gov.uk/brownfield-site-register,0.18,Unkown Ownership,,not permissioned,,,,9,,,,,2017-12-31,2017-12-31,,,
