address,address-text,deliverable,end-date,entry-date,hazardous-substances,hectares,latitude,longitude,maximum-net-dwellings,minimum-net-dwellings,notes,organisation,ownership-status,planning-permission-date,planning-permission-history,planning-permission-status,planning-permission-type,site,OrganisationURI,OrganisationLabel,SiteReference,SiteNameAddress,GeoX,GeoY,SiteplanURL,Hectares,OwnershipStatus,HazardousSubstances,PlanningStatus,PermissionType,PermissionDate,PlanningHistory,MinNetDwellings,NetDwellingsRangeFrom,NetDwellingsRangeTo,Deliverable,Notes,FirstAddedDate,LastUpdatedDate,EndDate,site-plan-url,start-date
,,,,,,,,,,,,,,,,,,,http://opendatacommunities.org/id/district-council/hart,Hart District Council,15/01603/FUL,"Landata House, Station Road, Hook",-0.961103,51.278094,https://publicaccess.hart.gov.uk/online-applications/,0.55,not owned by a public authority,,permissioned,,,,78,,,,,2017-12-22,2017-12-22,,,
,,,,,,,,,,,,,,,,,,,http://opendatacommunities.org/id/district-council/hart,Hart District Council,16/03378/FUL,"Bartley House, Station Road, Hook",-0.96069,51.277317,https://publicaccess.hart.gov.uk/online-applications/,0.6,not owned by a public authority,,permissioned,,,,102,,,,,2017-12-22,2018-12-20,,,
,,,,,,,,,,,,,,,,,,,http://opendatacommunities.org/id/district-council/hart,Hart District Council,16/00883/PRIOR 17/02465/FUL,"Providence House, 2 Bartley Way, Hook",-0.917354,51.28749,https://publicaccess.hart.gov.uk/online-applications/,1.69,not owned by a public authority,,permissioned,,,,109,,,,78 dwellings completed at 1 April 2018,2017-12-22,2018-12-20,,,
,,,,,,,,,,,,,,,,,,,http://opendatacommunities.org/id/district-council/hart,Hart District Council,13/00720/MAJOR,"Winchfield Lodge, Old Potbridge Road",-0.917354,51.28749,https://publicaccess.hart.gov.uk/online-applications/,0.98,not owned by a public authority,,permissioned,,,,16,,,,,2017-12-22,2017-12-22,,,
,,,,,,,,,,,,,,,,,,,http://opendatacommunities.org/id/district-council/hart,Hart District Council,13/01215/MAJOR,"Lamb Hotel, High Street, Hartley Wintney",-0.899212,51.307383,https://publicaccess.hart.gov.uk/online-applications/,0.25,not owned by a public authority,,permissioned,,,,11,,,,,2017-12-22,2017-12-22,,,
,,,,,,,,,,,,,,,,,,,http://opendatacommunities.org/id/district-council/hart,Hart District Council,15/01083/FUL,"Rose Court, Rye Common Lane",-0.878382,51.246721,https://publicaccess.hart.gov.uk/online-applications/,0.3,not owned by a public authority,,permissioned,,,,14,,,,,2017-12-22,2017-12-22,,,
,,,,,,,,,,,,,,,,,,,http://opendatacommunities.org/id/district-council/hart,Hart District Council,15/00276/REM,"Land rear of 102-108 Fleet Road, Fleet",-0.840724,51.2828,https://publicaccess.hart.gov.uk/online-applications/,0.09,not owned by a public authority,,permissioned,,,,12,,,,,2017-12-22,2017-12-22,,,
,,,,,,,,,,,,,,,,,,,http://opendatacommunities.org/id/district-council/hart,Hart District Council,15/01540/FUL,"Pioneer House, Unit 2 Fleetwood Park, Barley Way, Fleet",-0.831667,51.298456,https://publicaccess.hart.gov.uk/online-applications/,0.48,not owned by a public authority,,permissioned,,,,33,,,,,2017-12-22,2017-12-22,,,
,,,,,,,,,,,,,,,,,,,http://opendatacommunities.org/id/district-council/hart,Hart District Council,16/01441/FUL,"Oak House, Harvest Crescent, Fleet",-0.82585,51.298164,https://publicaccess.hart.gov.uk/online-applications/,0.61,not owned by a public authority,,permissioned,,,,14,,,,,2017-12-22,2017-12-22,,,
,,,,,,,,,,,,,,,,,,,http://opendatacommunities.org/id/district-council/hart,Hart District Council,16/01445/PRIOR,"Oak House, Harvest Crescent, Fleet",-0.82585,51.298164,https://publicaccess.hart.gov.uk/online-applications/,0.61,not owned by a public authority,,permissioned,,,,31,,,,,2017-12-22,2017-12-22,,,
,,,,,,,,,,,,,,,,,,,http://opendatacommunities.org/id/district-council/hart,Hart District Council,16/03072/PRIOR,"White Hart House, London Road, Hook",-0.777384,51.331569,https://publicaccess.hart.gov.uk/online-applications/,0.16,not owned by a public authority,,permissioned,,,,18,,,,,2017-12-22,2017-12-22,,,
,,,,,,,,,,,,,,,,,,,http://opendatacommunities.org/id/district-council/hart,Hart District Council,17/00530/FUL,"White Hart House, London Road",-0.777384,51.331569,https://publicaccess.hart.gov.uk/online-applications/,0.16,not owned by a public authority,,permissioned,,,,5,,,,,2017-12-22,2017-12-22,,,
,,,,,,,,,,,,,,,,,,,http://opendatacommunities.org/id/district-council/hart,Hart District Council,17/01111/FUL,"Land to the rear of Acorn House, Elms Road, Hook",-0.962391,51.283276,https://publicaccess.hart.gov.uk/online-applications/,0.18,not owned by a public authority,,permissioned,,,,5,,,,,2017-12-22,2017-12-22,,,
,,,,,,,,,,,,,,,,,,,http://opendatacommunities.org/id/district-council/hart,Hart District Council,15/00230/FUL,"Fleet Autos, St James Road, Fleet",-0.845712,51.277732,https://publicaccess.hart.gov.uk/online-applications/,0.05,not owned by a public authority,,permissioned,,,,5,,,,,2017-12-22,2017-12-22,,,
,,,,,,,,,,,,,,,,,,,http://opendatacommunities.org/id/district-council/hart,Hart District Council,15/02977/FUL,"Clare Park Private Retirement Residences Ltd, Clare Park",-0.846304,51.224315,https://publicaccess.hart.gov.uk/online-applications/,2.15,not owned by a public authority,,permissioned,,,,5,,,,,2017-12-22,2018-12-20,,,
,,,,,,,,,,,,,,,,,,,http://opendatacommunities.org/id/district-council/hart,Hart District Council,14/02454/PNDW,"Branksome Chambers, Branksomewood Road, Fleet",-0.843116,51.281214,https://publicaccess.hart.gov.uk/online-applications/,0.08,not owned by a public authority,,permissioned,,,,5,,,,,2017-12-22,2017-12-22,,,
,,,,,,,,,,,,,,,,,,,http://opendatacommunities.org/id/district-council/hart,Hart District Council,17/00244/PRIOR,"Silvergate Redfields Industrial Park, Fleet",-0.849139,51.252444,https://publicaccess.hart.gov.uk/online-applications/,0.45,not owned by a public authority,,permissioned,,,,44,,,,Scheme has no SANG mitigation and therefore can not be considered deliverable. Site not included in housing trajectory.,2017-12-22,2018-12-20,,,
,,,,,,,,,,,,,,,,,,,http://opendatacommunities.org/id/district-council/hart,Hart District Council,17/02762/FUL,"144 Clarence Road, Fleet",-0.840953,51.279394,https://publicaccess.hart.gov.uk/online-applications/,0.05,not owned by a public authority,,permissioned,,,,5,,,,,2017-12-22,2017-12-22,,,
,,,,,,,,,,,,,,,,,,,http://opendatacommunities.org/id/district-council/hart,Hart District Council,17/02008/PRIOR 17/02010/PRIOR 17/02011/PRIOR,"Victoria House, 18-22 Albert Street, Fleet",-0.837735,51.28366,https://publicaccess.hart.gov.uk/online-applications/,0.1,not owned by a public authority,,permissioned,,,,12,,,,,2017-12-22,2018-12-20,,,
,,,,,,,,,,,,,,,,,,,http://opendatacommunities.org/id/district-council/hart,Hart District Council,17/01977/FUL 18/00649/PRIOR,"Lorica House, Lorica Consulting Ltd, Minley Road, Fleet",-0.830002,51.296227,https://publicaccess.hart.gov.uk/online-applications/,0.32,not owned by a public authority,,permissioned,,,,25,,,,,2017-12-22,2018-12-20,,,
,,,,,,,,,,,,,,,,,,,http://opendatacommunities.org/id/district-council/hart,Hart District Council,17/01978/FUL 18/00650/PRIOR,"Infineon House, Fleet Mill, Minley Road, Fleet",-0.830013,51.296919,https://publicaccess.hart.gov.uk/online-applications/,0.43,not owned by a public authority,,permissioned,,,,29,,,,,2017-12-22,2018-12-20,,,
,,,,,,,,,,,,,,,,,,,http://opendatacommunities.org/id/district-council/hart,Hart District Council,17/02118/PRIOR,"Zenith House, 3 Rye Close, Fleet",-0.824663,51.298611,https://publicaccess.hart.gov.uk/online-applications/,0.29,not owned by a public authority,,permissioned,,,,23,,,,Scheme has no SANG mitigation and therefore can not be considered deliverable. Site not included in housing trajectory.,2017-12-22,2018-12-20,,,
,,,,,,,,,,,,,,,,,,,http://opendatacommunities.org/id/district-council/hart,Hart District Council,17/00525/PRIOR 17/02652/PRIOR,"Vantage House, Meridian Office, Osborn Way, Hook",-0.959207,51.278869,https://publicaccess.hart.gov.uk/online-applications/,0.15,not owned by a public authority,,permissioned,,,,17,,,,Scheme has no SANG mitigation and therefore can not be considered deliverable. Site not included in housing trajectory.,2017-12-22,2018-12-20,,,
,,,,,,,,,,,,,,,,,,,http://opendatacommunities.org/id/district-council/hart,Hart District Council,18/00624/PRIOR,"Building 260-270 Bartley Wood, Bartley Wood Business Park, Bartley Way, Hook",-0.949967,51.278517,https://publicaccess.hart.gov.uk/online-applications/,2.15,not owned by a public authority,,permissioned,,,,116,,,,Scheme has no SANG mitigation and therefore can not be considered deliverable. Site not included in housing trajectory.,2017-12-22,2018-12-20,,,
,,,,,,,,,,,,,,,,,,,http://opendatacommunities.org/id/district-council/hart,Hart District Council,17/00771/FUL,"Sun Park, Guillemont Park North",-0.79307,51.305951,https://publicaccess.hart.gov.uk/online-applications/,12,not owned by a public authority,,permissioned,,,,313,,,,,2017-12-22,2018-12-20,,,
,,,,,,,,,,,,,,,,,,,http://opendatacommunities.org/id/district-council/hart,Hart District Council,17/02644/PRIOR,"Wimpey Homes Holdings Ltd, Stratfield House, Station Road, Hook",-0.962607,51.2813,https://publicaccess.hart.gov.uk/online-applications/,0.19,not owned by a public authority,,permissioned,,,,22,,,,Scheme has no SANG mitigation and therefore can not be considered deliverable. Site not included in housing trajectory.,2017-12-22,2018-12-20,,,
,,,,,,,,,,,,,,,,,,,http://opendatacommunities.org/id/district-council/hart,Hart District Council,18/00931/PRIOR,"125-147 Fleet Road, Fleet",-0.838514,51.283452,https://publicaccess.hart.gov.uk/online-applications/,0.59,not owned by a public authority,,permissioned,,,,30,,,,,2017-12-22,2018-12-20,,,
,,,,,,,,,,,,,,,,,,,http://opendatacommunities.org/id/district-council/hart,Hart District Council,17/00219/PRIOR,"Europa House, 5 Bartley Wood Business Park, Bartley Way, Hook",-0.955023,51.279398,https://publicaccess.hart.gov.uk/online-applications/,1.11,not owned by a public authority,,permissioned,,,,116,,,,Scheme has no SANG mitigation and therefore can not be considered deliverable. Site not included in housing trajectory.,2018-12-20,2018-12-20,,,
,,,,,,,,,,,,,,,,,,,http://opendatacommunities.org/id/district-council/hart,Hart District Council,17/02484/PRIOR,"Flagship House, Reading Road, Fleet",-0.846838,51.279128,https://publicaccess.hart.gov.uk/online-applications/,0.49,not owned by a public authority,,permissioned,,,,31,,,,Scheme has no SANG mitigation and therefore can not be considered deliverable. Site not included in housing trajectory.,2018-12-20,2018-12-20,,,
,,,,,,,,,,,,,,,,,,,http://opendatacommunities.org/id/district-council/hart,Hart District Council,16/02784/PRIOR,"110 Fleet Road, Fleet",-0.841032,51.282533,https://publicaccess.hart.gov.uk/online-applications/,0.11,not owned by a public authority,,permissioned,,,,15,,,,,2018-12-20,2018-12-20,,,
,,,,,,,,,,,,,,,,,,,http://opendatacommunities.org/id/district-council/hart,Hart District Council,16/02083/PRIOR,"Technology House, 1 Fleetwood Park, Barley Way, Fleet",-0.831302,51.298686,https://publicaccess.hart.gov.uk/online-applications/,0.5,not owned by a public authority,,permissioned,,,,43,,,,,2018-12-20,2018-12-20,,,
,,,,,,,,,,,,,,,,,,,http://opendatacommunities.org/id/district-council/hart,Hart District Council,16/01267/PRIOR 16/03332/FUL,"Fleet House, 3 Fleetwood Park, Barley Way, Fleet",-0.830492,51.297814,https://publicaccess.hart.gov.uk/online-applications/,0.77,not owned by a public authority,,permissioned,,,,60,,,,,2018-12-20,2018-12-20,,,
,,,,,,,,,,,,,,,,,,,http://opendatacommunities.org/id/district-council/hart,Hart District Council,16/01704/PRIOR,"Rosebank Parade, Plough Road, Yateley",-0.820929,51.341889,https://publicaccess.hart.gov.uk/online-applications/,0.11,not owned by a public authority,,permissioned,,,,11,,,,Scheme has no SANG mitigation and therefore can not be considered deliverable. Site not included in housing trajectory.,2018-12-20,2018-12-20,,,
,,,,,,,,,,,,,,,,,,,http://opendatacommunities.org/id/district-council/hart,Hart District Council,17/01912/FUL,"The Acorn, London Road, Hook",-0.96225,51.283158,https://publicaccess.hart.gov.uk/online-applications/,0.09,not owned by a public authority,,permissioned,,,,5,,,,,2018-12-20,2018-12-20,,,
,,,,,,,,,,,,,,,,,,,http://opendatacommunities.org/id/district-council/hart,Hart District Council,17/01793/FUL,"Shapley Ranch, London Road, Hook",-0.920967,51.291831,https://publicaccess.hart.gov.uk/online-applications/,0.37,not owned by a public authority,,permissioned,,,,7,,,,,2018-12-20,2018-12-20,,,
,,,,,,,,,,,,,,,,,,,http://opendatacommunities.org/id/district-council/hart,Hart District Council,17/00471/OUT,Hartland Park,-0.807055,51.283946,https://publicaccess.hart.gov.uk/online-applications/,56,not owned by a public authority,,permissioned,,,,1500,,,,,2017-12-22,2018-12-20,,,
,,,,,,,,,,,,,,,,,,,http://opendatacommunities.org/id/district-council/hart,Hart District Council,17/02501/FUL,"Queens Arms, Farnham Road",-0.833672,51.237508,https://publicaccess.hart.gov.uk/online-applications/,0.26,not owned by a public authority,,permissioned,,,,9,,,,,2018-12-20,2018-12-20,,,
,,,,,,,,,,,,,,,,,,,http://opendatacommunities.org/id/district-council/hart,Hart District Council,17/02492/FUL,"The Oakmede and the Millmede, Minley Road, Fleet",-0.829103,51.294571,https://publicaccess.hart.gov.uk/online-applications/,0.25,not owned by a public authority,,permissioned,,,,14,,,,,2018-12-20,2018-12-20,,,
,,,,,,,,,,,,,,,,,,,http://opendatacommunities.org/id/district-council/hart,Hart District Council,"SHL038 
18/00110/FUL","Rawlings, Hook",-0.961059,51.278768,https://publicaccess.hart.gov.uk/online-applications/,1.13,not owned by a public authority,,pending decision,,,,56,,,,,2017-12-22,2018-12-20,,,
,,,,,,,,,,,,,,,,,,,http://opendatacommunities.org/id/district-council/hart,Hart District Council,SHL041 18/02285/FUL,"Imac Systems, Fleet",-0.841537,51.279561,https://www.hart.gov.uk/Evidence-base#SHLAA Docs,0.05,not owned by a public authority,,pending decision,,,,6,,,,,2017-12-22,2018-12-20,,,
,,,,,,,,,,,,,,,,,,,http://opendatacommunities.org/id/district-council/hart,Hart District Council,SHL192 18/02321/FUL,"140-150 Fleet Road, Fleet",-0.842446,51.282178,https://www.hart.gov.uk/Evidence-base#SHLAA Docs,0.21,not owned by a public authority,,pending decision,,,,12,,,,,2017-12-22,2018-12-20,,,
,,,,,,,,,,,,,,,,,,,http://opendatacommunities.org/id/district-council/hart,Hart District Council,SHL104,Land at Elvetham Heath,-0.872939,51.289409,https://www.hart.gov.uk/Evidence-base#SHLAA Docs,0.84,not owned by a public authority,,not permissioned,,,,40,,,,Part of SHLAA site SHL104. The southern part of the whole site is not brownfield land,2017-12-22,2017-12-22,,,
,,,,,,,,,,,,,,,,,,,http://opendatacommunities.org/id/district-council/hart,Hart District Council,SHL195,"Lismoyne Hotel, 45 Church Road, Fleet",-0.845655,51.284035,https://www.hart.gov.uk/Evidence-base#SHLAA Docs,0.98,not owned by a public authority,,not permissioned,,,,40,,,,,2017-12-22,2017-12-22,,,
,,,,,,,,,,,,,,,,,,,http://opendatacommunities.org/id/district-council/hart,Hart District Council,SHL208,"Admiral House, Fleet",-0.847441,51.279683,https://www.hart.gov.uk/Evidence-base#SHLAA Docs,0.46,not owned by a public authority,,not permissioned,,,,20,,,,,2017-12-22,2017-12-22,,,
,,,,,,,,,,,,,,,,,,,http://opendatacommunities.org/id/district-council/hart,Hart District Council,SHL047,"Geffery's House, Hook",-0.954733,51.28489,,1.87,not owned by a public authority,,not permissioned,,,,65,,,,,2018-12-20,2018-12-20,,,
,,,,,,,,,,,,,,,,,,,http://opendatacommunities.org/id/district-council/hart,Hart District Council,14/02101/MAJOR,93 Fleet Road,-0.836563,51.285213,https://publicaccess.hart.gov.uk/online-applications/,0.17,Not owned by a public authority,,not permissioned,,,,10,,,,,2017-12-22,2018-12-20,,,
