address,address-text,deliverable,end-date,entry-date,hazardous-substances,hectares,latitude,longitude,maximum-net-dwellings,minimum-net-dwellings,notes,organisation,ownership-status,planning-permission-date,planning-permission-history,planning-permission-status,planning-permission-type,site,OrganisationURI,OrganisationLabel,SiteReference,SiteNameAddress,GeoX,GeoY,SiteplanURL,Hectares,OwnershipStatus,HazardousSubstances,PlanningStatus,PermissionType,PermissionDate,PlanningHistory,MinNetDwellings,NetDwellingsRangeFrom,NetDwellingsRangeTo,Deliverable,Notes,FirstAddedDate,LastUpdatedDate,EndDate,site-plan-url,start-date
,,,,,,,,,,,,,,,,,,,http://opendatacommunities.org/id/london-borough-council/enfield,Enfield Council,207000430,"Lincoln House, Lincoln Road, N18 3HF",-0.046913,51.643747,http://planningandbuildingcontrol.enfield.gov.uk/online-applications/applicationDetails.do?activeTab=map&keyVal=N99H3OJN02E00,0.028,not owned by a public authority,,,,,,6,,,,,2017-12-31,2017-12-31,,,
,,,,,,,,,,,,,,,,,,,http://opendatacommunities.org/id/london-borough-council/enfield,Enfield Council,207143457,"55-57 Chase Side, N14 5DB",-0.0878417999999783,51.6558392,http://planningandbuildingcontrol.enfield.gov.uk/online-applications/applicationDetails.do?activeTab=map&keyVal=NEXGJUJN00600,0.032,not owned by a public authority,,,,,,6,,,,,2017-12-31,2017-12-31,,,
,,,,,,,,,,,,,,,,,,,http://opendatacommunities.org/id/london-borough-council/enfield,Enfield Council,207002010,"103 Chase Side, EN2 6NL",-0.087943,51.658362,http://planningandbuildingcontrol.enfield.gov.uk/online-applications/applicationDetails.do?activeTab=map&keyVal=ZZZZLAJNXE008,0.085,not owned by a public authority,,,,,,5,,,,,2017-12-31,2017-12-31,,,
,,,,,,,,,,,,,,,,,,,http://opendatacommunities.org/id/london-borough-council/enfield,Enfield Council,207122148,"Wellington House, 3 Wellington Road, EN1 2PB",-0.07485013966564644,51.647067960934116,http://planningandbuildingcontrol.enfield.gov.uk/online-applications/applicationDetails.do?activeTab=map&keyVal=OHIBQ4JNLGA00,0.086,not owned by a public authority,,,,,,7,,,,,2017-12-31,2017-12-31,,,
,,,,,,,,,,,,,,,,,,,http://opendatacommunities.org/id/london-borough-council/enfield,Enfield Council,207007899,"10 Park Road, N18 2UQ",-0.06580072039973299,51.61751920390784,http://planningandbuildingcontrol.enfield.gov.uk/online-applications/applicationDetails.do?activeTab=map&keyVal=N7MCMHJN02E00,0.088,not owned by a public authority,,,,,,18,,,,,2017-12-31,2017-12-31,,,
,,,,,,,,,,,,,,,,,,,http://opendatacommunities.org/id/london-borough-council/enfield,Enfield Council,207083627,"42 Station Road, N21 3RA",-0.098560827256964,51.63315267351562,http://planningandbuildingcontrol.enfield.gov.uk/online-applications/applicationDetails.do?activeTab=map&keyVal=ZZZZKRJNXE793,0.1,not owned by a public authority,,,,,,6,,,,,2017-12-31,2017-12-31,,,
,,,,,,,,,,,,,,,,,,,http://opendatacommunities.org/id/london-borough-council/enfield,Enfield Council,207143501,"70-72 Chase Side, N14 5PH",-0.13002369608337788,51.63346186088141,http://planningandbuildingcontrol.enfield.gov.uk/online-applications/applicationDetails.do?activeTab=map&keyVal=NHG5ODJN28000,0.132,not owned by a public authority,,,,,,8,,,,,2017-12-31,2017-12-31,,,
,,,,,,,,,,,,,,,,,,,http://opendatacommunities.org/id/london-borough-council/enfield,Enfield Council,207083997,"Capitol House, 794 Green Lanes, N21 2AW",-0.09429680871549867,51.632183161805834,http://planningandbuildingcontrol.enfield.gov.uk/online-applications/applicationDetails.do?activeTab=map&keyVal=OMK05CJN05300,0.245,not owned by a public authority,,,,,,65,,,,,2017-12-31,2017-12-31,,,
,,,,,,,,,,,,,,,,,,,http://opendatacommunities.org/id/london-borough-council/enfield,Enfield Council,207158675,"391 Cockfosters Road, EN4 0JS",-0.15621793325466493,51.663464148814626,http://planningandbuildingcontrol.enfield.gov.uk/online-applications/applicationDetails.do?activeTab=map&keyVal=ZZZZL0JNXE455,0.262,not owned by a public authority,,,,,,5,,,,,2017-12-31,2017-12-31,,,
,,,,,,,,,,,,,,,,,,,http://opendatacommunities.org/id/london-borough-council/enfield,Enfield Council,207118764,"84 Camlet Way, EN4 0NX",-0.1826445956992711,51.66383327035748,http://planningandbuildingcontrol.enfield.gov.uk/online-applications/applicationDetails.do?activeTab=map&keyVal=OM8RXBJNFOM00,0.279,not owned by a public authority,,,,,,1,,,,,2017-12-31,2017-12-31,,,
,,,,,,,,,,,,,,,,,,,http://opendatacommunities.org/id/london-borough-council/enfield,Enfield Council,207158671,"383 Cockfosters Road, EN4 0JS",-0.15563266573922574,51.6624881882358,http://planningandbuildingcontrol.enfield.gov.uk/online-applications/applicationDetails.do?activeTab=map&keyVal=OKPDILJNMO900,0.281,not owned by a public authority,,,,,,13,,,,,2017-12-31,2017-12-31,,,
,,,,,,,,,,,,,,,,,,,http://opendatacommunities.org/id/london-borough-council/enfield,Enfield Council,207096676,"Garages adjacent to 43,47-53 and rear Of 17-32 Gatward Green London N9 9AW",-0.07141217699218402,51.62665574292241,http://planningandbuildingcontrol.enfield.gov.uk/online-applications/applicationDetails.do?activeTab=map&keyVal=OD90DLJNJGR00,0.35,owned by a public authority,,,,,,12,,,,,2017-12-31,2017-12-31,,,
,,,,,,,,,,,,,,,,,,,http://opendatacommunities.org/id/london-borough-council/enfield,Enfield Council,207128186,"22 Beech Hill, EN4 0JP",-0.16159976347587035,51.66659562958064,http://planningandbuildingcontrol.enfield.gov.uk/online-applications/applicationDetails.do?activeTab=map&keyVal=NQPNC5JN28000,0.364,not owned by a public authority,,,,,,9,,,,,2017-12-31,2017-12-31,,,
,,,,,,,,,,,,,,,,,,,http://opendatacommunities.org/id/london-borough-council/enfield,Enfield Council,207196569,"19 and 19A Broad Walk, N21 3DA",-0.11098404707485013,51.63097665549809,http://planningandbuildingcontrol.enfield.gov.uk/online-applications/applicationDetails.do?activeTab=map&keyVal=NZIC5AJN28000,0.42,not owned by a public authority,,,,,,0,,,,,2017-12-31,2017-12-31,,,
,,,,,,,,,,,,,,,,,,,http://opendatacommunities.org/id/london-borough-council/enfield,Enfield Council,207083053,"Solar House, 282 Chase Road, N14 6NZ",-0.1266219094477028,51.63368982237813,http://planningandbuildingcontrol.enfield.gov.uk/online-applications/applicationDetails.do?activeTab=map&keyVal=OJV4XUJN05300,0.564,not owned by a public authority,,,,,,74,,,,,2017-12-31,2017-12-31,,,
,,,,,,,,,,,,,,,,,,,http://opendatacommunities.org/id/london-borough-council/enfield,Enfield Council,207015710,"Sub Station, Woodcroft Sports Ground, N21 3QP",-0.10701326349874642,51.63050032667468,http://planningandbuildingcontrol.enfield.gov.uk/online-applications/applicationDetails.do?activeTab=map&keyVal=NFPGSFJN28000,0.655,not owned by a public authority,,,,,,5,,,,,2017-12-31,2017-12-31,,,
,,,,,,,,,,,,,,,,,,,http://opendatacommunities.org/id/london-borough-council/enfield,Enfield Council,207104137,"Land end, 18 And 20 Bush Hill Cottage, N21 2BX",-0.08558559993711234,51.64352572698971,http://planningandbuildingcontrol.enfield.gov.uk/online-applications/applicationDetails.do?activeTab=map&keyVal=NO8ACLJN28000,0.77,not owned by a public authority,,,,,,20,,,,,2017-12-31,2017-12-31,,,
,,,,,,,,,,,,,,,,,,,http://opendatacommunities.org/id/london-borough-council/enfield,Enfield Council,207166237,Kingswood Nurseries Bullsmoor Lane Enfield EN1 4SF,-0.051537562829777964,51.680760889980995,https://planningandbuildingcontrol.enfield.gov.uk/online-applications/applicationDetails.do?activeTab=map&keyVal=NPZUP8JN28000,0.864,not owned by a public authority,,,,,,61,,,,,2017-12-31,2017-12-31,,,
,,,,,,,,,,,,,,,,,,,http://opendatacommunities.org/id/london-borough-council/enfield,Enfield Council,207179585,"Alma Estate, Alma Road, EN3 4UH",-0.035379733204211734,51.6429299532508,https://planningandbuildingcontrol.enfield.gov.uk/online-applications/applicationDetails.do?activeTab=map&keyVal=NO8O9NJN28000,1.503,owned by a public authority,,,,,,247,,,,,2017-12-31,2017-12-31,,,
,,,,,,,,,,,,,,,,,,,http://opendatacommunities.org/id/london-borough-council/enfield,Enfield Council,207081087,"543 Green Lanes, N13 4DR",-0.10193582600400414,51.624526043904396,http://planningandbuildingcontrol.enfield.gov.uk/online-applications/applicationDetails.do?activeTab=map&keyVal=OTG191JNJCM00,0.01,not owned by a public authority,,,,,,9,,,,,2017-12-31,2017-12-31,,,
,,,,,,,,,,,,,,,,,,,http://opendatacommunities.org/id/london-borough-council/enfield,Enfield Council,207039433,"1-40 Robin Hall, Gardiner Close, EN3 4LP",-0.039935810250748195,51.6410050996328,http://planningandbuildingcontrol.enfield.gov.uk/online-applications/applicationDetails.do?activeTab=map&keyVal=OHRTGNJNLJX00,0.549,not owned by a public authority,,,,,,18,,,,,2017-12-31,2017-12-31,,,
,,,,,,,,,,,,,,,,,,,http://opendatacommunities.org/id/london-borough-council/enfield,Enfield Council,207187207,"Meridian Water, Willoughby Lane And Meridian Way, N18 2DW",-0.04461928675776873,51.61031121043681,http://planningandbuildingcontrol.enfield.gov.uk/online-applications/applicationDetails.do?activeTab=map&keyVal=O46J8IJN05300,7.222,owned by a public authority,,,,,,725,,,,,2017-12-31,2017-12-31,,,
,,,,,,,,,,,,,,,,,,,http://opendatacommunities.org/id/london-borough-council/enfield,Enfield Council,207044458,"36-38 Friern Barnet Road, N11 1NA",-0.143509,51.615694,http://planningandbuildingcontrol.enfield.gov.uk/online-applications/applicationDetails.do?activeTab=map&keyVal=OBE430JNIPD00,0.014,not owned by a public authority,,,,,,6,,,,,2017-12-31,2017-12-31,,,
,,,,,,,,,,,,,,,,,,,http://opendatacommunities.org/id/london-borough-council/enfield,Enfield Council,207144339,"638 Hertford Road, EN3 5TD",-0.041035,51.670642,http://planningandbuildingcontrol.enfield.gov.uk/online-applications/applicationDetails.do?activeTab=map&keyVal=OIJ7IEJNLV400,0.029,not owned by a public authority,,,,,,5,,,,,2017-12-31,2017-12-31,,,
,,,,,,,,,,,,,,,,,,,http://opendatacommunities.org/id/london-borough-council/enfield,Enfield Council,207185157,"Middlesex University, Bramley Road, EN4 0PT",-0.135667,51.6600179,https://planningandbuildingcontrol.enfield.gov.uk/online-applications/applicationDetails.do?activeTab=map&keyVal=ODW701JN00900,25.588,not owned by a public authority,,,,,,262,,,,,2017-12-31,2017-12-31,,,
,,,,,,,,,,,,,,,,,,,http://opendatacommunities.org/id/london-borough-council/enfield,Enfield Council,207002390,Edmonton Green North Mall Car Park,-0.05648059086829184,51.62619940837947,https://planningandbuildingcontrol.enfield.gov.uk/online-applications/applicationDetails.do?activeTab=map&keyVal=NVQTBIJN28000,1.59,not owned by a public authority,,,,,,77,,,,,2017-12-31,2017-12-31,,,
,,,,,,,,,,,,,,,,,,,http://opendatacommunities.org/id/london-borough-council/enfield,Enfield Council,207183897,"Chase Farm Hospital, The Ridgeway, EN2 8JL",-0.10250181739679468,51.66573705977877,http://planningandbuildingcontrol.enfield.gov.uk/online-applications/applicationDetails.do?activeTab=map&keyVal=NFEI3AJN28000,7.705,mixed ownership,,,,,,500,,,,,2017-12-31,2017-12-31,,,
