address,address-text,deliverable,end-date,entry-date,hazardous-substances,hectares,latitude,longitude,maximum-net-dwellings,minimum-net-dwellings,notes,organisation,ownership-status,planning-permission-date,planning-permission-history,planning-permission-status,planning-permission-type,site,OrganisationURI,OrganisationLabel,SiteReference,SiteNameAddress,GeoX,GeoY,SiteplanURL,Hectares,OwnershipStatus,HazardousSubstances,PlanningStatus,PermissionType,PermissionDate,PlanningHistory,MinNetDwellings,NetDwellingsRangeFrom,NetDwellingsRangeTo,Deliverable,Notes,FirstAddedDate,LastUpdatedDate,EndDate,site-plan-url,start-date
,,,,,,,,,,,,,,,,,,,http://opendatacommunities.org/id/unitary-authority/west-berkshire,,BR/2017/03,"""Greens Yard, High Street (Tithe Barn Close), Compton""",451911,180022,https://publicaccess.westberks.gov.uk/online-applications/applicationDetails.do?activeTab=map&keyVal=N4L0L4RD04Z00,0.95,not owned by a public authority,,permissioned,,,,25,,,,,17/10/2017,17/10/2017,,,
,,,,,,,,,,,,,,,,,,,http://opendatacommunities.org/id/unitary-authority/west-berkshire,,BR/2017/04,"""Pirbright Institute site (formerly Institute For Animal Health), Compton""",451802,180203,http://info.westberks.gov.uk/CHttpHandler.ashx?id=43955&p=0,9.1,owned by a public authority,,not permissioned,,,,140,,,,The site is included as an allocation within the adopted Housing Site Allocations Development Plan Document. A Supplementary Planning Document has also been prepared for the site,17/10/2017,17/10/2017,,,
,,,,,,,,,,,,,,,,,,,http://opendatacommunities.org/id/unitary-authority/west-berkshire,,BR/2017/05,"""Crookham House, Crookham Hill, Crookham Common, Thatcham""",452524,164869,https://publicaccess.westberks.gov.uk/online-applications/applicationDetails.do?activeTab=map&keyVal=MPQ9R4RD04Z00,7.32,not owned by a public authority,,permissioned,,,,8,,,,,17/10/2017,17/10/2017,,,
,,,,,,,,,,,,,,,,,,,http://opendatacommunities.org/id/unitary-authority/west-berkshire,,BR/2017/06,"""St Johns Hall, Station Road, Hungerford""",434060,168477,https://publicaccess.westberks.gov.uk/online-applications/applicationDetails.do?activeTab=map&keyVal=MUAU7KRD0EA00,0.05,not owned by a public authority,,permissioned,,,,6,,,,,17/10/2017,17/10/2017,,,
,,,,,,,,,,,,,,,,,,,http://opendatacommunities.org/id/unitary-authority/west-berkshire,,BR/2017/07,"""Three Swans Hotel, 117 High Street, Hungerford""",433802,168539,https://publicaccess.westberks.gov.uk/online-applications/applicationDetails.do?activeTab=map&keyVal=LRVR39RD09N00,0.2,not owned by a public authority,,permissioned,,,,13,,,,,17/10/2017,17/10/2017,,,
,,,,,,,,,,,,,,,,,,,http://opendatacommunities.org/id/unitary-authority/west-berkshire,,BR/2017/10,"""39 London Road, Newbury""",447190,167644,https://publicaccess.westberks.gov.uk/online-applications/applicationDetails.do?activeTab=map&keyVal=OGQRWNRD0K500,0.05,not owned by a public authority,,permissioned,,,,6,,,,,17/10/2017,17/10/2017,,,
,,,,,,,,,,,,,,,,,,,http://opendatacommunities.org/id/unitary-authority/west-berkshire,,BR/2017/13,"""Sherwood House, 78 London Road, Newbury""",447443,167752,https://publicaccess.westberks.gov.uk/online-applications/applicationDetails.do?activeTab=map&keyVal=OUIYNGRD0KD00,0.12,not owned by a public authority,,permissioned,,,,27,,,,,17/10/2017,08/01/2019,,,
,,,,,,,,,,,,,,,,,,,http://opendatacommunities.org/id/unitary-authority/west-berkshire,,BR/2017/14,"""11-17 and land to side of Mill Lane, Newbury""",447462,167027,https://publicaccess.westberks.gov.uk/online-applications/applicationDetails.do?activeTab=map&keyVal=NIY0PKRD04Z00,0.23,not owned by a public authority,,permissioned,,,,12,,,,,17/10/2017,17/10/2017,,,
,,,,,,,,,,,,,,,,,,,http://opendatacommunities.org/id/unitary-authority/west-berkshire,,BR/2017/15,"""St Marys Surgery, St Marys Road, Newbury""",447400,167668,https://publicaccess.westberks.gov.uk/online-applications/applicationDetails.do?activeTab=map&keyVal=NTKXTRRD0EF00,0.1,not owned by a public authority,,permissioned,,,,12,,,,,17/10/2017,17/10/2017,,,
,,,,,,,,,,,,,,,,,,,http://opendatacommunities.org/id/unitary-authority/west-berkshire,,BR/2017/16,"""Centrix House, 5 Oxford Road, Newbury""",446847,167705,https://publicaccess.westberks.gov.uk/online-applications/applicationDetails.do?activeTab=map&keyVal=P1MJITRD01V00,0.16,not owned by a public authority,,permissioned,,,,42,,,,,17/10/2017,08/01/2019,,,
,,,,,,,,,,,,,,,,,,,http://opendatacommunities.org/id/unitary-authority/west-berkshire,,BR/2017/17,"""25 Bartholomew Street, Newbury""",447022,166955,https://publicaccess.westberks.gov.uk/online-applications/applicationDetails.do?activeTab=map&keyVal=ONOAODRD0IP00,0.17,not owned by a public authority,,permissioned,,,,16,,,,,17/10/2017,08/01/2019,,,
,,,,,,,,,,,,,,,,,,,http://opendatacommunities.org/id/unitary-authority/west-berkshire,,BR/2017/18,"""Land at Former Travis Perkins, Carpenters Close, Newbury""",447713,167086,https://publicaccess.westberks.gov.uk/online-applications/applicationDetails.do?activeTab=map&keyVal=O44Z06RD04Z00,0.24,not owned by a public authority,,permissioned,,,,22,,,,,17/10/2017,17/10/2017,,,
,,,,,,,,,,,,,,,,,,,http://opendatacommunities.org/id/unitary-authority/west-berkshire,,BR/2017/19,"""115 London Road and part of Merchant Court, Kelvin Road, Newbury""",447618,167664,https://publicaccess.westberks.gov.uk/online-applications/applicationDetails.do?activeTab=map&keyVal=OSXGHQRD04Z00,0.3,not owned by a public authority,,permissioned,,,,35,,,,,17/10/2017,07/01/2019,,,
,,,,,,,,,,,,,,,,,,,http://opendatacommunities.org/id/unitary-authority/west-berkshire,,BR/2017/20,"""J & P Motors, Newtown Road, Newbury""",447327,165378,https://publicaccess.westberks.gov.uk/online-applications/applicationDetails.do?activeTab=map&keyVal=JMECZERD79000,0.34,not owned by a public authority,,permissioned,,,,37,,,,,17/10/2017,17/10/2017,,,
,,,,,,,,,,,,,,,,,,,http://opendatacommunities.org/id/unitary-authority/west-berkshire,,BR/2017/21,"""11 -15 Bartholomew Street, Newbury""",447071,167042,https://publicaccess.westberks.gov.uk/online-applications/applicationDetails.do?activeTab=map&keyVal=NYTX63RD0JA00,0.33,not owned by a public authority,,permissioned,,,,47,,,,,17/10/2017,17/10/2017,,,
,,,,,,,,,,,,,,,,,,,http://opendatacommunities.org/id/unitary-authority/west-berkshire,,BR/2017/23,"""Land to rear of 1-15 The Broadway, Newbury""",446996,167557,https://publicaccess.westberks.gov.uk/online-applications/applicationDetails.do?activeTab=map&keyVal=OTC6K7RD0HE00,0.43,not owned by a public authority,,permissioned,,,,72,,,,,17/10/2017,07/01/2019,,,
,,,,,,,,,,,,,,,,,,,http://opendatacommunities.org/id/unitary-authority/west-berkshire,,BR/2017/24,"""Land off Faraday Road and Kelvin Road, Newbury""",447623,167540,https://publicaccess.westberks.gov.uk/online-applications/applicationDetails.do?activeTab=map&keyVal=M2F4YVRD0EA00,1.3,owned by a public authority,,permissioned,,,,160,,,,,17/10/2017,17/10/2017,,,
,,,,,,,,,,,,,,,,,,,http://opendatacommunities.org/id/unitary-authority/west-berkshire,,BR/2017/25,"""Sterling Industrial Estate, Kings Road, Newbury""",447757,166869,https://publicaccess.westberks.gov.uk/online-applications/applicationDetails.do?activeTab=map&keyVal=NJYMYWRD04Z00,0.96,not owned by a public authority,,permissioned,,,,167,,,,,17/10/2017,17/10/2017,,,
,,,,,,,,,,,,,,,,,,,http://opendatacommunities.org/id/unitary-authority/west-berkshire,,BR/2017/26,"""Newbury Racecourse Plc East, Newbury                                                    """,448307,166669,https://publicaccess.westberks.gov.uk/online-applications/applicationDetails.do?activeTab=map&keyVal=NHEJ02RD0EF00,,not owned by a public authority,,permissioned,,,,708,,,,,17/10/2017,17/10/2017,,,
,,,,,,,,,,,,,,,,,,,http://opendatacommunities.org/id/unitary-authority/west-berkshire,,BR/2017/27,"""Newbury Racecourse Plc Central, Newbury""",448307,166669,https://publicaccess.westberks.gov.uk/online-applications/applicationDetails.do?activeTab=map&keyVal=LNSVWMRD02K00,,not owned by a public authority,,permissioned,,,,366 (283 oustanding),,,,,17/10/2017,17/10/2017,,,
,,,,,,,,,,,,,,,,,,,http://opendatacommunities.org/id/unitary-authority/west-berkshire,,BR/2017/28,"""Market Street Redevelopment, Newbury""",447169,166794,https://publicaccess.westberks.gov.uk/online-applications/applicationDetails.do?activeTab=map&keyVal=O3NY9PRD0JA00,2.16,mixed ownership,,permissioned,,,,226,,,,,17/10/2017,17/10/2017,,,
,,,,,,,,,,,,,,,,,,,http://opendatacommunities.org/id/unitary-authority/west-berkshire,,BR/2017/29,"""London Road Industrial Estate, Newbury""",447072,167691,http://info.westberks.gov.uk/CHttpHandler.ashx?id=36401&p=0,0.3,owned by a public authority,,not permissioned,,,,,,,,"The site was assessed as 'potentially developable' within the Council's 2013 Strategic Land Availability Assessment.

Within the adopted Housing Site Allocations Development Plan Document, it is noted that the redevelopment of the London Road Industrial Estate is a long term vision of the Council.",17/10/2017,17/10/2017,,,
,,,,,,,,,,,,,,,,,,,http://opendatacommunities.org/id/unitary-authority/west-berkshire,,BR/2017/30,"""Land adjacent to Bath Road known as Elliott Hire, Padworth""",460885,168175,https://publicaccess.westberks.gov.uk/online-applications/applicationDetails.do?activeTab=map&keyVal=OIYCLVRD0IP00,0.42,not owned by a public authority,,permissioned,,,,18,,,,,17/10/2017,17/10/2017,,,
,,,,,,,,,,,,,,,,,,,http://opendatacommunities.org/id/unitary-authority/west-berkshire,,BR/2017/31,"""67A Reading Road, Pangbourne, Reading""",463871,176453,https://publicaccess.westberks.gov.uk/online-applications/applicationDetails.do?activeTab=map&keyVal=NXAPNARD0E700,0.13,not owned by a public authority,,permissioned,,,,8,,,,,17/10/2017,17/10/2017,,,
,,,,,,,,,,,,,,,,,,,http://opendatacommunities.org/id/unitary-authority/west-berkshire,,BR/2017/32,"""72 Purley Rise, Purley on Thames""",465368,176372,http://info.westberks.gov.uk/CHttpHandler.ashx?id=43955&p=0,1.47,not owned by a public authority,,not permissioned,,,,35,,,,The site is included as an allocation within the adopted Housing Site Allocations Development Plan Document,17/10/2017,08/01/2019,,,
,,,,,,,,,,,,,,,,,,,http://opendatacommunities.org/id/unitary-authority/west-berkshire,,BR/2017/33,"""Lord Lyon, Stockcross, Newbury""",443585,168560,https://publicaccess.westberks.gov.uk/online-applications/applicationDetails.do?activeTab=map&keyVal=OD6DM7RD0JH00,0.13,not owned by a public authority,,permissioned,,,,9,,,,,17/10/2017,17/10/2017,,,
,,,,,,,,,,,,,,,,,,,http://opendatacommunities.org/id/unitary-authority/west-berkshire,,BR/2017/34,"""58 The Broadway, Thatcham""",451772,167397,https://publicaccess.westberks.gov.uk/online-applications/applicationDetails.do?activeTab=map&keyVal=MV88STRD02N00,0.05,not owned by a public authority,,permissioned,,,,9,,,,,17/10/2017,17/10/2017,,,
,,,,,,,,,,,,,,,,,,,http://opendatacommunities.org/id/unitary-authority/west-berkshire,,BR/2017/35,"""1 The Broadway, Thatcham""",451768,167471,https://publicaccess.westberks.gov.uk/online-applications/applicationDetails.do?activeTab=map&keyVal=OIMT2ORD0K500,0.07,not owned by a public authority,,permissioned,,,,10,,,,,17/10/2017,08/01/2019,,,
,,,,,,,,,,,,,,,,,,,http://opendatacommunities.org/id/unitary-authority/west-berkshire,,BR/2017/36,"""Turnfields land rear of Regent, The Moors, Thatcham""",451863,167260,https://publicaccess.westberks.gov.uk/online-applications/applicationDetails.do?activeTab=map&keyVal=JGDKT1RDG4000,0.1,not owned by a public authority,,permissioned,,,,13,,,,,17/10/2017,17/10/2017,,,
,,,,,,,,,,,,,,,,,,,http://opendatacommunities.org/id/unitary-authority/west-berkshire,,BR/2017/37,"""131, 133, 137, 139 & 141 Bath Road, Thatcham""",450402,167633,https://publicaccess.westberks.gov.uk/online-applications/applicationDetails.do?activeTab=map&keyVal=NSX6JTRD09N00,0.2,not owned by a public authority,,permissioned,,,,30,,,,,17/10/2017,07/01/2019,,,
,,,,,,,,,,,,,,,,,,,http://opendatacommunities.org/id/unitary-authority/west-berkshire,,BR/2017/39,"""Kingsland Shopping Centre And Adjoining Land, Thatcham""",451852,167332,https://publicaccess.westberks.gov.uk/online-applications/applicationDetails.do?activeTab=map&keyVal=L20E7IRD09N00,2.1,not owned by a public authority,,permissioned,,,,46,,,,,17/10/2017,17/10/2017,,,
,,,,,,,,,,,,,,,,,,,http://opendatacommunities.org/id/unitary-authority/west-berkshire,,BR/2017/40,"""Former deport at Pound Lane, Thatcham""",450042,167336,https://publicaccess.westberks.gov.uk/online-applications/applicationDetails.do?activeTab=map&keyVal=O0683QRD0HD00,0.88,owned by a public authority,,permissioned,,,,47,,,,,17/10/2017,17/10/2017,,,
,,,,,,,,,,,,,,,,,,,http://opendatacommunities.org/id/unitary-authority/west-berkshire,,BR/2017/41,"""The Red Lion, 5 Church Street, Theale, Reading""",464173,171255,https://publicaccess.westberks.gov.uk/online-applications/applicationDetails.do?activeTab=map&keyVal=O5BJ4CRD01V00,0.08,not owned by a public authority,,permissioned,,,,8,,,,,17/10/2017,17/10/2017,,,
,,,,,,,,,,,,,,,,,,,http://opendatacommunities.org/id/unitary-authority/west-berkshire,,BR/2018/01,"""Bridge House, Overbridge Square, Hambridge Lane, Newbury""",449058,167081,https://publicaccess.westberks.gov.uk/online-applications/applicationDetails.do?activeTab=map&keyVal=ODRF1YRD09N00,1.9,not owned by a public authority,,permissioned,,,,17,,,,,02/01/2018,08/01/2019,,,
,,,,,,,,,,,,,,,,,,,http://opendatacommunities.org/id/unitary-authority/west-berkshire,,BR/2018/02,"""Lock House, Overbridge Square, Hambridge Lane, Newbury""",449084,167026,https://publicaccess.westberks.gov.uk/online-applications/applicationDetails.do?activeTab=map&keyVal=ODRF3ZRD09N00,1.9,not owned by a public authority,,permissioned,,,,17,,,,,02/01/2018,08/01/2019,,,
,,,,,,,,,,,,,,,,,,,http://opendatacommunities.org/id/unitary-authority/west-berkshire,,BR/2018/03,"""Leat House, Overbridge Square, Hambridge Lane, Newbury""",449032,167038,https://publicaccess.westberks.gov.uk/online-applications/applicationDetails.do?activeTab=map&keyVal=ODRF5IRD09N00,1.9,not owned by a public authority,,permissioned,,,,24,,,,,02/01/2019,08/01/2019,,,
,,,,,,,,,,,,,,,,,,,http://opendatacommunities.org/id/unitary-authority/west-berkshire,,BR/2018/04,"""Mill House, Overbridge Square, Hambridge Lane, Newbury""",449004,166995,https://publicaccess.westberks.gov.uk/online-applications/applicationDetails.do?activeTab=map&keyVal=ODRF78RD09N00,1.9,not owned by a public authority,,permissioned,,,,25,,,,,02/01/2019,08/01/2019,,,
,,,,,,,,,,,,,,,,,,,http://opendatacommunities.org/id/unitary-authority/west-berkshire,,BR/2018/05,"""Weir House, Overbridge Square, Hambridge Lane, Newbury""",449113,167074,https://publicaccess.westberks.gov.uk/online-applications/applicationDetails.do?activeTab=map&keyVal=ODRF8NRD09N00,1.9,not owned by a public authority,,permissioned,,,,24,,,,,02/01/2019,08/01/2019,,,
,,,,,,,,,,,,,,,,,,,http://opendatacommunities.org/id/unitary-authority/west-berkshire,,BR/2018/06,"""Units 3-6, The Vo-Tec Centre, Hambridge Lane""",449483,166932,https://publicaccess.westberks.gov.uk/online-applications/applicationDetails.do?activeTab=map&keyVal=ORY7RBRD09N00,0.68,not owned by a public authority,,permissioned,,,,24,,,,,02/01/2019,08/01/2019,,,
,,,,,,,,,,,,,,,,,,,http://opendatacommunities.org/id/unitary-authority/west-berkshire,,BR/2018/07,"""Beansheaf Farm, Bourne Close""",465574,171641,https://publicaccess.westberks.gov.uk/online-applications/applicationDetails.do?activeTab=map&keyVal=OCQ1MARD09N00,0.63,not owned by a public authority,,permissioned,,,,27,,,,,02/01/2019,08/01/2019,,,
,,,,,,,,,,,,,,,,,,,http://opendatacommunities.org/id/unitary-authority/west-berkshire,,BR/2018/08,"""Station Yard, Station Road, Hungerford, Berkshire""",434202,168425,https://publicaccess.westberks.gov.uk/online-applications/applicationDetails.do?activeTab=map&keyVal=O53V7SRD0E700,0.31,not owned by a public authority,,permissioned,,,,8,,,,,02/01/2019,08/01/2019,,,
,,,,,,,,,,,,,,,,,,,http://opendatacommunities.org/id/unitary-authority/west-berkshire,,BR/2018/09,"""26 Charnham Street, Hungerford, Berkshire""",433906,168948,https://publicaccess.westberks.gov.uk/online-applications/applicationDetails.do?activeTab=map&keyVal=OH5IO1RD0K500,0.18,not owned by a public authority,,permissioned,,,,7,,,,,02/01/2019,08/01/2019,,,
,,,,,,,,,,,,,,,,,,,http://opendatacommunities.org/id/unitary-authority/west-berkshire,,BR/2018/10,"""Consort House, 42 Bone Lane, Newbury""",448174,167022,https://publicaccess.westberks.gov.uk/online-applications/applicationDetails.do?activeTab=map&keyVal=O1VAL8RD0HD00,0.31,not owned by a public authority,,permissioned,,,,17,,,,,02/01/2019,08/01/2019,,,
,,,,,,,,,,,,,,,,,,,http://opendatacommunities.org/id/unitary-authority/west-berkshire,,BR/2018/11,"""31-34 Bartholomew Street, Newbury""",446972,166905,https://publicaccess.westberks.gov.uk/online-applications/applicationDetails.do?activeTab=map&keyVal=P3F46ORD09N00,0.06,not owned by a public authority,,permissioned,,,,12,,,,,02/01/2019,08/01/2019,,,
,,,,,,,,,,,,,,,,,,,http://opendatacommunities.org/id/unitary-authority/west-berkshire,,BR/2018/12,"""Manor Farm, Fidlers Lane, East Ilsley, Newbury""",449141,181248,https://publicaccess.westberks.gov.uk/online-applications/applicationDetails.do?activeTab=map&keyVal=ODG824RD0E700,0.24,not owned by a public authority,,permissioned,,,,7,,,,,02/01/2019,08/01/2019,,,
,,,,,,,,,,,,,,,,,,,http://opendatacommunities.org/id/unitary-authority/west-berkshire,,BR/2018/13,"""108 Bartholomew Street and Land to the rear of Newbury""",446979,166837,https://publicaccess.westberks.gov.uk/online-applications/applicationDetails.do?activeTab=map&keyVal=PB19Y9RD0HE00,0.07,not owned by a public authority,,permissioned,,,,8,,,,,02/01/2019,08/01/2019,,,
,,,,,,,,,,,,,,,,,,,http://opendatacommunities.org/id/unitary-authority/west-berkshire,,BR/2018/14,"""Lambourn, Nexus and Derby House, Newbury Business Park""",448256,167510,https://publicaccess.westberks.gov.uk/online-applications/applicationDetails.do?activeTab=map&keyVal=OMSZX0RD0HE00,1.24,not owned by a public authority,,permissioned,,,,129,,,,,02/01/2019,08/01/2019,,,
,,,,,,,,,,,,,,,,,,,http://opendatacommunities.org/id/unitary-authority/west-berkshire,,BR/2018/15,"""Land at Hutton Close ,Newbury""",447723,167895,https://publicaccess.westberks.gov.uk/online-applications/applicationDetails.do?activeTab=map&keyVal=OQ74F7RD0K400,1.48,not owned by a public authority,,permissioned,,,,27,,,,,02/01/2019,08/01/2019,,,
,,,,,,,,,,,,,,,,,,,http://opendatacommunities.org/id/unitary-authority/west-berkshire,,BR/2018/16,"""55 - 56 Cheap Street and 7, 9, 15 Kings Road, Newbury""",447280,166890,https://publicaccess.westberks.gov.uk/online-applications/applicationDetails.do?activeTab=map&keyVal=OQG5R6RD0K500,0.07,not owned by a public authority,,permissioned,,,,5,,,,,02/01/2019,08/01/2019,,,
,,,,,,,,,,,,,,,,,,,http://opendatacommunities.org/id/unitary-authority/west-berkshire,,BR/2018/17,"""75 London Road, Newbury""",447364,167679,https://publicaccess.westberks.gov.uk/online-applications/applicationDetails.do?activeTab=map&keyVal=OT9ZUVRD0K400,0.04,not owned by a public authority,,permissioned,,,,5,,,,,02/01/2019,08/01/2019,,,
,,,,,,,,,,,,,,,,,,,http://opendatacommunities.org/id/unitary-authority/west-berkshire,,BR/2018/18,"""Derby House, Newbury Business Park, London Road, Newbury""",448216,167589,https://publicaccess.westberks.gov.uk/online-applications/applicationDetails.do?activeTab=map&keyVal=P1DDOERD0HE00,0.31,not owned by a public authority,,permissioned,,,,31,,,,,02/01/2019,08/01/2019,,,
,,,,,,,,,,,,,,,,,,,http://opendatacommunities.org/id/unitary-authority/west-berkshire,,BR/2018/19,"""Crown Yard and 171, 181 and 183
Station Road, Thatcham""",452603,166426,https://publicaccess.westberks.gov.uk/online-applications/applicationDetails.do?activeTab=map&keyVal=OE9S20RD0HE00,0.82,not owned by a public authority,,permissioned,,,,33,,,,,02/01/2019,08/01/2019,,,
,,,,,,,,,,,,,,,,,,,http://opendatacommunities.org/id/unitary-authority/west-berkshire,,BR/2018/20,"""19 and 19A High Street, Theale, Reading""",464330,171344,https://publicaccess.westberks.gov.uk/online-applications/applicationDetails.do?activeTab=map&keyVal=OMHPGBRD09N00,0.16,not owned by a public authority,,permissioned,,,,10,,,,,02/01/2019,08/01/2019,,,
,,,,,,,,,,,,,,,,,,,http://opendatacommunities.org/id/unitary-authority/west-berkshire,,BR/2018/21,"""Britwell Farm, Oxford Road, Chieveley """,448404,176095,https://publicaccess.westberks.gov.uk/online-applications/applicationDetails.do?activeTab=map&keyVal=PJ7XPRRD04Z00,0.23,not owned by a public authority,,permissioned,,,,4,,,,,27/02/2019,27/02/2019,,,
