address,address-text,deliverable,end-date,entry-date,hazardous-substances,hectares,latitude,longitude,maximum-net-dwellings,minimum-net-dwellings,notes,organisation,ownership-status,planning-permission-date,planning-permission-history,planning-permission-status,planning-permission-type,site,OrganisationURI,OrganisationLabel,SiteReference,SiteNameAddress,GeoX,GeoY,SiteplanURL,Hectares,OwnershipStatus,HazardousSubstances,PlanningStatus,PermissionType,PermissionDate,PlanningHistory,MinNetDwellings,NetDwellingsRangeFrom,NetDwellingsRangeTo,Deliverable,Notes,FirstAddedDate,LastUpdatedDate,EndDate,site-plan-url,start-date
,,,,,,,,,,,,,,,,,,,http://opendatacommunities.org/id/metropolitan-district-council/trafford,traffordcouncil,1503,"Stretford Memorial Hospital, 226 Seymour Grove, Stretford, M16 0DU",381876,395151,https://mappinggm.org.uk/gmodin/?lyrs=brownfield_2019_gm#os_maps_light/18/53.452801/-2.2743858,0.75,not owned by a public authority,,not permissioned,,,,36,,,,,18/12/2017,18/12/2017,,,
,,,,,,,,,,,,,,,,,,,http://opendatacommunities.org/id/metropolitan-district-council/trafford,traffordcouncil,1530,"Former Mosedales Brickworks, 4 Ends Lane, Flixton",374096,393733,https://mappinggm.org.uk/gmodin/?lyrs=brownfield_2019_gm#os_maps_light/18/53.439729/-2.3914204,0.7,not owned by a public authority,,not permissioned,,,,27,,,,,18/12/2017,18/12/2017,,,
,,,,,,,,,,,,,,,,,,,http://opendatacommunities.org/id/metropolitan-district-council/trafford,traffordcouncil,1552,"Higher Road Depot and Adjoining site, Urmston",376968,394716,https://mappinggm.org.uk/gmodin/?lyrs=brownfield_2019_gm#os_maps_light/18/53.448698/-2.3482591,0.58,owned by a public authority,,not permissioned,,,,22,,,,,18/12/2017,18/12/2017,,,
,,,,,,,,,,,,,,,,,,,http://opendatacommunities.org/id/metropolitan-district-council/trafford,traffordcouncil,1561,"Former School and Red Brook Public House, Oak Road, Partington",371275,390591,https://mappinggm.org.uk/gmodin/?lyrs=brownfield_2019_gm#os_maps_light/18/53.411341/-2.4335983,1.5,not owned by a public authority,,not permissioned,,,,89,,,,,18/12/2017,30/10/2019,,,
,,,,,,,,,,,,,,,,,,,http://opendatacommunities.org/id/metropolitan-district-council/trafford,traffordcouncil,1568,"Wharf Road, Altrincham",376754,389103,https://mappinggm.org.uk/gmodin/?lyrs=brownfield_2019_gm#os_maps_light/18/53.398237/-2.3510651,0.22,owned by a public authority,,not permissioned,,,,11,,,,,18/12/2017,18/12/2017,,,
,,,,,,,,,,,,,,,,,,,http://opendatacommunities.org/id/metropolitan-district-council/trafford,traffordcouncil,1582,"Regent Road Car Park, Altrincham",376631,387655,https://mappinggm.org.uk/gmodin/?lyrs=brownfield_2019_gm#os_maps_light/18/53.385217/-2.3528071,0.61,owned by a public authority,,permissioned,,,,70,,,,,18/12/2017,30/10/2019,,,
,,,,,,,,,,,,,,,,,,,http://opendatacommunities.org/id/metropolitan-district-council/trafford,traffordcouncil,1585,"Oakfield Road/Balmoral Road, Altrincham",377186,387828,https://mappinggm.org.uk/gmodin/?lyrs=brownfield_2019_gm#os_maps_light/18/53.386796/-2.3444757,0.85,not owned by a public authority,,not permissioned,,,,43,,,,,18/12/2017,18/12/2017,,,
,,,,,,,,,,,,,,,,,,,http://opendatacommunities.org/id/metropolitan-district-council/trafford,traffordcouncil,1586,"Mayors Road/Manors Road, Altrincham",377129,387704,https://mappinggm.org.uk/gmodin/?lyrs=brownfield_2019_gm#os_maps_light/18/53.385679/-2.3453236,0.35,not owned by a public authority,,not permissioned,,,,17,,,,,18/12/2017,18/12/2017,,,
,,,,,,,,,,,,,,,,,,,http://opendatacommunities.org/id/metropolitan-district-council/trafford,traffordcouncil,1607,"Former Bakemark UK, Skerton Road, Old Trafford",381608,395951,https://mappinggm.org.uk/gmodin/?lyrs=brownfield_2019_gm#os_maps_light/17/53.459982/-2.2784684,2.51,not owned by a public authority,,not permissioned,,,,125,,,,,18/12/2017,18/12/2017,,,
,,,,,,,,,,,,,,,,,,,http://opendatacommunities.org/id/metropolitan-district-council/trafford,traffordcouncil,1608,"Former Boat Yard, Edge Lane, Stretford",379892,394460,https://mappinggm.org.uk/gmodin/?lyrs=brownfield_2019_gm#os_maps_light/18/53.446518/-2.3042168,0.21,not owned by a public authority,,permissioned,,,,28,,,,,18/12/2017,18/12/2017,,,
,,,,,,,,,,,,,,,,,,,http://opendatacommunities.org/id/metropolitan-district-council/trafford,traffordcouncil,1623,"289 Hale Road, Halebarns",379018,386213,https://mappinggm.org.uk/gmodin/?lyrs=brownfield_2019_gm#os_maps_light/18/53.372356/-2.316824,0.87,not owned by a public authority,,not permissioned,,,,31,,,,,18/12/2017,18/12/2017,,,
,,,,,,,,,,,,,,,,,,,http://opendatacommunities.org/id/metropolitan-district-council/trafford,traffordcouncil,1688,"Fomer Royal Canal Works, South of Edge Lane, Stretford, M32 8",379753,394125,https://mappinggm.org.uk/gmodin/?lyrs=brownfield_2019_gm#os_maps_light/18/53.443501/-2.3062879,0.76,not owned by a public authority,,permissioned,,,,47,,,,,18/12/2017,21/11/2018,,,
,,,,,,,,,,,,,,,,,,,http://opendatacommunities.org/id/metropolitan-district-council/trafford,traffordcouncil,1974,"39 Talbot Road, Old Trafford",381501,396062,https://mappinggm.org.uk/gmodin/?lyrs=brownfield_2019_gm#os_maps_light/18/53.460976/-2.2800865,0.47,not owned by a public authority,,not permissioned,,,,85,,,,,18/12/2017,18/12/2017,,,
,,,,,,,,,,,,,,,,,,,http://opendatacommunities.org/id/metropolitan-district-council/trafford,traffordcouncil,2082,"Trafalgar House, Manchester Road, Altrincham",376699,388965,https://mappinggm.org.uk/gmodin/?lyrs=brownfield_2019_gm#os_maps_light/18/53.396995/-2.351882,0.54,not owned by a public authority,,not permissioned,,,,38,,,,,18/12/2017,18/12/2017,,,
,,,,,,,,,,,,,,,,,,,http://opendatacommunities.org/id/metropolitan-district-council/trafford,traffordcouncil,2084,"Mansion House, Manchester Road, Altrincham",376616,389048,https://mappinggm.org.uk/gmodin/?lyrs=brownfield_2019_gm#os_maps_light/18/53.397737/-2.3531363,0.43,not owned by a public authority,,not permissioned,,,,30,,,,,18/12/2017,18/12/2017,,,
,,,,,,,,,,,,,,,,,,,http://opendatacommunities.org/id/metropolitan-district-council/trafford,traffordcouncil,2086,"Britannia Road, Industrial Estate, Sale",379153,392416,https://mappinggm.org.uk/gmodin/?lyrs=brownfield_2019_gm#os_maps_light/18/53.428117/-2.315207,0.86,owned by a public authority,,not permissioned,,,,43,,,,,18/12/2017,18/12/2017,,,
,,,,,,,,,,,,,,,,,,,http://opendatacommunities.org/id/metropolitan-district-council/trafford,traffordcouncil,2144,"Clarendon House, Stamford New Road, Altrincham, WA14 1BY",376914,387915,https://mappinggm.org.uk/gmodin/?lyrs=brownfield_2019_gm#os_maps_light/18/53.387566/-2.3485715,0.11,not owned by a public authority,,permissioned,,,,60,,,,,18/12/2017,18/12/2017,,,
,,,,,,,,,,,,,,,,,,,http://opendatacommunities.org/id/metropolitan-district-council/trafford,traffordcouncil,2187,"Bollin Private Hotel, 58 Manchester Road, Altrincham, WA14 4PJ",376701,388721,https://mappinggm.org.uk/gmodin/?lyrs=brownfield_2019_gm#os_maps_light/18/53.394801/-2.3518338,0.04,not owned by a public authority,,not permissioned,,,,6,,,,,18/12/2017,21/11/2018,,,
,,,,,,,,,,,,,,,,,,,http://opendatacommunities.org/id/metropolitan-district-council/trafford,traffordcouncil,2234,"Petrol Station and adj land at 499 Chester Road, Stretford",382124,396355,https://mappinggm.org.uk/gmodin/?lyrs=brownfield_2019_gm#os_maps_light/18/53.463632/-2.2707202,0.23,not owned by a public authority,,not permissioned,,,,106,,,,,18/12/2017,30/10/2019,,,
,,,,,,,,,,,,,,,,,,,http://opendatacommunities.org/id/metropolitan-district-council/trafford,traffordcouncil,2252,"Lynnfield House, Milton House, Church Street, Altrincham, WA14 4DZ",376729,388427,https://mappinggm.org.uk/gmodin/?lyrs=brownfield_2019_gm#os_maps_light/18/53.39216/-2.351391,0.9,not owned by a public authority,,permissioned,,,,80,,,,,18/12/2017,18/12/2017,,,
,,,,,,,,,,,,,,,,,,,http://opendatacommunities.org/id/metropolitan-district-council/trafford,traffordcouncil,2293,"The Dome, Grafton House, Stamford New Road, Altrincham, WA14 1DQ",376752,387746,https://mappinggm.org.uk/gmodin/?lyrs=brownfield_2019_gm#os_maps_light/18/53.38604/-2.3509947,0.2,not owned by a public authority,,permissioned,,,,14,,,,,18/12/2017,18/12/2017,,,
,,,,,,,,,,,,,,,,,,,http://opendatacommunities.org/id/metropolitan-district-council/trafford,traffordcouncil,2369,"Trafford Magistrates' Court, Ashton Lane, Sale, M33 7NR",378483,392218,https://mappinggm.org.uk/gmodin/?lyrs=brownfield_2019_gm#os_maps_light/18/53.42631/-2.3252766,1.03,not owned by a public authority,,not permissioned,,,,50,,,,,18/12/2017,18/12/2017,,,
,,,,,,,,,,,,,,,,,,,http://opendatacommunities.org/id/metropolitan-district-council/trafford,traffordcouncil,2370,"Chester House, 1 Boyer Street, Stretford, M16 0RE",381457,396219,https://mappinggm.org.uk/gmodin/?lyrs=brownfield_2019_gm#os_maps_light/17/53.462386/-2.2807585,3.28,owned by a public authority,,not permissioned,,,,660,,,,,18/12/2017,18/12/2017,,,
,,,,,,,,,,,,,,,,,,,http://opendatacommunities.org/id/metropolitan-district-council/trafford,traffordcouncil,2424,"Albert Buildings, 3 Scott Drive, Altrincham, WA15 8AB",377691,387697,https://mappinggm.org.uk/gmodin/?lyrs=brownfield_2019_gm#os_maps_light/18/53.38564/-2.3368738,0.22,unknown ownership,,permissioned,,,,26,,,,,21/11/2018,21/11/2018,,,
,,,,,,,,,,,,,,,,,,,http://opendatacommunities.org/id/metropolitan-district-council/trafford,traffordcouncil,2465,"119 Higher Road, Urmston, M41 9BD",377195,394717,https://mappinggm.org.uk/gmodin/?lyrs=brownfield_2019_gm#os_maps_light/18/53.448717/-2.3448413,0.11,unknown ownership,,permissioned,,,,9,,,,,21/11/2018,21/11/2018,,,
,,,,,,,,,,,,,,,,,,,http://opendatacommunities.org/id/metropolitan-district-council/trafford,traffordcouncil,2472,"Circle Court, Stretford, M32 9QJ",377655,395568,https://mappinggm.org.uk/gmodin/?lyrs=brownfield_2019_gm#os_maps_light/17/53.456386/-2.337976,4.41,unknown ownership,,permissioned,,,,40,,,,,21/11/2018,21/11/2018,,,
,,,,,,,,,,,,,,,,,,,http://opendatacommunities.org/id/metropolitan-district-council/trafford,traffordcouncil,2587,"Vehicle Repair Workshop, Green Street, Stretford, M32 8ND",379439,393944,https://mappinggm.org.uk/gmodin/?lyrs=brownfield_2019_gm#os_maps_light/18/53.441862/-2.3110032,0.21,unknown ownership,,permissioned,,,,32,,,,,30/10/2019,30/10/2019,,,
,,,,,,,,,,,,,,,,,,,http://opendatacommunities.org/id/metropolitan-district-council/trafford,traffordcouncil,2605,"Crossford Court, Dane Road, Sale, M33 7BZ",378969,392788,https://mappinggm.org.uk/gmodin/?lyrs=brownfield_2019_gm#os_maps_light/17/53.431453/-2.3180011,3.08,not owned by a public authority,,permissioned,,,,62,,,,,30/10/2019,30/10/2019,,,
,,,,,,,,,,,,,,,,,,,http://opendatacommunities.org/id/metropolitan-district-council/trafford,traffordcouncil,1601-01,"Site of Former MKM House, Warwick Road, Stretford, M16 0XX",381036,395994,https://mappinggm.org.uk/gmodin/?lyrs=brownfield_2019_gm#os_maps_light/18/53.460349/-2.2870858,0.11,not owned by a public authority,,permissioned,,,,89,,,,,18/12/2017,18/12/2017,,,
,,,,,,,,,,,,,,,,,,,http://opendatacommunities.org/id/metropolitan-district-council/trafford,traffordcouncil,1601-03,"City Point, 701 Chester road, Stretford, M32 0RW",380966,396050,https://mappinggm.org.uk/gmodin/?lyrs=brownfield_2019_gm#os_maps_light/18/53.460849/-2.2881435,0.15,not owned by a public authority,,not permissioned,,,,35,,,,,18/12/2017,30/10/2019,,,
,,,,,,,,,,,,,,,,,,,http://opendatacommunities.org/id/metropolitan-district-council/trafford,traffordcouncil,1696-02,"Land at Oakfield Road (Altair) Moss Lane, Altrincham",377046,387869,https://mappinggm.org.uk/gmodin/?lyrs=brownfield_2019_gm#os_maps_light/18/53.387159/-2.3465835,1.25,not owned by a public authority,,permissioned,,,,85,,,,,18/12/2017,21/11/2018,,,
,,,,,,,,,,,,,,,,,,,http://opendatacommunities.org/id/metropolitan-district-council/trafford,traffordcouncil,1934-2,"Land off Bold Street, Old Trafford, M15 5PW",383179,396163,https://mappinggm.org.uk/gmodin/?lyrs=brownfield_2019_gm#os_maps_light/17/53.461941/-2.2548194,3.28,owned by a public authority,,not permissioned,,,,144,,,,,18/12/2017,18/12/2017,,,
,,,,,,,,,,,,,,,,,,,http://opendatacommunities.org/id/metropolitan-district-council/trafford,traffordcouncil,2310-02,"Trafford Plaza, 73 Seymour Grove, Old Trafford, M16 0LD",381864,395921,https://mappinggm.org.uk/gmodin/?lyrs=brownfield_2019_gm#os_maps_light/18/53.459722/-2.2746112,0.57,not owned by a public authority,,permissioned,,,,174,,,,,30/10/2019,30/10/2019,,,
