address,address-text,deliverable,end-date,entry-date,hazardous-substances,hectares,latitude,longitude,maximum-net-dwellings,minimum-net-dwellings,notes,organisation,ownership-status,planning-permission-date,planning-permission-history,planning-permission-status,planning-permission-type,site,OrganisationURI,OrganisationLabel,SiteReference,SiteNameAddress,GeoX,GeoY,SiteplanURL,Hectares,OwnershipStatus,HazardousSubstances,PlanningStatus,PermissionType,PermissionDate,PlanningHistory,MinNetDwellings,NetDwellingsRangeFrom,NetDwellingsRangeTo,Deliverable,Notes,FirstAddedDate,LastUpdatedDate,EndDate,site-plan-url,start-date
,,,,,,,,,,,,,,,,,,,https://digital-land.github.io/organisation/local-authority-eng/STO/,,BR001,"Garage court rear of Marybrook Street car park, Marybrook Street Berkeley",-2.4588083,51.692418,"https://stroud.maps.arcgis.com/apps/webappviewer/index.html?id=ce9765b5b8614d88a86d7126329fc614&marker=-2.4588082,51.692409&level=17",0.08,owned by a public authority,,not permissioned,,,,,,5,,"BERKELEY|This site could be redeveloped for high density housing, comprising flats at an average density of about 60 dph, and the suggested yield is 5 units.",2017-12-18,2019-12-01,,,
,,,,,,,,,,,,,,,,,,,https://digital-land.github.io/organisation/local-authority-eng/STO/,,BR002,"Queens Court, The Bourne Brimscombe",-2.1764534,51.718852,"https://stroud.maps.arcgis.com/apps/webappviewer/index.html?id=ce9765b5b8614d88a86d7126329fc614&marker=-2.1764679,51.718852&level=17",0.44,owned by a public authority,,not permissioned,,,,,,7,,"BRIMSCOMBE & THRUPP|This site (24 units)could be redeveloped for medium-high density housing comprising flats and townhouses at an average density of 50-75dph, and the suggested yield is up to 30 units.",2017-12-18,2019-12-01,,,
,,,,,,,,,,,,,,,,,,,https://digital-land.github.io/organisation/local-authority-eng/STO/,,BR003,"Brimscombe Mills & Mill Pond, London Road Brimscombe",-2.1942073,51.720424,"https://stroud.maps.arcgis.com/apps/webappviewer/index.html?id=ce9765b5b8614d88a86d7126329fc614&marker=-2.1942217,51.720415&level=17",1.46,not owned by a public authority,,not permissioned,,,,,,25,,"BRIMSCOMBE & THRUPP|This site could be developed for a mix of housing and employment uses including medium to high density housing comprising  flats and townhouses at an average density of 50-75dph, and the suggested yield is around 25 units, subject to achieving a satisfactory mix with other uses.",2017-12-18,2019-12-01,,,
,,,,,,,,,,,,,,,,,,,https://digital-land.github.io/organisation/local-authority-eng/STO/,,BR004,"Lakeside Depot, Brimscombe Mills London Road Stroud",-2.1940209,51.720838,"https://stroud.maps.arcgis.com/apps/webappviewer/index.html?id=ce9765b5b8614d88a86d7126329fc614&marker=-2.1940208,51.720829&level=17",0.24,not owned by a public authority,,not permissioned,,,,,,15,,"BRIMSCOMBE & THRUPP|This site could be developed for medium to high density housing comprising flats and townhouses, at an average density of around 75 dph, and the suggested yield is up to 15 units, subject to achieving a satisfactory mix with other uses.",2017-12-18,2019-12-01,,,
,,,,,,,,,,,,,,,,,,,https://digital-land.github.io/organisation/local-authority-eng/STO/,,BR005,"Brimscombe Port, Port Lane Brimscombe",-2.189743,51.719074,"https://stroud.maps.arcgis.com/apps/webappviewer/index.html?id=ce9765b5b8614d88a86d7126329fc614&marker=-2.189743,51.719074&level=17",3.86,owned by a public authority,,not permissioned,,,,,,150,,"BRIMSCOMBE & THRUPP|This site could be developed for medium to high density housing comprising flats and townhouses, offices, light industrial, canal
and community uses at an average density of 50-90 dph, and the suggested yield is up to 150 units, subject to achieving a
satisfactory mix with other uses.",2017-12-18,2019-12-01,,,
,,,,,,,,,,,,,,,,,,,https://digital-land.github.io/organisation/local-authority-eng/STO/,,BR006,"Bourne Mills, London Road Brimscombe",-2.1860462,51.717731,"https://stroud.maps.arcgis.com/apps/webappviewer/index.html?id=ce9765b5b8614d88a86d7126329fc614&marker=-2.1860462,51.717731&level=17",0.47,unknown ownership,,not permissioned,,,,,,10,,"BRIMSCOMBE & THRUPP|This site could be partially reused and redeveloped and improved for retail, employment, housing or community purposes, subject to conserving the character of the listed buildings and conservation area. Conversion of upper floors of mill building and new build on land outside the floodplain could deliver about 10 dwellings at 50 dph.",2017-12-18,2019-12-01,,,
,,,,,,,,,,,,,,,,,,,https://digital-land.github.io/organisation/local-authority-eng/STO/,,BR007,"Units 1 - 8, Ebley Wharf, Stroud",-2.2493525,51.739858,"https://stroud.maps.arcgis.com/apps/webappviewer/index.html?id=ce9765b5b8614d88a86d7126329fc614&marker=-2.2493525,51.739858&level=17",0.16,not owned by a public authority,,permissioned,,,,,,6,,CAINSCROSS|Conversion of the upper three floors of the historic mill building and 2-storey wing to 6no flats.,2017-12-18,2019-12-01,,,
,,,,,,,,,,,,,,,,,,,https://digital-land.github.io/organisation/local-authority-eng/STO/,,BR008,"Coaley Junction, Draycott Cam",-2.3647178,51.71635,"https://stroud.maps.arcgis.com/apps/webappviewer/index.html?id=ce9765b5b8614d88a86d7126329fc614&marker=-2.3647178,51.71635&level=17",1.75,not owned by a public authority,,permissioned,,,,,,41,,"CAMThis site could be developed for medium density housing typically comprising a mix of detached, semi -detached and terraced dwellings at an average density of around 35 dph, and the suggested yield for a residential scheme across the net developable area is 39 units.",2017-12-18,2019-12-01,,,
,,,,,,,,,,,,,,,,,,,https://digital-land.github.io/organisation/local-authority-eng/STO/,,BR009,"20 Rock Road, Cam",-2.3787456,51.69577,"https://stroud.maps.arcgis.com/apps/webappviewer/index.html?id=ce9765b5b8614d88a86d7126329fc614&marker=-2.3787456,51.69577&level=17",0.09,not owned by a public authority,,not permissioned,,,,,,8,,"CAM|Site subject to past resolution to grant planning permission, subject to a s106 agreement, for the redevelopment of the site for 8 two bed flats comprising a block of 7 flats and attached flat.",2017-12-18,2019-12-01,,,
,,,,,,,,,,,,,,,,,,,https://digital-land.github.io/organisation/local-authority-eng/STO/,,BR010,"Summerhayes General Stores  , The Crescent  Cam",-2.3669096,51.697435,"https://stroud.maps.arcgis.com/apps/webappviewer/index.html?id=ce9765b5b8614d88a86d7126329fc614&marker=-2.3669096,51.697435&level=17",0.11,not owned by a public authority,,not permissioned,,,,,,5,,CAM|Lapsed planning permission for the demolition of the existing shop/ dwelling and redevelopment for 5 dwellings,2017-12-18,2019-12-01,,,
,,,,,,,,,,,,,,,,,,,https://digital-land.github.io/organisation/local-authority-eng/STO/,,BR011,"Henlow House/ 54 - 60 Silver Street, Silver Street Dursley",-2.3525111,51.680432,"https://stroud.maps.arcgis.com/apps/webappviewer/index.html?id=ce9765b5b8614d88a86d7126329fc614&marker=-2.3525111,51.680423&level=17",0.13,not owned by a public authority,,not permissioned,,,,,,10,,"DURSLEY|Existing buildings could be converted for housing and commercial uses and the southern part of the site developed for housing as part of a mixed use scheme, and the suggested yield over the net developeable area is around 10 units.",2017-12-18,2019-12-01,,,
,,,,,,,,,,,,,,,,,,,https://digital-land.github.io/organisation/local-authority-eng/STO/,,BR012,"The Old Dairy/ Land off Prospect Place, Dursley",-2.3555395,51.681142,"https://stroud.maps.arcgis.com/apps/webappviewer/index.html?id=ce9765b5b8614d88a86d7126329fc614&marker=-2.3555395,51.681142&level=17",0.37,mixed ownership,,not permissioned,,,,,,10,,"DURSLEY|This site could be developed for medium/ high density development, comprising terraced housing and apartments at an average density of about 40 dph, and the suggested yield for a residential scheme across the net developable area is 10 units.",2017-12-18,2019-12-01,,,
,,,,,,,,,,,,,,,,,,,https://digital-land.github.io/organisation/local-authority-eng/STO/,,BR013,"1-25 Long Street, Dursley",-2.3537109,51.682199,"https://stroud.maps.arcgis.com/apps/webappviewer/index.html?id=ce9765b5b8614d88a86d7126329fc614&marker=-2.3537109,51.682199&level=17",0.48,unknown ownership,,not permissioned,,,,,,11,,"DURSLEY|This site could be developed for high density development, comprising apartments at an average density of about 60 dph, subject to providing for parking for existing uses, and the suggested yield for a residential scheme across the net developable area is 11 units.",2017-12-18,2019-12-01,,,
,,,,,,,,,,,,,,,,,,,https://digital-land.github.io/organisation/local-authority-eng/STO/,,BR014,"11/11a May Lane, May Lane Dursley",-2.3568712,51.681264,"https://stroud.maps.arcgis.com/apps/webappviewer/index.html?id=ce9765b5b8614d88a86d7126329fc614&marker=-2.3568712,51.681264&level=17",0.04,owned by a public authority,,not permissioned,,,,,,5,,"DURSLEY|The existing buildings could be converted and the site developed for apartments at an average density of about 100 dph, and the suggested yield for a residential scheme across the net developable area is 4 - 5 units.",2017-12-18,2019-12-01,,,
,,,,,,,,,,,,,,,,,,,https://digital-land.github.io/organisation/local-authority-eng/STO/,,BR015,"Dursley Garage, 29 - 31 Kingshill Road Dursley",-2.3577994,51.683428,"https://stroud.maps.arcgis.com/apps/webappviewer/index.html?id=ce9765b5b8614d88a86d7126329fc614&marker=-2.3577994,51.683428&level=17",0.07,not owned by a public authority,,not permissioned,,,,,,10,,"DURSLEY|Lapsed planning permission S.13/1882/FUL for the redevelopment of the site for 10 units, comprising 8 three bed terraced townhouses and 2no two-bed flats, creation of two office spaces.",2017-12-18,2019-12-01,,,
,,,,,,,,,,,,,,,,,,,https://digital-land.github.io/organisation/local-authority-eng/STO/,,BR016,"Dockyard Works, Knapp Lane Brimscombe",-2.1827007,51.717314,"https://stroud.maps.arcgis.com/apps/webappviewer/index.html?id=ce9765b5b8614d88a86d7126329fc614&marker=-2.1827007,51.717314&level=17",1.04,not owned by a public authority,,not permissioned,,,,,,20,,"MINCHINHAMPTON|This site could be developed for medium to high density housing, comprising flats and townhouses, offices and community uses at an average density of 30-50 dph, and the suggested yield is up to 20 units, subject to achieving a satisfactory mix with other uses.",2017-12-18,2019-12-01,,,
,,,,,,,,,,,,,,,,,,,https://digital-land.github.io/organisation/local-authority-eng/STO/,,BR017,"Val D'Or Works, Knapp Lane Brimscombe",-2.1803856,51.717551,"https://stroud.maps.arcgis.com/apps/webappviewer/index.html?id=ce9765b5b8614d88a86d7126329fc614&marker=-2.1803856,51.717542&level=17",0.42,not owned by a public authority,,not permissioned,,,,,,10,,"MINCHINHAMPTON|This site could be developed for medium to high density housing comprising  flats and  townhouses, offices and community uses, at an average density of 30-50 dph and the suggested yield is up to 10 units, subject to achieving a satisfactory mix with other uses.",2017-12-18,2019-12-01,,,
,,,,,,,,,,,,,,,,,,,https://digital-land.github.io/organisation/local-authority-eng/STO/,,BR018,"The New Lawn, Nailsworth, Another Way Nailsworth",-2.2376382,51.698838,"https://stroud.maps.arcgis.com/apps/webappviewer/index.html?id=ce9765b5b8614d88a86d7126329fc614&marker=-2.2376382,51.698838&level=17",2.83,not owned by a public authority,,pending decision,,,,,,80,,"NAILSWORTH|Taking account of the character of the site and its surroundings, this site could be developed for low to medium density housing development typically comprising a mix of detached, semi -detached and terraced dwellings at an average density of about 20-30 dph, and the suggested yield is around between 52-78 units.",2017-12-18,2019-12-01,,,
,,,,,,,,,,,,,,,,,,,https://digital-land.github.io/organisation/local-authority-eng/STO/,,BR019,"Daniels Industrial Estate, 104 Bath Road, Stroud",-2.2335232,51.737031,"https://stroud.maps.arcgis.com/apps/webappviewer/index.html?id=ce9765b5b8614d88a86d7126329fc614&marker=-2.2335232,51.73704&level=17",2.52,not owned by a public authority,,permissioned,,,,,,50,,"RODBOROUGH|Mixed use redevelopment comprising up to 50 residential dwellings, new foodstore and food and drink retail unit.",2017-12-18,2019-12-01,,,
,,,,,,,,,,,,,,,,,,,https://digital-land.github.io/organisation/local-authority-eng/STO/,,BR020,"Fern House and Unit 24 Daniels Industrial Estate, Bath Road, Stroud",-2.2326276,51.737474,"https://stroud.maps.arcgis.com/apps/webappviewer/index.html?id=ce9765b5b8614d88a86d7126329fc614&marker=-2.2326276,51.737474&level=17",0.45,not owned by a public authority,,not permissioned,,,,,,10,,RODBOROUGH|This site could be partially redeveloped for medum to high density housing including apartments and the suggested yield on this part of the site is around  10 units.,2017-12-18,2019-12-01,,,
,,,,,,,,,,,,,,,,,,,https://digital-land.github.io/organisation/local-authority-eng/STO/,,BR021,"Land adjacent to Fromehall, Bath Road Rodborough",-2.2289435,51.742057,"https://stroud.maps.arcgis.com/apps/webappviewer/index.html?id=ce9765b5b8614d88a86d7126329fc614&marker=-2.2289435,51.742057&level=17",0.47,unknown ownership,,not permissioned,,,,,,5,,"RODBOROUGH|This site could be developed for low density development typically comprising detached, semi -detached dwellings at an average low density of about 20 dph, and the suggested yield is 5 units taking account of levels and the need to retain tree cover.",2017-12-18,2019-12-01,,,
,,,,,,,,,,,,,,,,,,,https://digital-land.github.io/organisation/local-authority-eng/STO/,,BR023,"Former Standish Hospital Site, Horsemarling Lane Standish",-2.267856,51.7586,"https://stroud.maps.arcgis.com/apps/webappviewer/index.html?id=ce9765b5b8614d88a86d7126329fc614&marker=-2.267856,51.7586&level=17",13.07,owned by a public authority,,permissioned,,,,,,125,,"STANDISH|This site could be partly redeveloped for housing and community uses provided that the minimum necessary enabling development is used to secure the reuse and restoration of the heritage buildings. Development is likely to result in a mix of apartments, townhouses, terraced, semi and detached houses. The suggested likely yield is 125 units, but should be the minimum necessary. Part of current application site S.17/2729/FUL.",2017-12-18,2019-12-01,,,
,,,,,,,,,,,,,,,,,,,https://digital-land.github.io/organisation/local-authority-eng/STO/,,BR024,"Stagholt Playing Field Car Park, Gloucester Road Stonehouse",-2.282837,51.756299,"https://stroud.maps.arcgis.com/apps/webappviewer/index.html?id=ce9765b5b8614d88a86d7126329fc614&marker=-2.282837,51.756299&level=17",0.22,not owned by a public authority,,not permissioned,,,,,,,,"STANDISH|This site could partly be developed for low/medium density housing development, as a local housing need exception site, typically comprising terraced dwellings at an average density of about 20-25 dph and the suggested yield is 5 units, subject to the replacement of existing community facilities.",2017-12-18,2019-12-01,,,
,,,,,,,,,,,,,,,,,,,https://digital-land.github.io/organisation/local-authority-eng/STO/,,BR025,"Old Station Yard, Station Road Stonehouse",-2.2936068,51.745986,"https://stroud.maps.arcgis.com/apps/webappviewer/index.html?id=ce9765b5b8614d88a86d7126329fc614&marker=-2.2936068,51.745986&level=17",0.31,not owned by a public authority,,not permissioned,,,,,,15,,STONEHOUSE|Lapsed planning permission S.13/2110/FUL for the redevelopment of the site for 15 semi-detached and terraced houses comprising 7no two- bed units and 8no three-bed units.,2017-12-18,2019-12-01,,,
,,,,,,,,,,,,,,,,,,,https://digital-land.github.io/organisation/local-authority-eng/STO/,,BR026,"Police station/ Magistrates Court, Parliament Street Stroud",-2.2140855,51.745448,"https://stroud.maps.arcgis.com/apps/webappviewer/index.html?id=ce9765b5b8614d88a86d7126329fc614&marker=-2.2140855,51.745439&level=17",0.41,owned by a public authority,,not permissioned,,,,,,45,,STROUD|This site could be developed for a mix of housing and other town centre uses including medium to high density housing comprising  mainly townhouses and apartments and the suggested yield is around 30 - 45 units,2017-12-18,2019-12-01,,,
,,,,,,,,,,,,,,,,,,,https://digital-land.github.io/organisation/local-authority-eng/STO/,,BR027,"Market Tavern, Cornhill Stroud",-2.2157149,51.743917,"https://stroud.maps.arcgis.com/apps/webappviewer/index.html?id=ce9765b5b8614d88a86d7126329fc614&marker=-2.2157294,51.743917&level=17",0.11,not owned by a public authority,,not permissioned,,,,,,15,,"STROUD|This site could be developed for a mix of ground floor retail and commercial and/ or housing uses. If for housing only on upper floors, this could include high density housing comprising town houses and apartments and the suggested yield is up to 15 units.",2017-12-18,2019-12-01,,,
,,,,,,,,,,,,,,,,,,,https://digital-land.github.io/organisation/local-authority-eng/STO/,,BR028,"Lower Wharf Industrial Estate, Wallbridge Stroud",-2.2238265,51.744072,"https://stroud.maps.arcgis.com/apps/webappviewer/index.html?id=ce9765b5b8614d88a86d7126329fc614&marker=-2.223841,51.744072&level=17",0.64,not owned by a public authority,,not permissioned,,,,,,17,,"STROUD|This site could be redeveloped for a mix of housing and other  uses including employment, tourism and leisure uses. Only the frontage land with Bath Road and land adjacent to the canal would be suitable for residential uses due to the floodplain. A relatively high density flatted development could be delivered, around 75-100 dph and the suggested yield is 12-17 units.",2017-12-18,2019-12-01,,,
,,,,,,,,,,,,,,,,,,,https://digital-land.github.io/organisation/local-authority-eng/STO/,,BR029,"Railway Land/ car parks, Cheapside Stroud",-2.2181039,51.743741,"https://stroud.maps.arcgis.com/apps/webappviewer/index.html?id=ce9765b5b8614d88a86d7126329fc614&marker=-2.2181039,51.743741&level=17",1.89,owned by a public authority,,not permissioned,,,,,,75,,"STROUD|This site could be developed for a mix of housing, station and town centre uses. This could include high density housing comprising town houses and apartments and the suggested yield is up to 75 units.",2017-12-18,2019-12-01,,,
,,,,,,,,,,,,,,,,,,,https://digital-land.github.io/organisation/local-authority-eng/STO/,,BR030,"Merrywalks Arches , Merrywalks Stroud",-2.2202697,51.745347,"https://stroud.maps.arcgis.com/apps/webappviewer/index.html?id=ce9765b5b8614d88a86d7126329fc614&marker=-2.2202697,51.745347&level=17",0.2,not owned by a public authority,,not permissioned,,,,,,25,,"STROUD|This site could be developed for a mix of commercial and housing uses. If for housing only, this could include high density housing comprising town houses and apartments and the suggested yield is 25 units.",2017-12-18,2019-12-01,,,
,,,,,,,,,,,,,,,,,,,https://digital-land.github.io/organisation/local-authority-eng/STO/,,BR031,"Lodgemore/Fromehall Mills, Lodgemore Lane Stroud",-2.2265036,51.743591,"https://stroud.maps.arcgis.com/apps/webappviewer/index.html?id=ce9765b5b8614d88a86d7126329fc614&marker=-2.2265181,51.743591&level=17",1.4,not owned by a public authority,,not permissioned,,,,,,40,,"STROUD|Taking account of the heritage and landscape character of the site and its surroundings, this site could be subject to adaptive-reuse of the existing historic buildings for employment in improved premises and residential with sensitive conversion to apartments.",2017-12-18,2019-12-01,,,
,,,,,,,,,,,,,,,,,,,https://digital-land.github.io/organisation/local-authority-eng/STO/,,BR032,"Land to the rear of Avocet Business Park, Dudbridge Stroud",-2.2309178,51.742962,"https://stroud.maps.arcgis.com/apps/webappviewer/index.html?id=ce9765b5b8614d88a86d7126329fc614&marker=-2.2309178,51.742962&level=17",5.05,not owned by a public authority,,not permissioned,,,,,,60,,STROUD|Part of this site could be redeveloped for a mix of housing and employment uses including conversion of mill buildings. This could include medium to high density housing comprising town houses and apartments and the suggested yield is 50 -60 units.,2017-12-18,2019-12-01,,,
,,,,,,,,,,,,,,,,,,,https://digital-land.github.io/organisation/local-authority-eng/STO/,,BR033,"Rooksmoor Mills, Bath Road Woodchester Stroud",-2.2307776,51.726823,"https://stroud.maps.arcgis.com/apps/webappviewer/index.html?id=ce9765b5b8614d88a86d7126329fc614&marker=-2.2307776,51.726823&level=17",1.09,mixed ownership,,permissioned,,,,,,54,,"WOODCHESTER|Construction of 54 residential units and outline planning permission for 1,300sqm of commercial floorspace",2017-12-18,2019-12-01,,,
,,,,,,,,,,,,,,,,,,,https://digital-land.github.io/organisation/local-authority-eng/STO/,,BR034,"Newport Towers Hotel  , Newport  Berkeley",-2.4361688,51.676051,"https://stroud.maps.arcgis.com/apps/webappviewer/index.html?id=ce9765b5b8614d88a86d7126329fc614&marker=-2.4358339,51.675809&level=17",1.42,not owned by a public authority,,permissioned,,,,,,39,,ALKINGTON|Mixed use development including up to 39no dwellings and a community shop,2017-12-18,2019-12-01,,,
,,,,,,,,,,,,,,,,,,,https://digital-land.github.io/organisation/local-authority-eng/STO/,,BR035,"Land at Friday Street, Arlingham",-2.4228668,51.797327,"https://stroud.maps.arcgis.com/apps/webappviewer/index.html?id=ce9765b5b8614d88a86d7126329fc614&marker=-2.4227797,51.797309&level=17",0.23,not owned by a public authority,,permissioned,,,,,,7,,ARLINGHAM|Erection of 5no detached and 2no semi-detached dwellings,2017-12-18,2019-12-01,,,
,,,,,,,,,,,,,,,,,,,https://digital-land.github.io/organisation/local-authority-eng/STO/,,BR036,"Land at Wynstones Drive  , Brookthorpe",-2.2372935,51.807019,"https://stroud.maps.arcgis.com/apps/webappviewer/index.html?id=ce9765b5b8614d88a86d7126329fc614&marker=-2.2370033,51.806993&level=17",1.59,not owned by a public authority,,permissioned,,,,,,10,,BROOKTHORPE WITH WHADDON|Hybrid planning application comprising demolition of 5 detached bungalows and 4 flats and erection of 19 residential dwellings (including detailed proposals for 1no detached and 2no semi-detached dwellings (Phase 1),2017-12-18,2019-12-01,,,
,,,,,,,,,,,,,,,,,,,https://digital-land.github.io/organisation/local-authority-eng/STO/,,BR037,"91 Westward Road  , Stroud",-2.2425732,51.742273,"https://stroud.maps.arcgis.com/apps/webappviewer/index.html?id=ce9765b5b8614d88a86d7126329fc614&marker=-2.2425586,51.742246&level=17",0.07,not owned by a public authority,,permissioned,,,,,,10,,CAINSCROSS|Erection of single building incorporating 3no one-bedroom and 7no two-bedroom flats,2017-12-18,2019-12-01,,,
,,,,,,,,,,,,,,,,,,,https://digital-land.github.io/organisation/local-authority-eng/STO/,,BR038,"Tricorn House , Westward Road  Ebley Stroud",-2.2400436,51.743204,"https://stroud.maps.arcgis.com/apps/webappviewer/index.html?id=ce9765b5b8614d88a86d7126329fc614&marker=-2.2400728,51.74324&level=17",0.08,not owned by a public authority,,permissioned,,,,,,44,,CAINSCROSS|Notification for prior approval for a proposed change of use of existing office building into 44 individual residential units,2017-12-18,2019-12-01,,,
,,,,,,,,,,,,,,,,,,,https://digital-land.github.io/organisation/local-authority-eng/STO/,,BR039,"Land adjacent to Kantara  , Dudbridge Road",-2.2388523,51.742514,"https://stroud.maps.arcgis.com/apps/webappviewer/index.html?id=ce9765b5b8614d88a86d7126329fc614&marker=-2.2387072,51.74246&level=17",0.11,not owned by a public authority,,permissioned,,,,,,6,,CAINSCROSS|Erection of 3no pairs of semi-detached dwellings,2017-12-18,2019-12-01,,,
,,,,,,,,,,,,,,,,,,,https://digital-land.github.io/organisation/local-authority-eng/STO/,,BR040,"18 Woodmancote , Dursley",-2.3505907,51.678981,"https://stroud.maps.arcgis.com/apps/webappviewer/index.html?id=ce9765b5b8614d88a86d7126329fc614&marker=-2.3506621,51.678855&level=17",0.22,not owned by a public authority,,permissioned,,,,,,10,,"DURSLEY|Demolition of existing commercial buildings and erection of ten detached, semi-detached and terraced dwellings",2017-12-18,2019-12-01,,,
,,,,,,,,,,,,,,,,,,,https://digital-land.github.io/organisation/local-authority-eng/STO/,,BR042,"Purton Cottage , Bristol Road  Hardwicke",-2.2842161,51.812049,"https://stroud.maps.arcgis.com/apps/webappviewer/index.html?id=ce9765b5b8614d88a86d7126329fc614&marker=-2.2841418,51.81177&level=17",0.38,not owned by a public authority,,permissioned,,,,,,,,HARDWICKE|Erection of 4no detached dwellings and 1no live/work unit including office space,2017-12-18,2019-12-01,,,
,,,,,,,,,,,,,,,,,,,https://digital-land.github.io/organisation/local-authority-eng/STO/,,BR043,"Land at The Priory  , Priory Fields  Horsley",-2.2361947,51.680058,"https://stroud.maps.arcgis.com/apps/webappviewer/index.html?id=ce9765b5b8614d88a86d7126329fc614&marker=-2.2362379,51.680031&level=17",0.03,not owned by a public authority,,permissioned,,,,,,,,HORSLEY|Erection of 5 dwellings,2017-12-18,2019-12-01,,,
,,,,,,,,,,,,,,,,,,,https://digital-land.github.io/organisation/local-authority-eng/STO/,,BR044,"Stanley Mills , Ryeford  Kings Stanley",-2.2739394,51.736791,"https://stroud.maps.arcgis.com/apps/webappviewer/index.html?id=ce9765b5b8614d88a86d7126329fc614&marker=-2.2729149,51.737396&level=17",4.85,not owned by a public authority,,permissioned,,,,,,146,,"KINGS STANLEY|Conversion of Grade I, Grade II and curtilage listed buildings to provide 65no. residential dwellings (comprising a mixture of houses and apartments)and 81 new build dwellings",2017-12-18,2019-12-01,,,
,,,,,,,,,,,,,,,,,,,https://digital-land.github.io/organisation/local-authority-eng/STO/,,BR045,"Wimberley Mill  , Knapp Lane  Brimscombe",-2.1832772,51.716711,"https://stroud.maps.arcgis.com/apps/webappviewer/index.html?id=ce9765b5b8614d88a86d7126329fc614&marker=-2.1783145,51.717258&level=17",4.61,not owned by a public authority,,permissioned,,,,,,104,,"MINCHINHAMPTON|Demolition and clearance of the existing buildings and hardstanding, residential development of up to 104 dwellings",2017-12-18,2019-12-01,,,
,,,,,,,,,,,,,,,,,,,https://digital-land.github.io/organisation/local-authority-eng/STO/,,BR046,"Dark Mills  , Toadsmoor Lane  Brimscombe",-2.1832923,51.716863,"https://stroud.maps.arcgis.com/apps/webappviewer/index.html?id=ce9765b5b8614d88a86d7126329fc614&marker=-2.1828285,51.716702&level=17",1.48,not owned by a public authority,,permissioned,,,,,,36,,MINCHINHAMPTON|Erection of 36 houses and flats for people of 50 years of age and over,2017-12-18,2019-12-01,,,
,,,,,,,,,,,,,,,,,,,https://digital-land.github.io/organisation/local-authority-eng/STO/,,BR048,"Locks Mill , Brewery Lane Nailsworth",-2.2209677,51.692504,"https://stroud.maps.arcgis.com/apps/webappviewer/index.html?id=ce9765b5b8614d88a86d7126329fc614&marker=-2.2209677,51.692513&level=17",1.18,not owned by a public authority,,permissioned,,,,,,11,,"NAILSWORTH|Part implemented planning permission. 11 units outstanding including change of use of mill building to 2nodwellings, demolition of ancillary buildings and erection of 2no dwellings, 7no new build dwellings.",2017-12-18,2019-12-01,,,
,,,,,,,,,,,,,,,,,,,https://digital-land.github.io/organisation/local-authority-eng/STO/,,BR049,"Kites'Nest  , 106 Bath Road  Stroud",-2.2329794,51.735477,"https://stroud.maps.arcgis.com/apps/webappviewer/index.html?id=ce9765b5b8614d88a86d7126329fc614&marker=-2.2330675,51.73571&level=17",0.11,not owned by a public authority,,permissioned,,,,,,,,RODBOROUGH|Redevelopment of public house site for 10no dwelling units comprising 7no new dwellings and conversion of former public house into 3no flats,2017-12-18,2019-12-01,,,
,,,,,,,,,,,,,,,,,,,https://digital-land.github.io/organisation/local-authority-eng/STO/,,BR050,"Police Station  , Dudbridge Hill  Stroud",-2.2318529,51.738896,"https://stroud.maps.arcgis.com/apps/webappviewer/index.html?id=ce9765b5b8614d88a86d7126329fc614&marker=-2.2318677,51.73895&level=17",0.17,not owned by a public authority,,permissioned,,,,,,13,,"RODBOROUGH|Erection of 13 dwellings comprising 6no three-bed and 7no two-bed units in a mix of terraces, back to back flats and a flat over garage",2017-12-18,2019-12-01,,,
,,,,,,,,,,,,,,,,,,,https://digital-land.github.io/organisation/local-authority-eng/STO/,,BR052,"Land Adjoining Stroud Rugby Club  , Dudbridge Hill  Stroud",-2.2317102,51.739301,"https://stroud.maps.arcgis.com/apps/webappviewer/index.html?id=ce9765b5b8614d88a86d7126329fc614&marker=-2.2315222,51.739364&level=17",0.51,not owned by a public authority,,permissioned,,,,,,14,,RODBOROUGH|14no dwellings comprising 3no four-bed and 6no three-bed houses and a block of flats containing 1no three-bed and 4no two-bed flats.,2017-12-18,2019-12-01,,,
,,,,,,,,,,,,,,,,,,,https://digital-land.github.io/organisation/local-authority-eng/STO/,,BR053,"Land at Station Road  Bristol Road  , Stonehouse",-2.2921575,51.748094,"https://stroud.maps.arcgis.com/apps/webappviewer/index.html?id=ce9765b5b8614d88a86d7126329fc614&marker=-2.2921142,51.748112&level=17",1.05,not owned by a public authority,,permissioned,,,,,,49,,STONEHOUSE|Residential development for 49 units comprising 27no houses and 22no flats,2017-12-18,2019-12-01,,,
,,,,,,,,,,,,,,,,,,,https://digital-land.github.io/organisation/local-authority-eng/STO/,,BR054,"Thompson First Ltd  Butterow Hill  Bowbridge  Stroud,",-2.2070369,51.737081,"https://stroud.maps.arcgis.com/apps/webappviewer/index.html?id=ce9765b5b8614d88a86d7126329fc614&marker=-2.2065717,51.736686&level=17",0.49,not owned by a public authority,,permissioned,,,,,,24,,"STROUD|Erection of 24no detached, semi-detached and terraced dwellings",2017-12-18,2019-12-01,,,
,,,,,,,,,,,,,,,,,,,https://digital-land.github.io/organisation/local-authority-eng/STO/,,BR055,"106 Stratford Road  , Stroud",-2.2370186,51.749117,"https://stroud.maps.arcgis.com/apps/webappviewer/index.html?id=ce9765b5b8614d88a86d7126329fc614&marker=-2.236816,51.749154&level=17",0.12,not owned by a public authority,,not permissioned,,,,,,11,,STROUD|7no two-bed houses and 4no one-bed flats,2017-12-18,2019-12-01,,,
,,,,,,,,,,,,,,,,,,,https://digital-land.github.io/organisation/local-authority-eng/STO/,,BR056,"Land at Bath Place  , Cheapside Stroud",-2.2201333,51.744097,"https://stroud.maps.arcgis.com/apps/webappviewer/index.html?id=ce9765b5b8614d88a86d7126329fc614&marker=-2.2201042,51.74407&level=17",0.36,mixed ownership,,permissioned,,,,,,37,,STROUD|37no dwellings comprising 33no one and two-bedroom flats and 4no three-bed houses,2017-12-18,2019-12-01,,,
,,,,,,,,,,,,,,,,,,,https://digital-land.github.io/organisation/local-authority-eng/STO/,,BR057,"118 Cainscross Road  , Stroud",-2.2323772,51.745117,"https://stroud.maps.arcgis.com/apps/webappviewer/index.html?id=ce9765b5b8614d88a86d7126329fc614&marker=-2.2323771,51.74509&level=17",0.07,not owned by a public authority,,permissioned,,,,,,9,,STROUD|Conversion of 2.5 storey listed building into 9no flats,2017-12-18,2019-12-01,,,
,,,,,,,,,,,,,,,,,,,https://digital-land.github.io/organisation/local-authority-eng/STO/,,BR058,"20 High Street  , Stroud",-2.216054,51.745175,"https://stroud.maps.arcgis.com/apps/webappviewer/index.html?id=ce9765b5b8614d88a86d7126329fc614&marker=-2.2160975,51.745166&level=17",0.01,not owned by a public authority,,permissioned,,,,,,,,"STROUD|Change of use of first, second and third floor accommodation from office to form 5no residential units",2017-12-18,2019-12-01,,,
,,,,,,,,,,,,,,,,,,,https://digital-land.github.io/organisation/local-authority-eng/STO/,,BR059,"Units 1 To 9  , 1 London Road Stroud",-2.2168174,51.744283,"https://stroud.maps.arcgis.com/apps/webappviewer/index.html?id=ce9765b5b8614d88a86d7126329fc614&marker=-2.2167885,51.744292&level=17",0.03,not owned by a public authority,,not permissioned,,,,,,,,STROUD|Second floor extension to form 5no one-bed flats,2017-12-18,2019-12-01,,,
,,,,,,,,,,,,,,,,,,,https://digital-land.github.io/organisation/local-authority-eng/STO/,,BR061,"STB Engineering Ltd  , Toadsmoor Road  Brimscombe  Stroud",-2.1812515,51.720517,"https://stroud.maps.arcgis.com/apps/webappviewer/index.html?id=ce9765b5b8614d88a86d7126329fc614&marker=-2.1809915,51.720652&level=17",0.37,not owned by a public authority,,permissioned,,,,,,11,,"BRIMSCOMBE & THRUPP|Demolition of existing buildings, erection of 11no terraced and semi-detached dwellings and an office block",2017-12-18,2019-12-01,,,
,,,,,,,,,,,,,,,,,,,https://digital-land.github.io/organisation/local-authority-eng/STO/,,BR062,"Gussage Mills , Toadsmoor Road  Brimscombe  Stroud",-2.1806181,51.721408,"https://stroud.maps.arcgis.com/apps/webappviewer/index.html?id=ce9765b5b8614d88a86d7126329fc614&marker=-2.1803724,51.721489&level=17",0.24,not owned by a public authority,,permissioned,,,,,,9,,BRIMSCOMBE & THRUPP|Partial change of use and replacement of existing buildings to create nine dwellings including home office/ workshop facilities,2017-12-18,2019-12-01,,,
,,,,,,,,,,,,,,,,,,,https://digital-land.github.io/organisation/local-authority-eng/STO/,,BR063,"Woodchester Mill , Selsley Road Woodchester",-2.229055,51.724012,"https://stroud.maps.arcgis.com/apps/webappviewer/index.html?id=ce9765b5b8614d88a86d7126329fc614&marker=-2.2290576,51.724533&level=17",0.63,not owned by a public authority,,not permissioned,,,,,,10,,"WOODCHESTER| Demolition of redundant industrial buildings, erection of 6 no dwellings and conversion of stone building to 4no dwellings",2017-12-18,2019-12-01,,,
,,,,,,,,,,,,,,,,,,,https://digital-land.github.io/organisation/local-authority-eng/STO/,,BR064,"5  6  7 And 8 Southbank  , Woodchester  Stroud",-2.233604,51.721818,"https://stroud.maps.arcgis.com/apps/webappviewer/index.html?id=ce9765b5b8614d88a86d7126329fc614&marker=-2.2335019,51.721674&level=17",0.12,owned by a public authority,,permissioned,,,,,,5,,WOODCHESTER|2no semi-detachedhouses and a terrace of 3no houses,2017-12-18,2019-12-01,,,
,,,,,,,,,,,,,,,,,,,https://digital-land.github.io/organisation/local-authority-eng/STO/,,BR066,4 Whitehouse Park  Cainscross,-2.2434992,51.744779,"https://stroud.maps.arcgis.com/apps/webappviewer/index.html?id=ce9765b5b8614d88a86d7126329fc614&marker=-2.2434992,51.744779&level=17",0.27,not owned by a public authority,,permissioned,,,,,,7,,"CAINSCROSS|Demolition of the existing dwelling and outbuildings, construction of eight new dwellings (including 2 affordable units)",2018-12-10,2019-12-01,,,
,,,,,,,,,,,,,,,,,,,https://digital-land.github.io/organisation/local-authority-eng/STO/,,BR067,First Floor The Factory Shop 16 Cashes Green Road  Stroud,-2.2416352,51.742913,"https://stroud.maps.arcgis.com/apps/webappviewer/index.html?id=ce9765b5b8614d88a86d7126329fc614&marker=-2.2416352,51.742913&level=17",0.06,not owned by a public authority,,permissioned,,,,,,6,,CAINSCROSS|Change of use to first floor from B1a office to 6no 1 bed flats,2018-12-10,2019-12-01,,,
,,,,,,,,,,,,,,,,,,,https://digital-land.github.io/organisation/local-authority-eng/STO/,,BR068,Dudbridge Industrial Estate  Dudbridge Road  Stroud,-2.2397531,51.740309,"https://stroud.maps.arcgis.com/apps/webappviewer/index.html?id=ce9765b5b8614d88a86d7126329fc614&marker=-2.2397531,51.740309&level=17",0.18,not owned by a public authority,,permissioned,,,,,,130,,CAINSCROSS|Residential development of up to 130 dwellings,2018-12-10,2019-12-01,,,
,,,,,,,,,,,,,,,,,,,https://digital-land.github.io/organisation/local-authority-eng/STO/,,BR069,Land at 88 - 90 High Street  Cam,-2.3660883,51.705035,"https://stroud.maps.arcgis.com/apps/webappviewer/index.html?id=ce9765b5b8614d88a86d7126329fc614&marker=-2.3660883,51.705035&level=17",0.19,not owned by a public authority,,permissioned,,,,,,,,CAM|Demolition of two semi-detached houses and erection of ten terrace houses,2018-12-10,2019-12-01,,,
,,,,,,,,,,,,,,,,,,,https://digital-land.github.io/organisation/local-authority-eng/STO/,,BR070,Land at 21 and 23 Elmgrove Road East  Hardwicke,-2.2855008,51.815642,"https://stroud.maps.arcgis.com/apps/webappviewer/index.html?id=ce9765b5b8614d88a86d7126329fc614&marker=-2.2855008,51.815642&level=17",0.24,not owned by a public authority,,permissioned,,,,,,,,HARDWICKE|Demolition of 1 dwelling and erection of 9 dwellings,2018-12-10,2019-12-01,,,
,,,,,,,,,,,,,,,,,,,https://digital-land.github.io/organisation/local-authority-eng/STO/,,BR071,Ham Mills  London Road  Brimscombe,-2.2024445,51.726965,"https://stroud.maps.arcgis.com/apps/webappviewer/index.html?id=ce9765b5b8614d88a86d7126329fc614&marker=-2.2024445,51.726965&level=17",2.14,not owned by a public authority,,permissioned,,,,,,100,,BRIMSCOMBE & THRUPP|Restoration of the listed mill building and redevelopment of the site for a mixed use development including 100 new homes,2018-12-10,2019-12-01,,,
,,,,,,,,,,,,,,,,,,,https://digital-land.github.io/organisation/local-authority-eng/STO/,,BR072,Land at Gloucester Road  Stonehouse,-2.2828808,51.756353,"https://stroud.maps.arcgis.com/apps/webappviewer/index.html?id=ce9765b5b8614d88a86d7126329fc614&marker=-2.2828808,51.756353&level=17",0.17,not owned by a public authority,7,permissioned,,,,,,7,,STANDISH|Demolition of existing building and construction of 7no. houses (4 x affordable units and 3 x market units),2018-12-10,2019-12-01,,,
,,,,,,,,,,,,,,,,,,,https://digital-land.github.io/organisation/local-authority-eng/STO/,,BR073,The Old Bakery  Tetbury Street  Minchinhampton,-2.1856013,51.704542,"https://stroud.maps.arcgis.com/apps/webappviewer/index.html?id=ce9765b5b8614d88a86d7126329fc614&marker=-2.1856013,51.704542&level=17",0.11,not owned by a public authority,,permissioned,,,,,,,,MINCHINHAMPTON|Erection of 5 dwellings,2018-12-10,2019-12-01,,,
,,,,,,,,,,,,,,,,,,,https://digital-land.github.io/organisation/local-authority-eng/STO/,,BR074,Land at Dudbridge Hill,-2.2361065,51.740874,"https://stroud.maps.arcgis.com/apps/webappviewer/index.html?id=ce9765b5b8614d88a86d7126329fc614&marker=-2.2361065,51.740874&level=17",3.56,not owned by a public authority,,pending decision,,,,,,84,,RODBOROUGH|Redevelopment of site to provide up to 84 dwellings,2018-12-10,2019-12-01,,,
,,,,,,,,,,,,,,,,,,,https://digital-land.github.io/organisation/local-authority-eng/STO/,,BR075,Gospel Hall  Church Street  Stroud,-2.2147279,51.746526,"https://stroud.maps.arcgis.com/apps/webappviewer/index.html?id=ce9765b5b8614d88a86d7126329fc614&marker=-2.2147279,51.746526&level=17",0.19,not owned by a public authority,10,permissioned,,,,,,10,,"STROUD|Demolition of existing meeting hall, garage building, 2no.cottages and outbuildings. Construction of 12no. new houses.",2018-12-10,2019-12-01,,,
,,,,,,,,,,,,,,,,,,,https://digital-land.github.io/organisation/local-authority-eng/STO/,,BR076,Land adjacent to the White Lion Inn  Bristol Road  Cambridge,-2.3655274,51.730581,"https://stroud.maps.arcgis.com/apps/webappviewer/index.html?id=ce9765b5b8614d88a86d7126329fc614&marker=-2.3655274,51.730581&level=17",0.21,not owned by a public authority,6,permissioned,,,,,,6,,SLIMBRIDGE|Six dwellings,2018-12-10,2019-12-01,,,
,,,,,,,,,,,,,,,,,,,https://digital-land.github.io/organisation/local-authority-eng/STO/,,BR077,"Former garage site, Hillcrest Road Cashes Green GL5 4NE",-2.2468963,51.74889,"https://stroud.maps.arcgis.com/apps/webappviewer/index.html?id=ce9765b5b8614d88a86d7126329fc614&marker=-2.2468963,51.74889&level=17",0.09,owned by a public authority,,not permissioned,,,,,,8,,CAINSCROSS|Redevelopment of level former garage site to provide 6-8 dwellings,2018-12-10,2019-12-01,,,
,,,,,,,,,,,,,,,,,,,https://digital-land.github.io/organisation/local-authority-eng/STO/,,BR078,"Former garage site, Orchard Road, Ebley GL5 4UA",-2.2065233,51.745129,"https://stroud.maps.arcgis.com/apps/webappviewer/index.html?id=ce9765b5b8614d88a86d7126329fc614&marker=-2.2589946,51.741842&level=17",0.18,owned by a public authority,,not permissioned,,,,,,5,,CAINSCROSS|Redevelopment of former garages site to provide 5 dwellings,2018-12-10,2019-12-01,,,
,,,,,,,,,,,,,,,,,,,https://digital-land.github.io/organisation/local-authority-eng/STO/,,BR079,"Garages site adj 11 Queens Drive, Cashes Green GL5 4LY",-2.2589802,51.741851,"https://stroud.maps.arcgis.com/apps/webappviewer/index.html?id=ce9765b5b8614d88a86d7126329fc614&marker=-2.2449367,51.74813&level=17",0.15,owned by a public authority,,not permissioned,,,,,,5,,CAINSCROSS|Redevelopment of garages site to provide 5 dwellings,2018-12-10,2019-12-01,,,
,,,,,,,,,,,,,,,,,,,https://digital-land.github.io/organisation/local-authority-eng/STO/,,BR080,"Former garage site, Summersfield Rd, Minchinhampton",-2.2449367,51.74813,"https://stroud.maps.arcgis.com/apps/webappviewer/index.html?id=ce9765b5b8614d88a86d7126329fc614&marker=-2.1815787,51.708262&level=17",0.16,owned by a public authority,,not permissioned,,,,,,5,,MINCHINHAMPTON|Redevelopment of former garages site to provide 5 dwellings,2018-12-10,2019-12-01,,,
,,,,,,,,,,,,,,,,,,,https://digital-land.github.io/organisation/local-authority-eng/STO/,,BR081,"Garages, Nouncells Cross, Stroud, GL5 1PT",-2.1815643,51.708271,"https://stroud.maps.arcgis.com/apps/webappviewer/index.html?id=ce9765b5b8614d88a86d7126329fc614&marker=-2.2065378,51.745129&level=17",0.08,owned by a public authority,,not permissioned,,,,,,,,STROUD|Redevelopment of garages site to provide 5 dwellings,2018-12-10,2019-12-01,,,
,,,,,,,,,,,,,,,,,,,https://digital-land.github.io/organisation/local-authority-eng/STO/,,BR082,The Maltings  Merrywalks  Stroud,-2.2205748,51.745535,"https://stroud.maps.arcgis.com/apps/webappviewer/index.html?id=ce9765b5b8614d88a86d7126329fc614&marker=-2.2205748,51.745535&level=17",0.1,not owned by a public authority,,permissioned,,,,,,7,,STROUD|Conversion of restaurant into 7 flats,2019-12-01,2019-12-01,,,
,,,,,,,,,,,,,,,,,,,https://digital-land.github.io/organisation/local-authority-eng/STO/,,BR083,West End Plot at 73 Cainscross Road  Stroud,-2.2293488,51.744871,"https://stroud.maps.arcgis.com/apps/webappviewer/index.html?id=ce9765b5b8614d88a86d7126329fc614&marker=-2.2293488,51.744871&level=18",0.04,not owned by a public authority,,permissioned,,,,,,5,,STROUD|Five residential flats over three floors,2019-12-01,2019-12-01,,,
,,,,,,,,,,,,,,,,,,,https://digital-land.github.io/organisation/local-authority-eng/STO/,,BR084,The Maltings  Tetbury Lane  Nailsworth,-2.2182586,51.691745,"https://stroud.maps.arcgis.com/apps/webappviewer/index.html?id=ce9765b5b8614d88a86d7126329fc614&marker=-2.2182586,51.691745&level=19",0.16,not owned by a public authority,,permissioned,,,,,,13,,NAILSWORTH|Conversion of existing buildings to form 13 dwellings,2019-12-01,2019-12-01,,,
,,,,,,,,,,,,,,,,,,,https://digital-land.github.io/organisation/local-authority-eng/STO/,,BR085,"Magpies site, Oldends Lane",-2.2895483,51.75233,"https://stroud.maps.arcgis.com/apps/webappviewer/index.html?id=ce9765b5b8614d88a86d7126329fc614&marker=-2.2895483,51.752326&level=17",0.13,owned by a public authority,,not permissioned,,,,,,10,,STONEHOUSE|This site could be redeveloped for housing to secure the enhancement of existing and the provision of new community and open space uses.,2019-12-01,2019-12-01,,,
,,,,,,,,,,,,,,,,,,,https://digital-land.github.io/organisation/local-authority-eng/STO/,,BR086,"Land at Focus School, Wanswell",-2.4592766,51.7085,"https://stroud.maps.arcgis.com/apps/webappviewer/index.html?id=ce9765b5b8614d88a86d7126329fc614&marker=-2.4592766,51.708015&level=17",2.84,not owned by a public authority,,not permissioned,,,,,,70,,"HAMFALLOW|This site could be partially redeveloped for housing as part of a wider redevelopment scheme comprising up to 70 dwellings, community uses and open space, including the retention and enhancement of existing open space.",2019-12-01,2019-12-01,,,
