address,address-text,deliverable,end-date,entry-date,hazardous-substances,hectares,latitude,longitude,maximum-net-dwellings,minimum-net-dwellings,notes,organisation,ownership-status,planning-permission-date,planning-permission-history,planning-permission-status,planning-permission-type,site,OrganisationURI,OrganisationLabel,SiteReference,SiteNameAddress,GeoX,GeoY,SiteplanURL,Hectares,OwnershipStatus,HazardousSubstances,PlanningStatus,PermissionType,PermissionDate,PlanningHistory,MinNetDwellings,NetDwellingsRangeFrom,NetDwellingsRangeTo,Deliverable,Notes,FirstAddedDate,LastUpdatedDate,EndDate,site-plan-url,start-date
,,,,,,,,,,,,,,,,,,,http://opendatacommunities.org/id/unitary-authority/telford-and-wrekin,Telford & Wrekin Council,BR3,"""Grange Park Primary School, Calcott, Stirchley, Telford, Shropshire, TF3 1YQ""",370909,306755,http://www.telford.gov.uk/downloads/file/6576/br3_-_grange_park_primary_school,0.58,Owned by a public authority,,Permissioned,,,,37,,,,Prior approval permission granted for demolition of the primary school under planning application TWC/2017/0506,01/12/2016,01/12/2016,,,
,,,,,,,,,,,,,,,,,,,http://opendatacommunities.org/id/unitary-authority/telford-and-wrekin,Telford & Wrekin Council,BR4,"""Sutherland Co Operative Academy, Gibbons Road, Trench, Telford, Shropshire, TF2 7JR""",369884,312880,http://www.telford.gov.uk/downloads/file/6577/br4_-_sutherland_cooperative_academy,5.29,Owned by a public authority,,Permissioned,,,,123,,,,Reserved matters application TWC/2018/0865 submitted on 18/10/2018. Demolition determination permitted development granted under TWC/2015/0208.,01/12/2016,26/11/2018,,,
,,,,,,,,,,,,,,,,,,,http://opendatacommunities.org/id/unitary-authority/telford-and-wrekin,Telford & Wrekin Council,BR5,"""Land at Park Road, Dawley Bank, Telford, Shropshire""",368522,308617,http://www.telford.gov.uk/downloads/file/6578/br5_-_land_at_park_road_dawley_bank,0.54,Owned by a public authority,,Permissioned,,,,20,,,,,01/12/2016,01/12/2016,,,
,,,,,,,,,,,,,,,,,,,http://opendatacommunities.org/id/unitary-authority/telford-and-wrekin,Telford & Wrekin Council,BR6,"""Land back of Constitutional Hill, College, Masonic Building Constitution Hill, Wellington, Telford, Shropshire, TF1 3AY""",365373,311765,http://www.telford.gov.uk/downloads/file/6579/br6_-_land_back_of_constitutional_hil,0.253,Not owned by a public authority,,Permissioned,,,,4,,,,,01/12/2016,26/11/2018,,,
,,,,,,,,,,,,,,,,,,,http://opendatacommunities.org/id/unitary-authority/telford-and-wrekin,Telford & Wrekin Council,BR10,"""Old Park 1, Old Park Way""",368771,309180,http://www.telford.gov.uk/downloads/file/6580/br10_-_old_park_1_old_park_way,6,Owned by a public authority,,Not permissioned,,,,200,,,,Full permission granted for importation of clean soil to test ground stability TWC/2016/1119,01/12/2016,01/12/2016,,,
,,,,,,,,,,,,,,,,,,,http://opendatacommunities.org/id/unitary-authority/telford-and-wrekin,Telford & Wrekin Council,BR11,"""Land off Garfield Road, Mossey Green""",368460,310191,http://www.telford.gov.uk/downloads/file/6581/br11_-_land_off_garfield_road_mossey_green,1.052,Not owned by a public authority,,Permissioned,,,,30,,,,,01/12/2016,01/12/2016,,,
,,,,,,,,,,,,,,,,,,,http://opendatacommunities.org/id/unitary-authority/telford-and-wrekin,Telford & Wrekin Council,BR13,"""Land East of Fence Road""",367713,307939,http://www.telford.gov.uk/downloads/file/6582/br13_-_land_east_of_fence_road,0.43,Owned by a public authority,,Not permissioned,,,,13,,,,,01/12/2016,01/12/2016,,,
,,,,,,,,,,,,,,,,,,,http://opendatacommunities.org/id/unitary-authority/telford-and-wrekin,Telford & Wrekin Council,BR14,"""Granville Site, Donnington""",371245,312589,http://www.telford.gov.uk/downloads/file/6583/br14_-_granville_donnington,15.24,Owned by a public authority,,Not permissioned,,,,350,,,,Part of the site is a Local development Order proposed by the Council.,01/12/2016,26/11/2018,,,
,,,,,,,,,,,,,,,,,,,http://opendatacommunities.org/id/unitary-authority/telford-and-wrekin,Telford & Wrekin Council,BR15,"""Land fronting south side of Water Lane, Newport Shropshire TF10 7LD""",374557,319274,http://www.telford.gov.uk/downloads/file/6584/br15_-_land_fronting_south_side_of_water_lane,1.38,Not owned by a public authority,,pending decision,,,,67,,,,Part of site has planning application for Erection of 9no. dwellings and 3no. Flats.,01/12/2016,01/12/2017,,,
,,,,,,,,,,,,,,,,,,,http://opendatacommunities.org/id/unitary-authority/telford-and-wrekin,Telford & Wrekin Council,BR16,"""Old Park 2, Colliersway""",368957,309468,http://www.telford.gov.uk/downloads/file/6585/br16_-_old_park_2_colliersway,6.571,Owned by a public authority,,Not permissioned,,,,78,,,,Site allocated in the emerging Local Plan,01/12/2016,01/12/2016,,,
,,,,,,,,,,,,,,,,,,,http://opendatacommunities.org/id/unitary-authority/telford-and-wrekin,Telford & Wrekin Council,BR17,"""Land at Mossey Green Land off Garfield Road, Red Lake, Ketley Bank, Telford, Shropshire""",368525,310134,http://www.telford.gov.uk/downloads/file/6586/br17_-_land_at_mossey_green_land_off_garfield_road,0.607,Not owned by a public authority,,Permissioned,,,,20,,,,,01/12/2016,01/12/2017,,,
,,,,,,,,,,,,,,,,,,,http://opendatacommunities.org/id/unitary-authority/telford-and-wrekin,Telford & Wrekin Council,BR18,"""88-102 Potters Bank Holyhead Road Ketley Telford Shropshire""",368100,311056,http://www.telford.gov.uk/downloads/file/6587/br18_-_88-102_potters_bank_holyhead_road_ketley,0.64,Not owned by a public authority,,Permissioned,,,,12,,,,,01/12/2016,01/12/2017,,,
,,,,,,,,,,,,,,,,,,,http://opendatacommunities.org/id/unitary-authority/telford-and-wrekin,Telford & Wrekin Council,BR20,"""British Sugar, Allscott, Telford, Shropshire""",360676,312485,http://www.telford.gov.uk/downloads/file/6588/br20_-_british_sugar_allscott,30.279,Not owned by a public authority,,Permissioned,,,,470,,,,,01/12/2016,01/12/2016,,,
,,,,,,,,,,,,,,,,,,,http://opendatacommunities.org/id/unitary-authority/telford-and-wrekin,Telford & Wrekin Council,BR21,"""The Former Phoenix Secondary School, Manor Road, Dawley, Telford, Shropshire, TF4 3DZ""",368326,306785,http://www.telford.gov.uk/downloads/file/6589/br21_-_the_former_phoenix_secondary_school,2.7,Owned by a public authority,,Not permissioned,,,,231,,,,,01/12/2016,01/12/2016,,,
,,,,,,,,,,,,,,,,,,,http://opendatacommunities.org/id/unitary-authority/telford-and-wrekin,Telford & Wrekin Council,BR22,"""The Charlton School, Severn Drive, Dothill, Telford, Shropshire, TF1 3LE""",364764,313057,http://www.telford.gov.uk/downloads/file/6590/br22_-_the_charlton_school_severn_drive,2.016,Owned by a public authority,,Not permissioned,,,,200,,,,Outline application TWC/2018/0701 for up to 200 dwellings submitted.,01/12/2016,26/11/2018,,,
,,,,,,,,,,,,,,,,,,,http://opendatacommunities.org/id/unitary-authority/telford-and-wrekin,Telford & Wrekin Council,BR23,"""Concrete works, Pioneer Yard, Lightmoor Road, Lightmoor, Telford, Shropshire""",368043,305489,http://www.telford.gov.uk/downloads/file/6591/br23_-_concrete_works_pioneer_yard_lightmoor_road,2.015,Not owned by a public authority,,Permissioned,,,,52,,,,,01/12/2016,01/12/2017,,,
,,,,,,,,,,,,,,,,,,,http://opendatacommunities.org/id/unitary-authority/telford-and-wrekin,Telford & Wrekin Council,BR24,"""Land at Crudgington Dairy Crest Ltd, Crudgington, Telford, Shropshire, TF6 6HY""",362850,318133,http://www.telford.gov.uk/downloads/file/6592/br24_-_land_at_crudgington_dairy_crest_ltd,6.611,Not owned by a public authority,,Permissioned,,,,111,,,,Reserved matters application TWC/2018/0760 submitted.,01/12/2016,26/11/2018,,,
,,,,,,,,,,,,,,,,,,,http://opendatacommunities.org/id/unitary-authority/telford-and-wrekin,Telford & Wrekin Council,BR26,"""The Former Swan Centre, Grange Avenue, Stirchley, Telford, Shropshire, TF3 1UP""",370600,306671,http://www.telford.gov.uk/downloads/file/6593/br26_-_the_former_swan_centre,0.708,Owned by a public authority,,permissioned,,,,21,,,,Site is allocated in the emerging Local Plan,01/12/2016,01/12/2016,,,
,,,,,,,,,,,,,,,,,,,http://opendatacommunities.org/id/unitary-authority/telford-and-wrekin,Telford & Wrekin Council,BR27,"""Langley & St Leonard√≠s, Spout Lane, Malinslee""",369290,308388,http://www.telford.gov.uk/downloads/file/6594/br27_-_langley_and_st_leonard_s_spout_lane_malinslee,0.26,Owned by a public authority,,Not permissioned,,,,15,,,,Site is part of CTAAP allocation. Full planning application TWC/2018/0977 for 9 single storey dwellings submitted.,01/12/2017,26/11/2018,,,
,,,,,,,,,,,,,,,,,,,http://opendatacommunities.org/id/unitary-authority/telford-and-wrekin,Telford & Wrekin Council,BR28,"""Former Johnstone Pipes Enstone Precast""",367482,306633,http://www.telford.gov.uk/downloads/file/6595/br28_-_former_johnstone_pipes_enstone_precast,17.8,Not owned by a public authority,,Permissioned,,,,268,,,,Site is part of outline planning permission TWC/2012/0650. TWC/2016/0293 is the reserved matters approval.,01/12/2017,01/12/2017,,,
,,,,,,,,,,,,,,,,,,,http://opendatacommunities.org/id/unitary-authority/telford-and-wrekin,Telford & Wrekin Council,BR29,"""Maxell Expansion Land""",365106,313444,http://www.telford.gov.uk/downloads/file/6596/br29_-_maxell_expansion_land,5.53,Not owned by a public authority,,Permissioned,,,,138,,,,Reserved matters TWC/2018/0360 for part of the site submitted.,01/12/2017,26/11/2018,,,
,,,,,,,,,,,,,,,,,,,http://opendatacommunities.org/id/unitary-authority/telford-and-wrekin,Telford & Wrekin Council,BR30,"""Paddock Mount, Hinkshay Road""",368962,307333,http://www.telford.gov.uk/downloads/file/6598/br30_-_paddock_mount_hinkshay_road,12.61,Owned by a public authority,,Permissioned,,,,315,,,,,01/12/2017,01/12/2017,,,
,,,,,,,,,,,,,,,,,,,http://opendatacommunities.org/id/unitary-authority/telford-and-wrekin,Telford & Wrekin Council,BR31,"""Transport depot off Holywell Lane""",367798,306179,http://www.telford.gov.uk/downloads/file/6597/br31_-_transport_depot_off_holywell_lane,0.76,Not owned by a public authority,,Permissioned,,,,17,,,,,01/12/2017,26/11/2018,,,
,,,,,,,,,,,,,,,,,,,http://opendatacommunities.org/id/unitary-authority/telford-and-wrekin,Telford & Wrekin Council,BR32,"""MOD Donnington, Telford""",369445,314800,http://www.telford.gov.uk/downloads/file/6599/br32_-_mod_donnington_telford,2.08,Owned by a public authority,,Not permissioned,,,,166,,,,Site reduced to remove parts outside the built up area boundary.,01/12/2017,01/12/2017,,,
,,,,,,,,,,,,,,,,,,,http://opendatacommunities.org/id/unitary-authority/telford-and-wrekin,Telford & Wrekin Council,BR33,"""Land off Lightmoor Road, Telford""",368012,305393,http://www.telford.gov.uk/downloads/file/6600/br33_-_land_off_lightmoor_road,0.8,Not owned by a public authority,,Not permissioned,,,,24,,,,,01/12/2017,01/12/2017,,,
,,,,,,,,,,,,,,,,,,,http://opendatacommunities.org/id/unitary-authority/telford-and-wrekin,Telford & Wrekin Council,BR34,"""Site of Oakleigh, Lawley Village, Telford, Shropshire""",366979,308701,http://www.telford.gov.uk/downloads/file/6601/br34_-_site_of_oakleigh_lawley_village,0.2,Not owned by a public authority,,Permissioned,,,,5,,,,,01/12/2017,01/12/2017,,,
,,,,,,,,,,,,,,,,,,,http://opendatacommunities.org/id/unitary-authority/telford-and-wrekin,Telford & Wrekin Council,BR37,"""Site of former All Labour in Vain, Wellington Road, Horsehay, Telford, Shropshire""",366983,307021,http://www.telford.gov.uk/downloads/file/6604/br37_-_site_of_former_all_labour_in_vain_wellington_road,0.357,Not owned by a public authority,,Permissioned,,,,9,,,,,01/12/2017,01/12/2017,,,
,,,,,,,,,,,,,,,,,,,http://opendatacommunities.org/id/unitary-authority/telford-and-wrekin,Telford & Wrekin Council,BR38,"""Site of Sundown, Old Office Road, Dawley, Telford, Shropshire""",367900,308063,http://www.telford.gov.uk/downloads/file/6605/br38_-_site_of_sundown_old_office_road_dawley,0.178,Not owned by a public authority,,Permissioned,,,,8,,,,,01/12/2017,01/12/2017,,,
,,,,,,,,,,,,,,,,,,,http://opendatacommunities.org/id/unitary-authority/telford-and-wrekin,Telford & Wrekin Council,BR39,"""Site of The Stafford Arms, Main Road, Ketley Bank, Telford, Shropshire""",369458,310166,http://www.telford.gov.uk/downloads/file/6606/br39_-_site_of_the_stafford_arms,0.093,Not owned by a public authority,,Permissioned,,,,6,,,,,01/12/2017,01/12/2017,,,
,,,,,,,,,,,,,,,,,,,http://opendatacommunities.org/id/unitary-authority/telford-and-wrekin,Telford & Wrekin Council,BR40,"""Reynolds House, Ironmasters Way, Telford Town Centre, Telford, Shropshire, TF3 4NT""",370083,309145,http://www.telford.gov.uk/downloads/file/6607/br40_-_reynolds_house_ironmasters_way,0.403,Not owned by a public authority,,Permissioned,,,,68,,,,Change Of Use Determination Prior Approval TWC/2016/0980,01/12/2017,01/12/2017,,,
,,,,,,,,,,,,,,,,,,,http://opendatacommunities.org/id/unitary-authority/telford-and-wrekin,Telford & Wrekin Council,BR41,"""Former Severn Valley Motorsport Ltd/Madeley Testing Station, Ironbridge Road, Madeley, Telford, Shropshire""",368903,304246,http://www.telford.gov.uk/downloads/file/6608/br41_-_former_severn_valley_motorsport_ltd,0.157,Not owned by a public authority,,Permissioned,,,,8,,,,,01/12/2017,01/12/2017,,,
,,,,,,,,,,,,,,,,,,,http://opendatacommunities.org/id/unitary-authority/telford-and-wrekin,Telford & Wrekin Council,BR42,"""Parkland House, Audley Avenue Industrial Park, Audley Avenue, Newport, Shropshire""",375650,318522,http://www.telford.gov.uk/downloads/file/6609/br42_-_parkland_house_audley_avenue_industrial_park,0.248,Not owned by a public authority,,Permissioned,,,,6,,,,Part of planning permission TWC/2016/1152 for 61dwellings,01/12/2017,26/11/2018,,,
,,,,,,,,,,,,,,,,,,,http://opendatacommunities.org/id/unitary-authority/telford-and-wrekin,Telford & Wrekin Council,BR43,"""Wesley House, 4 Station Hill, St Georges, Telford, TF2 9AA""",369874,310933,http://www.telford.gov.uk/downloads/file/6610/br43_-_wesley_house_4_station_hill,0.15,Owned by a public authority,,Permissioned,,,,10,,,,,01/12/2017,01/12/2017,,,
,,,,,,,,,,,,,,,,,,,http://opendatacommunities.org/id/unitary-authority/telford-and-wrekin,Telford & Wrekin Council,BR44,"""Former Garage, New Street, St Georges, Telford, Shropshire""",370484,310934,http://www.telford.gov.uk/downloads/file/6611/br44_-_former_garage_new_street_st_georges,0.13,Not owned by a public authority,,Permissioned,,,,6,,,,,01/12/2017,01/12/2017,,,
,,,,,,,,,,,,,,,,,,,http://opendatacommunities.org/id/unitary-authority/telford-and-wrekin,Telford & Wrekin Council,BR45,"Randlay Centre, Randlay Community Centre, Randlay, Telford, Shropshire.",370432,307532,http://www.telford.gov.uk/downloads/file/6612/br45_-_randlay_centre_randlay_community_centre,0.564,mixed ownership,,Permissioned,,,,8,,,,,01/12/2017,01/12/2017,,,
,,,,,,,,,,,,,,,,,,,http://opendatacommunities.org/id/unitary-authority/telford-and-wrekin,Telford & Wrekin Council,BR46,"""Site of Simply The Best Valeting, Plough Road, Wrockwardine Wood, Telford, Shropshire""",370153,312324,http://www.telford.gov.uk/downloads/file/6613/br46_-_site_of_simply_the_best_valeting_plough_road,0.121,Not owned by a public authority,,Permissioned,,,,5,,,,,01/12/2017,01/12/2017,,,
,,,,,,,,,,,,,,,,,,,http://opendatacommunities.org/id/unitary-authority/telford-and-wrekin,Telford & Wrekin Council,BR48,"""Land at junction of, Moss Road/Rookery Road, Wrockwardine Wood, Telford, Shropshire""",370528,311672,http://www.telford.gov.uk/downloads/file/7999/br48_-_land_at_junction_of_moss_roadrookery_road,0.35,Not owned by a public authority,,Permissioned,,,,24,,,,,26/11/2018,26/11/2018,,,
,,,,,,,,,,,,,,,,,,,http://opendatacommunities.org/id/unitary-authority/telford-and-wrekin,Telford & Wrekin Council,BR49,"""Land south and west of Tibberton Motor Repairs, Mill Lane, Tibberton, Newport, Shropshire""",368043,320440,http://www.telford.gov.uk/downloads/file/8000/br49_-_land_south_and_west_of_tibberton_motor_repairs_mill_lane_tibberton,0.333,Not owned by a public authority,,Permissioned,,,,10,,,,,26/11/2018,26/11/2018,,,
,,,,,,,,,,,,,,,,,,,http://opendatacommunities.org/id/unitary-authority/telford-and-wrekin,Telford & Wrekin Council,BR50,"""Site of The Queens Arms, Bank Road, Dawley Bank, Telford, Shropshire""",368452,308285,http://www.telford.gov.uk/downloads/file/8001/br50_-_site_of_the_queens_arms_bank_road_dawley_bank,0.45,Not owned by a public authority,,Permissioned,,,,10,,,,,26/11/2018,26/11/2018,,,
,,,,,,,,,,,,,,,,,,,http://opendatacommunities.org/id/unitary-authority/telford-and-wrekin,Telford & Wrekin Council,BR51,"""Units 7 - 9, Gower Street Trading Estate, Gower Street, St Georges, Telford, Shropshire, TF2 9HW""",370512,311209,http://www.telford.gov.uk/downloads/file/8002/br51_-_units_7_-_9_gower_street_trading_estate_gower_street_st_georges,0.27,Not owned by a public authority,,Permissioned,,,,20,,,,,26/11/2018,26/11/2018,,,
,,,,,,,,,,,,,,,,,,,http://opendatacommunities.org/id/unitary-authority/telford-and-wrekin,Telford & Wrekin Council,BR52,"""Site of Peter Morris Cars, Wellington, Telford, Shropshire""",364926,311412,http://www.telford.gov.uk/downloads/file/8003/br52_-_site_of_peter_morris_cars_wellington_telford,0.16,Not owned by a public authority,,Permissioned,,,,14,,,,,26/11/2018,26/11/2018,,,
