address,address-text,deliverable,end-date,entry-date,hazardous-substances,hectares,latitude,longitude,maximum-net-dwellings,minimum-net-dwellings,notes,organisation,ownership-status,planning-permission-date,planning-permission-history,planning-permission-status,planning-permission-type,site,OrganisationURI,OrganisationLabel,SiteReference,SiteNameAddress,GeoX,GeoY,SiteplanURL,Hectares,OwnershipStatus,HazardousSubstances,PlanningStatus,PermissionType,PermissionDate,PlanningHistory,MinNetDwellings,NetDwellingsRangeFrom,NetDwellingsRangeTo,Deliverable,Notes,FirstAddedDate,LastUpdatedDate,EndDate,site-plan-url,start-date
,,,,,,,,,,,,,,,,,,,http://opendatacommunities.org/id/metropolitan-district-council/barnsley,Barnsley Metropolitan Borough Council,H1343,"Land off Wentworth Road, Mapplewell, Barnsley",433386.132,409506.019,https://www.barnsley.gov.uk/services/planning-and-buildings/local-planning-and-development/brownfield-land-register/,0.5,unknown ownership,,permissioned,,,,25,,25,,,02/08/2017,02/08/2017,,,
,,,,,,,,,,,,,,,,,,,http://opendatacommunities.org/id/metropolitan-district-council/barnsley,Barnsley Metropolitan Borough Council,H1628,"Grove street junior & infant school, grasmere road, barnsley, south yorkshire, s71 1es",435234.972,406315.443,https://www.barnsley.gov.uk/services/planning-and-buildings/local-planning-and-development/brownfield-land-register/,0.5,unknown ownership,,permissioned,,,,32,,32,,,02/08/2017,02/08/2017,,,
,,,,,,,,,,,,,,,,,,,http://opendatacommunities.org/id/metropolitan-district-council/barnsley,Barnsley Metropolitan Borough Council,H1916,"The lundwood, pontefract road, lundwood, barnsley",437475.32,407477.69,https://www.barnsley.gov.uk/services/planning-and-buildings/local-planning-and-development/brownfield-land-register/,0.3,unknown ownership,,permissioned,,,,14,,14,,,02/08/2017,02/08/2017,,,
,,,,,,,,,,,,,,,,,,,http://opendatacommunities.org/id/metropolitan-district-council/barnsley,Barnsley Metropolitan Borough Council,H1973,"Land at School Street, Bolton upon Dearne, Barnsley, South Yorkshire",445483.517,402714.743,https://www.barnsley.gov.uk/services/planning-and-buildings/local-planning-and-development/brownfield-land-register/,0.3,unknown ownership,,permissioned,,,,14,,14,,,02/08/2017,02/08/2017,,,
,,,,,,,,,,,,,,,,,,,http://opendatacommunities.org/id/metropolitan-district-council/barnsley,Barnsley Metropolitan Borough Council,H2198,"G m asquith fabrications ltd, beever street, goldthorpe, rotherham, s63 9ht",446599.247,404269.238,https://www.barnsley.gov.uk/services/planning-and-buildings/local-planning-and-development/brownfield-land-register/,0.3,unknown ownership,,permissioned,,,,11,,11,,,02/08/2017,02/08/2017,,,
,,,,,,,,,,,,,,,,,,,http://opendatacommunities.org/id/metropolitan-district-council/barnsley,Barnsley Metropolitan Borough Council,H2237,"Penistone coal drops, st. Mary's street penistone sheffield S36 6DT",424401.497,403408.085,https://www.barnsley.gov.uk/services/planning-and-buildings/local-planning-and-development/brownfield-land-register/,0.6,unknown ownership,,permissioned,,,,15,,15,,,02/08/2017,02/08/2017,,,
,,,,,,,,,,,,,,,,,,,http://opendatacommunities.org/id/metropolitan-district-council/barnsley,Barnsley Metropolitan Borough Council,H2256,"Belle vue house, cockerham lane, barnsley, s75 1at",434253.059,407198.92,https://www.barnsley.gov.uk/services/planning-and-buildings/local-planning-and-development/brownfield-land-register/,1.9,unknown ownership,,permissioned,,,,22,,22,,,02/08/2017,02/08/2017,,,
,,,,,,,,,,,,,,,,,,,http://opendatacommunities.org/id/metropolitan-district-council/barnsley,Barnsley Metropolitan Borough Council,H2260,"Land at High Street, Royston, Barnsley",435886.497,411375.044,https://www.barnsley.gov.uk/services/planning-and-buildings/local-planning-and-development/brownfield-land-register/,1,unknown ownership,,permissioned,,,,10,,10,,,02/08/2017,02/08/2017,,,
,,,,,,,,,,,,,,,,,,,http://opendatacommunities.org/id/metropolitan-district-council/barnsley,Barnsley Metropolitan Borough Council,H2281,"Bolton hall nursing home, carr head lane, bolton upon dearne, rotherham, s63 8da",445047.155,402709.245,https://www.barnsley.gov.uk/services/planning-and-buildings/local-planning-and-development/brownfield-land-register/,1.2,unknown ownership,,permissioned,,,,28,,28,,,02/08/2017,02/08/2017,,,
,,,,,,,,,,,,,,,,,,,http://opendatacommunities.org/id/metropolitan-district-council/barnsley,Barnsley Metropolitan Borough Council,H2317,"Pearson Crescent, Barnsley, South Yorkshire, S73 8sq",438521.692,403876.181,https://www.barnsley.gov.uk/services/planning-and-buildings/local-planning-and-development/brownfield-land-register/,0.2,unknown ownership,,permissioned,,,,3,,3,,,02/08/2017,02/08/2017,,,
,,,,,,,,,,,,,,,,,,,http://opendatacommunities.org/id/metropolitan-district-council/barnsley,Barnsley Metropolitan Borough Council,H2322,"Land adjacent, 28 greenfoot lane, old town, barnsley, s75 2sy",433462.069,407103.197,https://www.barnsley.gov.uk/services/planning-and-buildings/local-planning-and-development/brownfield-land-register/,0.3,unknown ownership,,permissioned,,,,8,,8,,,02/08/2017,02/08/2017,,,
,,,,,,,,,,,,,,,,,,,http://opendatacommunities.org/id/metropolitan-district-council/barnsley,Barnsley Metropolitan Borough Council,H2371,"Site of former longcar conference centre, longcar lane, barnsley, s70 6bb",433914.146,405703.168,https://www.barnsley.gov.uk/services/planning-and-buildings/local-planning-and-development/brownfield-land-register/,0.9,unknown ownership,,permissioned,,,,32,,32,,,02/08/2017,02/08/2017,,,
,,,,,,,,,,,,,,,,,,,http://opendatacommunities.org/id/metropolitan-district-council/barnsley,Barnsley Metropolitan Borough Council,H2389,"Land at Sandygate Lane, Stairfoot, Barnsley, South Yorkshire, S71 5AW",437441.565,405508.744,https://www.barnsley.gov.uk/services/planning-and-buildings/local-planning-and-development/brownfield-land-register/,0.5,unknown ownership,,permissioned,,,,14,,14,,,02/08/2017,02/08/2017,,,
,,,,,,,,,,,,,,,,,,,http://opendatacommunities.org/id/metropolitan-district-council/barnsley,Barnsley Metropolitan Borough Council,H2441,"The former three Horseshoes Public House, Barnsley Road, Brierley, Barnsley, S72 9JT",440712.347,411230.666,https://www.barnsley.gov.uk/services/planning-and-buildings/local-planning-and-development/brownfield-land-register/,0.3,unknown ownership,,permissioned,,,,9,,9,,,02/08/2017,02/08/2017,,,
,,,,,,,,,,,,,,,,,,,http://opendatacommunities.org/id/metropolitan-district-council/barnsley,Barnsley Metropolitan Borough Council,H2447,"West street, worsbrough dale, barnsley",435874.277,403655.304,https://www.barnsley.gov.uk/services/planning-and-buildings/local-planning-and-development/brownfield-land-register/,1.5,unknown ownership,,permissioned,,,,70,,70,,,02/08/2017,02/08/2017,,,
,,,,,,,,,,,,,,,,,,,http://opendatacommunities.org/id/metropolitan-district-council/barnsley,Barnsley Metropolitan Borough Council,H2129,"Willowgarth high school, brierley road, grimethorpe, barnsley, s72 7aj",441203.662,410165.711,https://www.barnsley.gov.uk/services/planning-and-buildings/local-planning-and-development/brownfield-land-register/,4.3,unknown ownership,,permissioned,,,,136,,136,,,02/08/2017,02/08/2017,,,
,,,,,,,,,,,,,,,,,,,http://opendatacommunities.org/id/metropolitan-district-council/barnsley,Barnsley Metropolitan Borough Council,H0214,"Foundry street, elsecar",438118.451,400215.049,https://www.barnsley.gov.uk/services/planning-and-buildings/local-planning-and-development/brownfield-land-register/,0.5,unknown ownership,,not permissioned,,,,2,,2,,,02/08/2017,02/08/2017,,,
,,,,,,,,,,,,,,,,,,,http://opendatacommunities.org/id/metropolitan-district-council/barnsley,Barnsley Metropolitan Borough Council,H0594,"Market street, goldthorpe, south yorkshire, s63 9nq",446294.534,404233.149,https://www.barnsley.gov.uk/services/planning-and-buildings/local-planning-and-development/brownfield-land-register/,0.4,unknown ownership,,not permissioned,,,,6,,6,,,02/08/2017,02/08/2017,,,
,,,,,,,,,,,,,,,,,,,http://opendatacommunities.org/id/metropolitan-district-council/barnsley,Barnsley Metropolitan Borough Council,H0819,"82 bondfield crescent, wombwell, barnsley, s73 8tl",439564.973,402901.32,https://www.barnsley.gov.uk/services/planning-and-buildings/local-planning-and-development/brownfield-land-register/,1.8,unknown ownership,,not permissioned,,,,60,,60,,,02/08/2017,02/08/2017,,,
,,,,,,,,,,,,,,,,,,,http://opendatacommunities.org/id/metropolitan-district-council/barnsley,Barnsley Metropolitan Borough Council,H1162,"'Fighting cocks', wombwell road, hoyland, barnsley",437132.243,401341.037,https://www.barnsley.gov.uk/services/planning-and-buildings/local-planning-and-development/brownfield-land-register/,0.3,unknown ownership,,not permissioned,,,,21,,21,,,02/08/2017,02/08/2017,,,
,,,,,,,,,,,,,,,,,,,http://opendatacommunities.org/id/metropolitan-district-council/barnsley,Barnsley Metropolitan Borough Council,H1290,"Corner of wood street/heelis street, barnsley",434511.517,405848.416,https://www.barnsley.gov.uk/services/planning-and-buildings/local-planning-and-development/brownfield-land-register/,0.9,unknown ownership,,not permissioned,,,,21,,21,,,02/08/2017,02/08/2017,,,
,,,,,,,,,,,,,,,,,,,http://opendatacommunities.org/id/metropolitan-district-council/barnsley,Barnsley Metropolitan Borough Council,H1388,"Land off station road, wombwell, barnsley, south yorkshire, s73 0bn",440470.536,403622.973,https://www.barnsley.gov.uk/services/planning-and-buildings/local-planning-and-development/brownfield-land-register/,3.7,unknown ownership,,not permissioned,,,,95,,95,,,02/08/2017,02/08/2017,,,
,,,,,,,,,,,,,,,,,,,http://opendatacommunities.org/id/metropolitan-district-council/barnsley,Barnsley Metropolitan Borough Council,H1351,"Hoyle mill, pontefract road, barnsley.",435929.42,406342.925,https://www.barnsley.gov.uk/services/planning-and-buildings/local-planning-and-development/brownfield-land-register/,0.5,unknown ownership,,not permissioned,,,,42,,42,,,02/08/2017,02/08/2017,,,
,,,,,,,,,,,,,,,,,,,http://opendatacommunities.org/id/metropolitan-district-council/barnsley,Barnsley Metropolitan Borough Council,H1401,"Land to the rear of 6 clayton lane, thurnscoe, rotherham, s63 0ru",444833.592,405901.521,https://www.barnsley.gov.uk/services/planning-and-buildings/local-planning-and-development/brownfield-land-register/,0.3,unknown ownership,,not permissioned,,,,10,,10,,,02/08/2017,02/08/2017,,,
,,,,,,,,,,,,,,,,,,,http://opendatacommunities.org/id/metropolitan-district-council/barnsley,Barnsley Metropolitan Borough Council,H1477,"Land at 116 upper hoyland road, hoyland, barnsley.",436150.644,401267.698,https://www.barnsley.gov.uk/services/planning-and-buildings/local-planning-and-development/brownfield-land-register/,0.3,unknown ownership,,not permissioned,,,,11,,11,,,02/08/2017,02/08/2017,,,
,,,,,,,,,,,,,,,,,,,http://opendatacommunities.org/id/metropolitan-district-council/barnsley,Barnsley Metropolitan Borough Council,H1489,"47 victoria road, barnsley",433969.47,406807.612,https://www.barnsley.gov.uk/services/planning-and-buildings/local-planning-and-development/brownfield-land-register/,0.3,unknown ownership,,not permissioned,,,,21,,21,,,02/08/2017,02/08/2017,,,
,,,,,,,,,,,,,,,,,,,http://opendatacommunities.org/id/metropolitan-district-council/barnsley,Barnsley Metropolitan Borough Council,H1541,"Steadhaven resource centre, bellwood crescent, hoyland, barn",436318.29,400313.241,https://www.barnsley.gov.uk/services/planning-and-buildings/local-planning-and-development/brownfield-land-register/,0.4,unknown ownership,,not permissioned,,,,19,,19,,,02/08/2017,02/08/2017,,,
,,,,,,,,,,,,,,,,,,,http://opendatacommunities.org/id/metropolitan-district-council/barnsley,Barnsley Metropolitan Borough Council,H1740,"155 wakefield road, barnsley, s71 1ng",435051.123,408169.092,https://www.barnsley.gov.uk/services/planning-and-buildings/local-planning-and-development/brownfield-land-register/,0.3,unknown ownership,,not permissioned,,,,24,,24,,,02/08/2017,02/08/2017,,,
,,,,,,,,,,,,,,,,,,,http://opendatacommunities.org/id/metropolitan-district-council/barnsley,Barnsley Metropolitan Borough Council,AC1,Former woolley colliery,431176.695,410780.105,https://www.barnsley.gov.uk/services/planning-and-buildings/local-planning-and-development/brownfield-land-register/,4.1,not owned by a public authority,,not permissioned,,,,86,,86,,,02/08/2017,02/08/2017,,,
,,,,,,,,,,,,,,,,,,,http://opendatacommunities.org/id/metropolitan-district-council/barnsley,Barnsley Metropolitan Borough Council,AC3,"Former william freeman site, wakefield road",434010.02,409925.789,https://www.barnsley.gov.uk/services/planning-and-buildings/local-planning-and-development/brownfield-land-register/,4.4,not owned by a public authority,,not permissioned,,,,131,,131,,,02/08/2017,02/08/2017,,,
,,,,,,,,,,,,,,,,,,,http://opendatacommunities.org/id/metropolitan-district-council/barnsley,Barnsley Metropolitan Borough Council,H55,Site at Brunswick Street,446492.993,406322.141,https://www.barnsley.gov.uk/services/planning-and-buildings/local-planning-and-development/brownfield-land-register/,1.4,mixed ownership,,not permissioned,,,,45,,45,,,02/08/2017,02/08/2017,,,
,,,,,,,,,,,,,,,,,,,http://opendatacommunities.org/id/metropolitan-district-council/barnsley,Barnsley Metropolitan Borough Council,311,Site South of King Street,445987.562,405376.142,https://www.barnsley.gov.uk/services/planning-and-buildings/local-planning-and-development/brownfield-land-register/,0.7,owned by a public authority,,not permissioned,,,,25,,25,,,02/08/2017,02/08/2017,,,
,,,,,,,,,,,,,,,,,,,http://opendatacommunities.org/id/metropolitan-district-council/barnsley,Barnsley Metropolitan Borough Council,H64,Former kings road school site,440009.777,402708.125,https://www.barnsley.gov.uk/services/planning-and-buildings/local-planning-and-development/brownfield-land-register/,0.8,not owned by a public authority,,not permissioned,,,,29,,29,,,02/08/2017,02/08/2017,,,
,,,,,,,,,,,,,,,,,,,http://opendatacommunities.org/id/metropolitan-district-council/barnsley,Barnsley Metropolitan Borough Council,308,Site at new street,441415.643,404196.819,https://www.barnsley.gov.uk/services/planning-and-buildings/local-planning-and-development/brownfield-land-register/,1.1,not owned by a public authority,,not permissioned,,,,35,,35,,,02/08/2017,02/08/2017,,,
,,,,,,,,,,,,,,,,,,,http://opendatacommunities.org/id/metropolitan-district-council/barnsley,Barnsley Metropolitan Borough Council,H29,Site at Garden House Farm,436263.922,408054.145,https://www.barnsley.gov.uk/services/planning-and-buildings/local-planning-and-development/brownfield-land-register/,1.2,mixed ownership,,not permissioned,,,,38,,38,,"Garden House Farm, Garden House Close, Monk Bretton.  This brownfield site is part of a wider site (H29) proposed for housing in the Local Plan Publication Draft 2016.  It is not anticipated that the part of the site included on the brownfield register be developed in isolation from the wider site.",02/08/2017,02/08/2017,,,
,,,,,,,,,,,,,,,,,,,http://opendatacommunities.org/id/metropolitan-district-council/barnsley,Barnsley Metropolitan Borough Council,AC30,Land at Tankersley Lane,435566.844,400036.64,https://www.barnsley.gov.uk/services/planning-and-buildings/local-planning-and-development/brownfield-land-register/,0.9,mixed ownership,,not permissioned,,,,32,,32,,Land at Tankersley Lane.  This brownfield site is part of a wider site (AC30) proposed for housing in the Local Plan Publication Draft 2016.  It is not anticipated that the part of the site included on the brownfield register be developed in isolation from the wider site.  The proposed policy also requires any development to be the subject to the production of a masterplan covering the entire site and also proposed employment site reference HOY1.,02/08/2017,02/08/2017,,,
,,,,,,,,,,,,,,,,,,,http://opendatacommunities.org/id/metropolitan-district-council/barnsley,Barnsley Metropolitan Borough Council,H1,"Former Reema Estate and adjoining land, off School Street",445779.547,406116.76,https://www.barnsley.gov.uk/services/planning-and-buildings/local-planning-and-development/brownfield-land-register/,7,owned by a public authority,,not permissioned,,,,224,,224,,"Former Reema Estate and adjoining land, off School Street, Thurnscoe. This brownfield site is part of a wider site (H1) proposed for housing in the Local Plan Publication Draft 2016.  It is not anticipated that the part of the site included on the brownfield register be developed in isolation from the wider site.",02/08/2017,02/08/2017,,,
,,,,,,,,,,,,,,,,,,,http://opendatacommunities.org/id/metropolitan-district-council/barnsley,Barnsley Metropolitan Borough Council,H22,Site at Blacker Lane,439293.9,411438.276,https://www.barnsley.gov.uk/services/planning-and-buildings/local-planning-and-development/brownfield-land-register/,0.9,not owned by a public authority,,not permissioned,,,,32,,32,,"Land north of Blacker Lane, Shafton.  This brownfield site is part of a wider site (H22) proposed for housing in the Local Plan Publication Draft 2016.  It is not anticipated that the part of the site included on the brownfield register be developed in isolation from the wider site.",02/08/2017,02/08/2017,,,
,,,,,,,,,,,,,,,,,,,http://opendatacommunities.org/id/metropolitan-district-council/barnsley,Barnsley Metropolitan Borough Council,AC16,Land off Broadway,433241.992,405606.925,https://www.barnsley.gov.uk/services/planning-and-buildings/local-planning-and-development/brownfield-land-register/,5.8,mixed ownership,,not permissioned,,,,186,,186,,,02/08/2017,02/08/2017,,,
,,,,,,,,,,,,,,,,,,,http://opendatacommunities.org/id/metropolitan-district-council/barnsley,Barnsley Metropolitan Borough Council,AC40,Former wombwell high school,440222.822,402382.259,https://www.barnsley.gov.uk/services/planning-and-buildings/local-planning-and-development/brownfield-land-register/,9.8,owned by a public authority,,not permissioned,,,,250,,250,,,02/08/2017,02/08/2017,,,
,,,,,,,,,,,,,,,,,,,http://opendatacommunities.org/id/metropolitan-district-council/barnsley,Barnsley Metropolitan Borough Council,H41,Site of the former Foulstone School,441556.996,404405.469,https://www.barnsley.gov.uk/services/planning-and-buildings/local-planning-and-development/brownfield-land-register/,1.6,owned by a public authority,,not permissioned,,,,51,,51,,The former Foulstone School.  This brownfield site is part of a wider site (H41) proposed for housing in the Local Plan Publication Draft 2016.  The proposed policy also requires any development to investigate options for either a small scale convenience shop that is in compliance with Local Plan Policy TC5 Local Shops or an extension to Darfield Local Centre that is in compliance with local and national policy to protect town centres.,02/08/2017,02/08/2017,,,
,,,,,,,,,,,,,,,,,,,http://opendatacommunities.org/id/metropolitan-district-council/barnsley,Barnsley Metropolitan Borough Council,H52,Site south of beever street,446561.385,404234.668,https://www.barnsley.gov.uk/services/planning-and-buildings/local-planning-and-development/brownfield-land-register/,0.6,mixed ownership,,not permissioned,,,,22,,22,,Land South of Beever Street Goldthorpe.  This brownfield site is part of a wider site (H52) proposed for housing in the Local Plan Publication Draft 2016.,02/08/2017,02/08/2017,,,
,,,,,,,,,,,,,,,,,,,http://opendatacommunities.org/id/metropolitan-district-council/barnsley,Barnsley Metropolitan Borough Council,AC12,"Land at Shaw Lane, Carlton",437475.452,409923.8,https://www.barnsley.gov.uk/services/planning-and-buildings/local-planning-and-development/brownfield-land-register/,8.7,mixed ownership,,not permissioned,,,,278,,278,,,02/08/2017,02/08/2017,,,
,,,,,,,,,,,,,,,,,,,http://opendatacommunities.org/id/metropolitan-district-council/barnsley,Barnsley Metropolitan Borough Council,355,"Land at Locksley Gardens, Birdwell",434822.5,400714.2,https://www.barnsley.gov.uk/services/planning-and-buildings/local-planning-and-development/brownfield-land-register/,0.27,not owned by a public authority,,not permissioned,,,,10,,10,,,10/08/2017,10/08/2017,,,
,,,,,,,,,,,,,,,,,,,http://opendatacommunities.org/id/metropolitan-district-council/barnsley,Barnsley Metropolitan Borough Council,AC44,"Oughtbridge mill, oughtbridge",430309.9,394339.5,https://www.barnsley.gov.uk/services/planning-and-buildings/local-planning-and-development/brownfield-land-register/,9,not owned by a public authority,,permissioned,,,,320,,320,,"The application is for around 320 dwellings for a wider site, incorporating land within in Sheffield City Council.",10/08/2017,10/08/2017,,,
,,,,,,,,,,,,,,,,,,,http://opendatacommunities.org/id/metropolitan-district-council/barnsley,Barnsley Metropolitan Borough Council,H2474,"Grove street, barnsley",430370,394070,https://www.barnsley.gov.uk/services/planning-and-buildings/local-planning-and-development/brownfield-land-register/,0.5,unknown ownership,,not permissioned,,,,12,,12,,,10/08/2017,10/08/2017,,,
,,,,,,,,,,,,,,,,,,,http://opendatacommunities.org/id/metropolitan-district-council/barnsley,Barnsley Metropolitan Borough Council,Town Centre Development Site 2,Southern fringe development site,434614.1,405928.2,https://www.barnsley.gov.uk/services/planning-and-buildings/local-planning-and-development/brownfield-land-register/,2.5,mixed ownership,,not permissioned,,,,75,,100,,,10/08/2017,10/08/2017,,,
,,,,,,,,,,,,,,,,,,,http://opendatacommunities.org/id/metropolitan-district-council/barnsley,Barnsley Metropolitan Borough Council,Town Centre Development Site 3,Courthouse campus,434566.8,406724.5,https://www.barnsley.gov.uk/services/planning-and-buildings/local-planning-and-development/brownfield-land-register/,4.6,owned by a public authority,,not permissioned,,,,125,,150,,,10/08/2017,10/08/2017,,,
,,,,,,,,,,,,,,,,,,,http://opendatacommunities.org/id/metropolitan-district-council/barnsley,Barnsley Metropolitan Borough Council,H0602,"FORMER REMPLOY SITE, WEST ROAD, POGMOOR, BARNSLEY.",432942.5,406604.6,https://www.barnsley.gov.uk/services/planning-and-buildings/local-planning-and-development/brownfield-land-register/,0.4,unknown ownership,,permissioned,,,,33,,33,,,10/08/2017,10/08/2017,,,
