address,address-text,deliverable,end-date,entry-date,hazardous-substances,hectares,latitude,longitude,maximum-net-dwellings,minimum-net-dwellings,notes,organisation,ownership-status,planning-permission-date,planning-permission-history,planning-permission-status,planning-permission-type,site,OrganisationURI,OrganisationLabel,SiteReference,SiteNameAddress,GeoX,GeoY,SiteplanURL,Hectares,OwnershipStatus,HazardousSubstances,PlanningStatus,PermissionType,PermissionDate,PlanningHistory,MinNetDwellings,NetDwellingsRangeFrom,NetDwellingsRangeTo,Deliverable,Notes,FirstAddedDate,LastUpdatedDate,EndDate,site-plan-url,start-date
,,,,,,,,,,,,,,,,,,,http://opendatacommunities.org/id/district-council/dacorum,Dacorum Borough Council,BLR/001,West Herts College site and Civic Zone Marlowes,51.75559885,-0.473836391,https://goo.gl/,5.70,owned by a public authority,,permissioned,,,,500,,,,"Part permissioned as applications only received for parts of the site - i.e. West Herts College, Forum, Land around Forum. Outline planning permission granted for latter on 29/06/15. Full planning permission granted for Forum on 10/02/15",,,,,
,,,,,,,,,,,,,,,,,,,http://opendatacommunities.org/id/district-council/dacorum,Dacorum Borough Council,BLR/002,Hemel Hempstead Hospital site Hillfield Road,51.75073602,-0.467756483,https://goo.gl/,11.71,owned by a public authority,,not permissioned,,,,400,,,,Application has expired,,,,,
,,,,,,,,,,,,,,,,,,,http://opendatacommunities.org/id/district-council/dacorum,Dacorum Borough Council,BLR/003,Paradise/Wood Lane Hemel Hempstead,51.74889125,-0.468340507,https://goo.gl/,3.00,mixed ownership,,not permissioned,,,,75,,,,4/00987/17/MFA withdrawn at last second,,,,,
,,,,,,,,,,,,,,,,,,,http://opendatacommunities.org/id/district-council/dacorum,Dacorum Borough Council,BLR/004,Hemel Hempstead Station Gateway Station Road,51.74241128,-0.488750981,https://goo.gl/,4.32,mixed ownership,,not permissioned,,,,140,,,,,,,,,
,,,,,,,,,,,,,,,,,,,http://opendatacommunities.org/id/district-council/dacorum,Dacorum Borough Council,BLR/005,Gossoms End / Billet Lane Berkhamsted,51.76569627,-0.579269352,https://goo.gl/,0.63,not owned by a public authority,,not permissioned,,,,30,,,,,,,,,
,,,,,,,,,,,,,,,,,,,http://opendatacommunities.org/id/district-council/dacorum,Dacorum Borough Council,BLR/006,Berkhamsted Civic Centre and land to rear of High Street Berkhamsted,51.75948607,-0.564728633,https://goo.gl/,0.40,owned by a public authority,,not permissioned,,,,23,,,,Application has expired,,,,,
,,,,,,,,,,,,,,,,,,,http://opendatacommunities.org/id/district-council/dacorum,Dacorum Borough Council,BLR/007,Market Square Hemel Hempstead,51.75260503,-0.473184068,https://goo.gl/,0.50,owned by a public authority,,not permissioned,,,,5,,,,,,,,,
,,,,,,,,,,,,,,,,,,,http://opendatacommunities.org/id/district-council/dacorum,Dacorum Borough Council,BLR/008,Land rear of 186-202 Belswains Lane,51.73203233,-0.456080826,https://goo.gl/,0.32,not owned by a public authority,,not permissioned,,,,10,,,,,,,,,
,,,,,,,,,,,,,,,,,,,http://opendatacommunities.org/id/district-council/dacorum,Dacorum Borough Council,BLR/009,National Grid land 339-353 London Road Hemel Hempstead,51.74091641,-0.480212078,https://goo.gl/,4.32,not owned by a public authority,,not permissioned,,,,350,,,,,,,,,
,,,,,,,,,,,,,,,,,,,http://opendatacommunities.org/id/district-council/dacorum,Dacorum Borough Council,BLR/010,Ebberns Road Hemel Hempstead,51.73849247,-0.465289003,https://goo.gl/,1.00,not owned by a public authority,,permissioned,,,,30,,,,Part permissioned as application not received for remaining part of site. Full Permission granted for Drew House and the Factory on 21/08/15,,,,,
,,,,,,,,,,,,,,,,,,,http://opendatacommunities.org/id/district-council/dacorum,Dacorum Borough Council,BLR/011,Former Hewden Hire site Two Waters Road Hemel Hempstead,51.74095016,-0.473794603,https://goo.gl/,0.30,not owned by a public authority,,permissioned,,,,36,,,,,,,,,
,,,,,,,,,,,,,,,,,,,http://opendatacommunities.org/id/district-council/dacorum,Dacorum Borough Council,BLR/012,Leverstock Green Tennis Club Grasmere Close Hemel Hempstead,51.74529217,-0.438129878,https://goo.gl/,1.16,not owned by a public authority,,not permissioned,,,,25,,,,4/00518/15/PRE,,,,,
,,,,,,,,,,,,,,,,,,,http://opendatacommunities.org/id/district-council/dacorum,Dacorum Borough Council,BLR/013,233 London Road Hemel Hempstead,51.73888652,-0.47206825,https://goo.gl/,0.11,not owned by a public authority,,not permissioned,,,,10,,,,Application has expired,,,,,
,,,,,,,,,,,,,,,,,,,http://opendatacommunities.org/id/district-council/dacorum,Dacorum Borough Council,BLR/014,Apsley Paper Trail land London Road,51.7338959,-0.462418196,https://goo.gl/,0.31,owned by a public authority,,not permissioned,,,,31,,,,4/00675/14/PRE,,,,,
,,,,,,,,,,,,,,,,,,,http://opendatacommunities.org/id/district-council/dacorum,Dacorum Borough Council,DBC/015,The Point (former petrol filling station) Two Waters Road Hemel Hempstead,51.74555097,-0.472857213,https://goo.gl/,0.15,owned by a public authority,,not permissioned,,,,25,,,,4/02158/13/PRE,,,,,
,,,,,,,,,,,,,,,,,,,http://opendatacommunities.org/id/district-council/dacorum,Dacorum Borough Council,BLR/016,Former Martindale School Boxted Road Hemel Hempstead,51.76075142,-0.498281545,https://goo.gl/,1.41,owned by a public authority,,permissioned,,,,66,,,,Full application resolved to be granted subject to s106,,,,,
,,,,,,,,,,,,,,,,,,,http://opendatacommunities.org/id/district-council/dacorum,Dacorum Borough Council,BLR/017,Frogmore Road Hemel Hempstead,51.73814976,-0.466589606,https://goo.gl/,2.93,not owned by a public authority,,not permissioned,,,,100,,,,4/03226/16/PRE,,,,,
,,,,,,,,,,,,,,,,,,,http://opendatacommunities.org/id/district-council/dacorum,Dacorum Borough Council,BLR/018,Corner of High Street / Swing Gate Lane Berkhamsted,51.7574193,-0.556028506,https://goo.gl/,0.10,owned by a public authority,,permissioned,,,,11,,,,,,,,,
,,,,,,,,,,,,,,,,,,,http://opendatacommunities.org/id/district-council/dacorum,Dacorum Borough Council,BLR/019,Western Road Tring,51.79205221,-0.668470337,https://goo.gl/,0.47,not owned by a public authority,,not permissioned,,,,25,,,,,,,,,
,,,,,,,,,,,,,,,,,,,http://opendatacommunities.org/id/district-council/dacorum,Dacorum Borough Council,BLR/020,Depot land Langdon Street Tring,51.79192804,-0.66386312,https://goo.gl/,0.22,not owned by a public authority,,permissioned,,,,10,,,,,,,,,
,,,,,,,,,,,,,,,,,,,http://opendatacommunities.org/id/district-council/dacorum,Dacorum Borough Council,BLR/021,Watling Street (rear of Hicks Road/High Street) Markyate,51.83658719,-0.458571996,https://goo.gl/,0.27,not owned by a public authority,,permissioned,,,,10,,,,,,,,,
,,,,,,,,,,,,,,,,,,,http://opendatacommunities.org/id/district-council/dacorum,Dacorum Borough Council,BLR/022,Garden Scene Nursery Chapel Croft Chipperfield,51.70739067,-0.491148546,https://goo.gl/,0.81,not owned by a public authority,,not permissioned,,,,12,,,,4/00780/14/PRE 4/02659/06/PRE 4/00369/93/4 refer to simmonds nursery,,,,,
,,,,,,,,,,,,,,,,,,,http://opendatacommunities.org/id/district-council/dacorum,Dacorum Borough Council,BLR/023,Bourne End Mills Bourne End Lane,51.74295745,-0.526102047,https://goo.gl/,3.98,not owned by a public authority,,permissioned,,,,45,,,,Hybrid application granted outline / part full permission on 9/03/16,,,,,
,,,,,,,,,,,,,,,,,,,http://opendatacommunities.org/id/district-council/dacorum,Dacorum Borough Council,BLR/024,St Mary's Convent Green End Road Boxmoor,51.74706522,-0.491941821,https://goo.gl/,0.81,not owned by a public authority,,permissioned,,,,20,,,,LBC granted 13/06/16,,,,,
,,,,,,,,,,,,,,,,,,,http://opendatacommunities.org/id/district-council/dacorum,Dacorum Borough Council,BLR/025,Former Sappi Nash Mills,51.72869804,-0.451430478,https://goo.gl/,6.67,not owned by a public authority,,permissioned,,,,38,,,,"Part permissioned as applications not recived for part of site to south of Red Lion Lane. CoU of Blocks I and K granted 2/04/13. 450 dwellings plus care home, community use, A3, B1 and Day Nursery, etc granted 12/05/10",,,,,
,,,,,,,,,,,,,,,,,,,http://opendatacommunities.org/id/district-council/dacorum,Dacorum Borough Council,BLR/026,"St Francis De Sales
Preparatory School
Aylesbury Road",51.8314748,-0.699308714,https://goo.gl/,0.69,not owned by a public authority,,not permissioned,,,,40,,,,Query whether this constitutes previously developed land,,,,,
,,,,,,,,,,,,,,,,,,,http://opendatacommunities.org/id/district-council/dacorum,Dacorum Borough Council,BLR/027,"Chipperfield Garden Centre, Chipperfield",51.71278045,-0.507454317,https://goo.gl/,3.22,not owned by a public authority,,not permissioned,,,,71,,,,,,,,,
,,,,,,,,,,,,,,,,,,,http://opendatacommunities.org/id/district-council/dacorum,Dacorum Borough Council,BLR/028,"Hemel Hempstead Garden Centre, Great gaddesden",51.79204019,-0.506740695,https://goo.gl/,2.44,not owned by a public authority,,not permissioned,,,,74,,,,,,,,,
,,,,,,,,,,,,,,,,,,,http://opendatacommunities.org/id/district-council/dacorum,Dacorum Borough Council,BLR/029,"Marchmont Farm, Link Road, Hemel",51.76703657,-0.473398963,https://goo.gl/,0.65,not owned by a public authority,,not permissioned,,,,6,,,,,,,,,
,,,,,,,,,,,,,,,,,,,http://opendatacommunities.org/id/district-council/dacorum,Dacorum Borough Council,BLR/030,"Former Bobsleigh Hotel, Bovingdon",51.72836965,-0.526586308,https://goo.gl/,1.40,not owned by a public authority,,not permissioned,,,,,,,,,,,,,
,,,,,,,,,,,,,,,,,,,http://opendatacommunities.org/id/district-council/dacorum,Dacorum Borough Council,BLR/031,"Caddington Hall, Markyate",51.84389551,-0.452066594,https://goo.gl/,4.65,not owned by a public authority,,not permissioned,,,,10,,,,,,,,,
,,,,,,,,,,,,,,,,,,,http://opendatacommunities.org/id/district-council/dacorum,Dacorum Borough Council,BLR/032,"Dacre House, Hillfield Road",51.75300742,-0.470114268,https://goo.gl/,0.05,not owned by a public authority,,not permissioned,,,,5,,,,,,,,,
,,,,,,,,,,,,,,,,,,,http://opendatacommunities.org/id/district-council/dacorum,Dacorum Borough Council,BLR/033,Leys Road (No 121),51.7427229,-0.456608866,https://goo.gl/,0.15,not owned by a public authority,,not permissioned,,,,3,,,,,,,,,
