address,address-text,deliverable,end-date,entry-date,hazardous-substances,hectares,latitude,longitude,maximum-net-dwellings,minimum-net-dwellings,notes,organisation,ownership-status,planning-permission-date,planning-permission-history,planning-permission-status,planning-permission-type,site,OrganisationURI,OrganisationLabel,SiteReference,SiteNameAddress,GeoX,GeoY,SiteplanURL,Hectares,OwnershipStatus,HazardousSubstances,PlanningStatus,PermissionType,PermissionDate,PlanningHistory,MinNetDwellings,NetDwellingsRangeFrom,NetDwellingsRangeTo,Deliverable,Notes,FirstAddedDate,LastUpdatedDate,EndDate,site-plan-url,start-date
,,,,,,,,,,,,,,,,,,,http://opendatacommunities.org/id/london-borough-council/sutton,,LBS-BLR1,"""Morrisons Local and Car Park""",-0.195536,51.369930,https://drive.google.com/file/d/1EZUg2F0-J89AyvhPrwz5_JIi2FPUON-J/view,0.21,not owned by a public authority,,not permissioned,,,,37,,75,,,2017-12-31,2017-12-31,,,
,,,,,,,,,,,,,,,,,,,http://opendatacommunities.org/id/london-borough-council/sutton,,LBS-BLR2,"""Sutton West Centre, Robin Hood Lane""",-0.200435,51.364790,https://drive.google.com/file/d/1kgdlGCIJrMRlJTG-zLbauW2kSwSC8a9E/view,0.80,owned by a public authority,,not permissioned,,,,44,,180,,,2017-12-31,2017-12-31,,,
,,,,,,,,,,,,,,,,,,,http://opendatacommunities.org/id/london-borough-council/sutton,,LBS-BLR3,"""North of Lodge Place""",-0.192949,51.365371,https://drive.google.com/file/d/1eD9yz_UjzbtEB4WjACjYzeFv8RrG7dse/view,0.30,not owned by a public authority,,not permissioned,,,,52,,105,,,2017-12-31,2017-12-31,,,
,,,,,,,,,,,,,,,,,,,http://opendatacommunities.org/id/london-borough-council/sutton,,LBS-BLR4,"""South of Lodge Place""",-0.192868,51.364613,https://drive.google.com/file/d/1mxhbqaQ2i55CSiz54HXcaLaxcbHWHfdi/view,0.37,not owned by a public authority,,not permissioned,,,,65,,131,,,2017-12-31,2017-12-31,,,
,,,,,,,,,,,,,,,,,,,http://opendatacommunities.org/id/london-borough-council/sutton,,LBS-BLR5,"""Kwikfit""",-0.192144,51.365219,https://drive.google.com/file/d/16Est7aYeZhYWLB5gqWMF6YFsw3js8rtP/view,0.07,owned by a public authority,,not permissioned,,,,4,,16,,,2017-12-31,2017-12-31,,,
,,,,,,,,,,,,,,,,,,,http://opendatacommunities.org/id/london-borough-council/sutton,,LBS-BLR6,"""North of Greenford Road""",-0.195106,51.366236,https://drive.google.com/open?id=1jl2SWkVtclNniCMYGJG41PdNtN-p5OWu,0.07,not owned by a public authority,,not permissioned,,,,12,,25,,,2017-12-31,2017-12-31,,,
,,,,,,,,,,,,,,,,,,,http://opendatacommunities.org/id/london-borough-council/sutton,,LBS-BLR7,"""Civic Centre""",-0.195167,51.361867,https://drive.google.com/open?id=1R4DeBQTzwGH7clQGRaPv13asithwj_BY,0.90,owned by a public authority,,not permissioned,,,,158,,321,,,2017-12-31,2017-12-31,,,
,,,,,,,,,,,,,,,,,,,http://opendatacommunities.org/id/london-borough-council/sutton,,LBS-BLR8,"""Times Square Car Park""",-0.191587,51.364410,https://drive.google.com/open?id=1_PcbGRO4rFOs6UzEqPhbeESg3oCTkmqc,0.73,owned by a public authority,,not permissioned,,,,127,,257,,,2017-12-31,2017-12-31,,,
,,,,,,,,,,,,,,,,,,,http://opendatacommunities.org/id/london-borough-council/sutton,,LBS-BLR9,"""Times House""",-0.192180,51.363574,https://drive.google.com/open?id=1csz6adzLDXmc8Y9BNcnqvm3AObCtC8S7,0.15,not owned by a public authority,,not permissioned,,,,26,,53,,,2017-12-31,2017-12-31,,,
,,,,,,,,,,,,,,,,,,,http://opendatacommunities.org/id/london-borough-council/sutton,,LBS-BLR10,"""Elm Grove""",-0.193550,51.366931,https://drive.google.com/open?id=1UJmyfgdQ9QsCoNsc167Quf9KIHY2sM2_,0.60,owned by a public authority,,not permissioned,,,,105,,213,,,2017-12-31,2017-12-31,,,
,,,,,,,,,,,,,,,,,,,http://opendatacommunities.org/id/london-borough-council/sutton,,LBS-BLR11,"""Land to rear of Times Square""",-0.191879,51.363174,https://drive.google.com/open?id=1MGmCZtqkx2EleZay3nv0wsbGHYM5YuzB,0.07,not owned by a public authority,,not permissioned,,,,12,,25,,,2017-12-31,2017-12-31,,,
,,,,,,,,,,,,,,,,,,,http://opendatacommunities.org/id/london-borough-council/sutton,,LBS-BLR12,"""Houses Adjacent to Manor Park""",-0.191129,51.363095,https://drive.google.com/open?id=14knn1GiEoBRo8RBHvX3I_30Xg0_queZS,0.49,owned by a public authority,,not permissioned,,,,27,,111,,,2017-12-31,2017-12-31,,,
,,,,,,,,,,,,,,,,,,,http://opendatacommunities.org/id/london-borough-council/sutton,,LBS-BLR13,"""Wilko Site""",-0.191758,51.362425,https://drive.google.com/open?id=1ToYLqN4u-p1EtclYnO43wfzdznSqD3o3,0.11,owned by a public authority,,not permissioned,,,,19,,39,,,2017-12-31,2017-12-31,,,
,,,,,,,,,,,,,,,,,,,http://opendatacommunities.org/id/london-borough-council/sutton,,LBS-BLR14,"""B&Q Sutton""",-0.188325,51.361473,https://drive.google.com/open?id=1V2s_rGmuIChSMGHsK3uyrAXxNfVpqzGy,2.25,not owned by a public authority,,not permissioned,,,,394,,799,,,2017-12-31,2017-12-31,,,
,,,,,,,,,,,,,,,,,,,http://opendatacommunities.org/id/london-borough-council/sutton,,LBS-BLR15,"""Land South of Grove Road""",-0.193591,51.359767,https://drive.google.com/open?id=1Tq_hKkc0DG-NfThb-QqxUFZ4WEyZ54EV,0.29,not owned by a public authority,,not permissioned,,,,50,,102,,,2017-12-31,2017-12-31,,,
,,,,,,,,,,,,,,,,,,,http://opendatacommunities.org/id/london-borough-council/sutton,,LBS-BLR16,"""Greensleeves Manor""",-0.194535,51.359573,https://drive.google.com/open?id=1JP6eq3WMEFcIhQpkPMExNTF1uiNl8lNU,0.27,not owned by a public authority,,not permissioned,,,,15,,61,,,2017-12-31,2017-12-31,,,
,,,,,,,,,,,,,,,,,,,http://opendatacommunities.org/id/london-borough-council/sutton,,LBS-BLR17,"""Land North of Grove Road""",-0.193231,51.360800,https://drive.google.com/open?id=1XyY7FVhMznESo6PE6I7EM1FZCeayq4-0,0.90,not owned by a public authority,,not permissioned,,,,158,,321,,,2017-12-31,2017-12-31,,,
,,,,,,,,,,,,,,,,,,,http://opendatacommunities.org/id/london-borough-council/sutton,,LBS-BLR18,"""City House, Sutton Park Road""",-0.194910,51.360999,https://drive.google.com/open?id=1FWTfetlz6N1LjPHyE_5Rv_WfyvuiiJQ9,0.17,not owned by a public authority,,not permissioned,,,,30,,60,,,2017-12-31,2017-12-31,,,
,,,,,,,,,,,,,,,,,,,http://opendatacommunities.org/id/london-borough-council/sutton,,LBS-BLR19,"""Gibson Road Car Park""",-0.197024,51.362399,https://drive.google.com/open?id=1XSezMEtrF2jQxi8nIYCuB9TaCT2G5VqC,0.67,owned by a public authority,,not permissioned,,,,117,,238,,,2017-12-31,2017-12-31,,,
,,,,,,,,,,,,,,,,,,,http://opendatacommunities.org/id/london-borough-council/sutton,,LBS-BLR20,"""Robin Hood Lane Sites""",-0.197235,51.363247,https://drive.google.com/open?id=1KoEj9Px9lK7DhP0dCVjs_8KnAFDnKcW3,0.56,owned by a public authority,,not permissioned,,,,98,,199,,,2017-12-31,2017-12-31,,,
,,,,,,,,,,,,,,,,,,,http://opendatacommunities.org/id/london-borough-council/sutton,,LBS-BLR21,"""St Nicholas House""",-0.193850,51.362823,https://drive.google.com/open?id=10R6qHrfUP1rZYgtrd6PrhsMGVbVgZ_8L,0.32,not owned by a public authority,,not permissioned,,,,55,,112,,,2017-12-31,2017-12-31,,,
,,,,,,,,,,,,,,,,,,,http://opendatacommunities.org/id/london-borough-council/sutton,,LBS-BLR22,"""St Nicholas Centre Car Park""",-0.195533,51.364507,https://drive.google.com/open?id=1VcL2aTmbwelYsFVCnTLWGEWyQ0Lnts4n,0.50,not owned by a public authority,,not permissioned,,,,88,,178,,,2017-12-31,2017-12-31,,,
,,,,,,,,,,,,,,,,,,,http://opendatacommunities.org/id/london-borough-council/sutton,,LBS-BLR23,"""31-35 St Nicholas Way""",-0.196190,51.366793,https://drive.google.com/open?id=1EoJ7Y7R6rI7XnC5qa7-VVkcKHcRKlC46,0.10,not owned by a public authority,,not permissioned,,,,18,,36,,,2017-12-31,2017-12-31,,,
,,,,,,,,,,,,,,,,,,,http://opendatacommunities.org/id/london-borough-council/sutton,,LBS-BLR24,"""Matalan Block""",-0.194298,51.368103,https://drive.google.com/open?id=1jVbQnQ5UK2brRi3FRQgXtRC95ctZvhpH,0.55,not owned by a public authority,,not permissioned,,,,97,,197,,,2017-12-31,2017-12-31,,,
,,,,,,,,,,,,,,,,,,,http://opendatacommunities.org/id/london-borough-council/sutton,,LBS-BLR25,"""Sutton Bus Garage""",-0.199311,51.369278,https://drive.google.com/open?id=1vD1PFXSn52AlKVOBMTom4fmbckjoHuCT,0.52,owned by a public authority,,not permissioned,,,,29,,117,,,2017-12-31,2017-12-31,,,
,,,,,,,,,,,,,,,,,,,http://opendatacommunities.org/id/london-borough-council/sutton,,LBS-BLR26,"""Herald House, Throwley Way""",-0.192946,51.365996,https://drive.google.com/open?id=1luCnnk1I7lV9pmyf-m-tI0l2lDwssI3Y,0.05,not owned by a public authority,,permissioned,,,,12.25,,,,,2017-12-31,2017-12-31,,,
,,,,,,,,,,,,,,,,,,,http://opendatacommunities.org/id/london-borough-council/sutton,,LBS-BLR27,"""Petrol Station North of Subsea 7""",-0.191816,51.357652,https://drive.google.com/open?id=1sOhkvqDXXwTyyORDy3POY1Lh2ERwaKzK,0.32,not owned by a public authority,,not permissioned,,,,55,,113,,,2017-12-31,2017-12-31,,,
,,,,,,,,,,,,,,,,,,,http://opendatacommunities.org/id/london-borough-council/sutton,,LBS-BLR28,"""Shops Opposite the Station""",-0.192126,51.359352,https://drive.google.com/open?id=1mHDpQWFm5vat0gkx_BGNWuxq7v1-9pIa,0.26,not owned by a public authority,,not permissioned,,,,45,,91,,,2017-12-31,2017-12-31,,,
,,,,,,,,,,,,,,,,,,,http://opendatacommunities.org/id/london-borough-council/sutton,,LBS-BLR29,"""Sutton Station""",-0.189574,51.359789,https://drive.google.com/open?id=1ewXaBNLx04DGCx1m0fijyTSv4JTkFWwz,1.29,not owned by a public authority,,not permissioned,,,,225,,457,,,2017-12-31,2017-12-31,,,
,,,,,,,,,,,,,,,,,,,http://opendatacommunities.org/id/london-borough-council/sutton,,LBS-BLR31,"""Beech Tree Place""",-0.194930,51.363479,https://drive.google.com/open?id=17CwMUoJd0ojI2aZ0ZbGhowhiAaA6LtMZ,0.42,owned by a public authority,,not permissioned,,,,74,,151,,,2017-12-31,2017-12-31,,,
,,,,,,,,,,,,,,,,,,,http://opendatacommunities.org/id/london-borough-council/sutton,,LBS-BLR32,"""Secombe Theatre""",-0.197252,51.361710,https://drive.google.com/open?id=1DnlPTJdfud6ZGBr0WQeItosGiYRPDI7d,0.90,owned by a public authority,,not permissioned,,,,158,,320,,,2017-12-31,2017-12-31,,,
,,,,,,,,,,,,,,,,,,,http://opendatacommunities.org/id/london-borough-council/sutton,,LBS-BLR33,"""Halfords Site""",-0.195792,51.367784,https://drive.google.com/open?id=11cgtht_sTUJB3SCSaLEimoO4xBfaru2f,0.29,not owned by a public authority,,not permissioned,,,,51,,104,,,2017-12-31,2017-12-31,,,
,,,,,,,,,,,,,,,,,,,http://opendatacommunities.org/id/london-borough-council/sutton,,LBS-BLR34,"""Land at South Point, Sutton Court Road, Sutton. SM1 4TY""",-0.190005,51.360274,https://drive.google.com/open?id=1wYzLjIMCZlAZzxMHCf9CX30Lcs6hXLVC,0.70,not owned by a public authority,,permissioned,,,,,,,,,2017-12-31,2017-12-31,,,
,,,,,,,,,,,,,,,,,,,http://opendatacommunities.org/id/london-borough-council/sutton,,LBS-BLR35,"""Lidl Supermarket""",-0.150724,51.359699,https://drive.google.com/open?id=19mY0Ki8DjxSgvQPsfk0E_BL30lBwz2oa,0.35,not owned by a public authority,,not permissioned,,,,19,,78,,,2017-12-31,2017-12-31,,,
,,,,,,,,,,,,,,,,,,,http://opendatacommunities.org/id/london-borough-council/sutton,,LBS-BLR36,"""Depot, Waltham Road""",-0.175707,51.381538,https://drive.google.com/open?id=17Lrz5Iebu5zETDJda6V8oOHeREEhAr72,0.12,owned by a public authority,,not permissioned,,,,5,,10,,,2017-12-31,2017-12-31,,,
,,,,,,,,,,,,,,,,,,,http://opendatacommunities.org/id/london-borough-council/sutton,,LBS-BLR37,"""Camperdown House, 2a Hawthorn Road""",-0.149509,51.355903,https://drive.google.com/open?id=1rGmKP72ypcH8n6QWUlqkdaOQkeouv9nR,0.06,not owned by a public authority,,not permissioned,,,,3,,14,,,2017-12-31,2017-12-31,,,
,,,,,,,,,,,,,,,,,,,http://opendatacommunities.org/id/london-borough-council/sutton,,LBS-BLR38,"""Former Youth Centre, Fellowes Road""",-0.172130,51.375376,https://drive.google.com/open?id=1-loQc0i4uyST-Gd7XTwfG6qn_eUydK4q,0.35,owned by a public authority,,permissioned,,,,,,,,,2017-12-31,2017-12-31,,,
,,,,,,,,,,,,,,,,,,,http://opendatacommunities.org/id/london-borough-council/sutton,,LBS-BLR39,"""Assembly Walk, off Green Wrythe Lane, Middleton Circle""",-0.174665,51.383896,https://drive.google.com/open?id=1C-hIA41PGtDbFsjAuF4ft48eo87wXnrN,0.20,owned by a public authority,,not permissioned,,,,8,,13,,,2017-12-31,2017-12-31,,,
,,,,,,,,,,,,,,,,,,,http://opendatacommunities.org/id/london-borough-council/sutton,,LBS-BLR40,"""Garages at Radcliffe Gardens, Carshatlon Beeches""",-0.173164,51.352650,https://drive.google.com/open?id=1AjkwkZDE7MY3-_2h_QXGUcVqH4_g7aQG,0.11,owned by a public authority,,not permissioned,,,,4,,9,,,2017-12-31,2017-12-31,,,
,,,,,,,,,,,,,,,,,,,http://opendatacommunities.org/id/london-borough-council/sutton,,LBS-BLR41,"""Land to rear of 107 Westmead Road""",-0.180231,51.366895,https://drive.google.com/open?id=1gTS8mQDyZhrJymzF3c8iOavGPuPQ-OvI,0.46,not owned by a public authority,,not permissioned,,,,18,,37,,,2017-12-31,2017-12-31,,,
,,,,,,,,,,,,,,,,,,,http://opendatacommunities.org/id/london-borough-council/sutton,,LBS-BLR42,"""Railway Approach Wallington""",-0.150837,51.360472,https://drive.google.com/open?id=1EOWFUCMXetcVdrh7EdVnDwp3q0QlKecl,1.13,owned by a public authority,,not permissioned,,,,62,,255,,,2017-12-31,2017-12-31,,,
,,,,,,,,,,,,,,,,,,,http://opendatacommunities.org/id/london-borough-council/sutton,,LBS-BLR43,"""Mill Green Business Park MILL GREEN ROAD""",-0.160939,51.386127,https://drive.google.com/open?id=1sAYd9EO900dxMd1mlaNItcZYuPH11_a6,0.42,not owned by a public authority,,permissioned,,,,158.1564722,,,,This is in addition to permission B2014/70678 elsewhere in this register,2017-12-31,2017-12-31,,,
,,,,,,,,,,,,,,,,,,,http://opendatacommunities.org/id/london-borough-council/sutton,,LBS-BLR44,"""Council Car Park Demark Road""",-0.165221,51.370655,https://drive.google.com/open?id=1HOTo_p2Plw2HS7Ft_vn7DL4oYLumtuQf,0.40,owned by a public authority,,not permissioned,,,,16,,32,,,2017-12-31,2017-12-31,,,
,,,,,,,,,,,,,,,,,,,http://opendatacommunities.org/id/london-borough-council/sutton,,LBS-BLR45,"""Council Offices, Denmark Road""",-0.163246,51.371191,https://drive.google.com/open?id=18GqQpvQSBSmUQHu6Y_vh97zG2KvK25hN,0.40,owned by a public authority,,not permissioned,,,,16,,32,,,2017-12-31,2017-12-31,,,
,,,,,,,,,,,,,,,,,,,http://opendatacommunities.org/id/london-borough-council/sutton,,LBS-BLR46,"""Hackbridge Station""",-0.154035,51.377939,https://drive.google.com/open?id=1V8LkNcD2hAcu4yoXea-9MiVBjx--v7YW,0.28,not owned by a public authority,,not permissioned,,,,15,,41,,,2017-12-31,2017-12-31,,,
,,,,,,,,,,,,,,,,,,,http://opendatacommunities.org/id/london-borough-council/sutton,,LBS-BLR47,"""1-9 Windsor Road""",-0.241004,51.377887,https://drive.google.com/open?id=1GKZBVMWl5c02XHR9q3rbBYVuF7a3C4Sx,0.09,not owned by a public authority,,permissioned,,,,,,,,,2017-12-31,2017-12-31,,,
,,,,,,,,,,,,,,,,,,,http://opendatacommunities.org/id/london-borough-council/sutton,,LBS-BLR48,"""Rear of Rosehill Shops""",-0.188347,51.384007,https://drive.google.com/open?id=1UdJSX90Uviq7RubaZ3WKF4mtroJ8-O5I,0.25,not owned by a public authority,,not permissioned,,,,14,,37,,,2017-12-31,2017-12-31,,,
,,,,,,,,,,,,,,,,,,,http://opendatacommunities.org/id/london-borough-council/sutton,,LBS-BLR49,"""Co-op""",-0.189287,51.384196,https://drive.google.com/open?id=16bkuNeSq2cJ7DL46u23pd2RSKhrCustK,0.42,not owned by a public authority,,not permissioned,,,,23,,61,,,2017-12-31,2017-12-31,,,
,,,,,,,,,,,,,,,,,,,http://opendatacommunities.org/id/london-borough-council/sutton,,LBS-BLR50,"""Vulcan House",-0.200435,51.364790,https://drive.google.com/open?id=1FaJ0ieh-q0C-of8UbAMMQ9pA1gKhI0Z9,0.08,not owned by a public authority,,permissioned,,,,,,,,,2017-12-31,2017-12-31,,,
,,,,,,,,,,,,,,,,,,,http://opendatacommunities.org/id/london-borough-council/sutton,,LBS-BLR51,"""Resource Centre""",-0.223856,51.375647,https://drive.google.com/open?id=1m3i9RL0U-z9QtCKNy3PdtcupLUeBpL7q,0.31,owned by a public authority,,not permissioned,,,,17,,45,,,2017-12-31,2017-12-31,,,
,,,,,,,,,,,,,,,,,,,http://opendatacommunities.org/id/london-borough-council/sutton,,LBS-BLR52,"""Victoria House""",-0.227165,51.370999,https://drive.google.com/open?id=1UQqoI8m4p7XlxLm2N8REY19WIDrlnKS0,0.28,not owned by a public authority,,not permissioned,,,,16,,41,,,2017-12-31,2017-12-31,,,
,,,,,,,,,,,,,,,,,,,http://opendatacommunities.org/id/london-borough-council/sutton,,LBS-BLR53,"""HSS Hire Site and vacant land""",-0.218852,51.361138,https://drive.google.com/open?id=1qkSe4PUKWcNbrCpuagHoN0-cOLoZ8XsP,0.26,not owned by a public authority,,not permissioned,,,,14,,37,,,2017-12-31,2017-12-31,,,
,,,,,,,,,,,,,,,,,,,http://opendatacommunities.org/id/london-borough-council/sutton,,LBS-BLR54,"""Land to rear of 16-18 Stanley Park Road""",-0.152740,51.356997,https://drive.google.com/open?id=1anPQxxlsqLb9PeEkk-zIw5W-bjtM_A8T,0.09,not owned by a public authority,,not permissioned,,,,5,,20,,,2017-12-31,2017-12-31,,,
,,,,,,,,,,,,,,,,,,,http://opendatacommunities.org/id/london-borough-council/sutton,,LBS-BLR55,"""Shotfield Car Park""",-0.150682,51.358282,https://drive.google.com/open?id=16epArbMqdAl-WUIn7XAJIRNRuzm7UBjm,0.41,owned by a public authority,,not permissioned,,,,23,,92,,,2017-12-31,2017-12-31,,,
,,,,,,,,,,,,,,,,,,,http://opendatacommunities.org/id/london-borough-council/sutton,,LBS-BLR56,"""Napier Court. Whispering Moon Pub and Travis Perkins""",-0.149259,51.360322,https://drive.google.com/open?id=1nwoReJvq1ukEvO6yaAQ121PC0sgG0iIz,0.32,not owned by a public authority,,not permissioned,,,,18,,72,,,2017-12-31,2017-12-31,,,
,,,,,,,,,,,,,,,,,,,http://opendatacommunities.org/id/london-borough-council/sutton,,LBS-BLR57,"""19 Stanley Park Road""",-0.153034,51.356093,https://drive.google.com/open?id=1GiBvBDyh5HZGGf6w3Z6LtlgBIPFIuNAU,0.10,not owned by a public authority,,permissioned,,,,,,,,,2017-12-31,2017-12-31,,,
,,,,,,,,,,,,,,,,,,,http://opendatacommunities.org/id/london-borough-council/sutton,,LBS-BLR58,"""Land Adjoining Hackbridge Station""",-0.154308,51.379026,https://drive.google.com/open?id=1XwblcybuNLdSmz4MpikEqe2cSvCa0sdE,1.19,not owned by a public authority,,not permissioned,,,,65,,172,,,2017-12-31,2017-12-31,,,
,,,,,,,,,,,,,,,,,,,http://opendatacommunities.org/id/london-borough-council/sutton,,LBS-BLR59,"""WALLINGTON HALL""",-0.148287,51.357206,https://drive.google.com/open?id=1UUMByZESlQOl3bGhmibr_kr0vCENPGij,0.43,owned by a public authority,,not permissioned,,,,24,,62,,,2017-12-31,2017-12-31,,,
,,,,,,,,,,,,,,,,,,,http://opendatacommunities.org/id/london-borough-council/sutton,,LBS-BLR60,"""Land to rear of 105 Stafford Road, Wallington""",-0.142367,51.358488,https://drive.google.com/open?id=1hnh1P953kIkU2bnJQ6oRgocnnfoWwyis,0.13,owned by a public authority,,not permissioned,,,,7,,29,,,2017-12-31,2017-12-31,,,
,,,,,,,,,,,,,,,,,,,http://opendatacommunities.org/id/london-borough-council/sutton,,LBS-BLR61,"Former Felnex Trading Estate, 190 London Road, Hackbridge. SM6 7EL""",-0.156835,51.377212,https://drive.google.com/open?id=1ATmOq32OZFY0qE7pShNZsJ3QpfL5R4UO,7.27,not owned by a public authority,,permissioned,,,,,,,,,2017-12-31,2017-12-31,,,
,,,,,,,,,,,,,,,,,,,http://opendatacommunities.org/id/london-borough-council/sutton,,LBS-BLR62,"""50-52 Stanley Park Road, Carshalton. SM5 3HW""",-0.155886,51.356198,https://drive.google.com/open?id=1m234BZrixdSiYnYEe0lI_52g7hf62Hsf,0.07,not owned by a public authority,,permissioned,,,,,,,,,2017-12-31,2017-12-31,,,
,,,,,,,,,,,,,,,,,,,http://opendatacommunities.org/id/london-borough-council/sutton,,LBS-BLR63,"""The Firs, Hilliers Lane, Beddington. CR0 4SU""",-0.133917,51.369437,https://drive.google.com/open?id=1UXGdSLNabLGBLXiv41VHlHD-ZusmmzYT,0.14,not owned by a public authority,,permissioned,,,,,,,,,2017-12-31,2017-12-31,,,
,,,,,,,,,,,,,,,,,,,http://opendatacommunities.org/id/london-borough-council/sutton,,LBS-BLR64,"""3 Timberslip Drive and Land r/o 146 Foresters Drive, Wallington. SM6 9RT""",-0.136055,51.348281,https://drive.google.com/open?id=1qQbzOCOn-c0IRt-OfsEyppw9tSA3QZ6y,0.22,not owned by a public authority,,permissioned,,,,,,,,,2017-12-31,2017-12-31,,,
,,,,,,,,,,,,,,,,,,,http://opendatacommunities.org/id/london-borough-council/sutton,,LBS-BLR65,"""2 Woodcote Avenue, Wallington. SM6 0QS""",-0.149135,51.352265,https://drive.google.com/open?id=1z9x2fnHSizhx25W1hoWdwfUcaQPq2S_8,0.09,not owned by a public authority,,permissioned,,,,,,,,,2017-12-31,2017-12-31,,,
,,,,,,,,,,,,,,,,,,,http://opendatacommunities.org/id/london-borough-council/sutton,,LBS-BLR66,"""Ground Keepers House, Croydon Gas Ltd Sports Club, 48 Mollison Drive, Wallington. SM6 9BY""",-0.129564,51.356812,https://drive.google.com/open?id=18uTmtNpDMmKun8X1pFDfuKr0bGo-Iv7w,0.31,not owned by a public authority,,permissioned,,,,,,,,,2017-12-31,2017-12-31,,,
,,,,,,,,,,,,,,,,,,,http://opendatacommunities.org/id/london-borough-council/sutton,,LBS-BLR67,"""37 Stafford Road,  Wallington. SM6 9AP""",-0.145066,51.358183,https://drive.google.com/open?id=1xf6Js8hsa9DT23K6I7FJaM1QT6_JTGMk,0.04,not owned by a public authority,,permissioned,,,,,,,,,2017-12-31,2017-12-31,,,
,,,,,,,,,,,,,,,,,,,http://opendatacommunities.org/id/london-borough-council/sutton,,LBS-BLR68,"""Ludlow Lodge, Alcester Road,  Wallington. SM6 8BB""",-0.151455,51.365322,https://drive.google.com/open?id=1uy3jbUDi06CmnWIz03Nhj58Spb-F7kH5,0.68,owned by a public authority,,permissioned,,,,,,,,,2017-12-31,2017-12-31,,,
,,,,,,,,,,,,,,,,,,,http://opendatacommunities.org/id/london-borough-council/sutton,,LBS-BLR69,"""23-50 Richmond Green, Beddington. CR0 4SA""",-0.125197,51.370622,https://drive.google.com/open?id=11yqIM4EV3lB84WZj_0j9CWRd7hXATaIP,0.67,owned by a public authority,,permissioned,,,,,,,,,2017-12-31,2017-12-31,,,
,,,,,,,,,,,,,,,,,,,http://opendatacommunities.org/id/london-borough-council/sutton,,LBS-BLR70,"""31-35 Stafford Road, Wallington. SM6 9AP""",-0.145211,51.357939,https://drive.google.com/open?id=1Mlm0-KV4Ew_RDjI-JuqGYokIpMPQfo9M,0.28,not owned by a public authority,,permissioned,,,,,,,,,2017-12-31,2017-12-31,,,
,,,,,,,,,,,,,,,,,,,http://opendatacommunities.org/id/london-borough-council/sutton,,LBS-BLR71,"""1 and Mill Lane School House, Carshalton""",-0.163664,51.367546,https://drive.google.com/open?id=1fZAtdwfQ_hY-VkrIxB4qbTSR85d7x_gM,0.12,owned by a public authority,,not permissioned,,,,6,,12,,,2017-12-31,2017-12-31,,,
,,,,,,,,,,,,,,,,,,,http://opendatacommunities.org/id/london-borough-council/sutton,,LBS-BLR72,"""3 Grosvenor Road, Wallington. SM6 0EG""",-0.151166,51.361109,https://drive.google.com/open?id=1x_c7Yb8XJvMpFjLHWWLKXgvmeObALdRF,0.06,not owned by a public authority,,permissioned,,,,,,,,,2017-12-31,2017-12-31,,,
,,,,,,,,,,,,,,,,,,,http://opendatacommunities.org/id/london-borough-council/sutton,,LBS-BLR73,"""Marston Court, 98 Manor Road, Wallington. SM6 0DW""",-0.151079,51.362350,https://drive.google.com/open?id=1NtKjcGUL8mNpbLt_ylBMS8-6FaALu5lu,0.07,not owned by a public authority,,permissioned,,,,,,,,,2017-12-31,2017-12-31,,,
,,,,,,,,,,,,,,,,,,,http://opendatacommunities.org/id/london-borough-council/sutton,,LBS-BLR74,"""1 Lynwood Drive, Worcester Park""",-0.244007,51.379038,https://drive.google.com/open?id=1jdYuErfXtEX7SV9vwwcjakno6hPYTi1E,0.06,not owned by a public authority,,not permissioned,,,,3,,14,,,2017-12-31,2017-12-31,,,
,,,,,,,,,,,,,,,,,,,http://opendatacommunities.org/id/london-borough-council/sutton,,LBS-BLR75,"""Wallington Court, Wallington""",-0.181093,51.357692,https://drive.google.com/open?id=1p0zdDFnLSBbcwycHezmOF2sB8vVybkjj,0.20,not owned by a public authority,,permissioned,,,,,,,,,2017-12-31,2017-12-31,,,
,,,,,,,,,,,,,,,,,,,http://opendatacommunities.org/id/london-borough-council/sutton,,LBS-BLR76,"""The Lodge, Honeywood Walk, Carshalton. SM5 3NX""",-0.166078,51.366009,https://drive.google.com/open?id=1hQtK_QPi7-ZVyhGcif5SjjrtZs56D6G2,0.14,owned by a public authority,,permissioned,,,,,,,,,2017-12-31,2017-12-31,,,
,,,,,,,,,,,,,,,,,,,http://opendatacommunities.org/id/london-borough-council/sutton,,LBS-BLR77,"""Beeches House, 53 Park Hill,  Carshalton. SM5 3SE""",-0.170480,51.357876,https://drive.google.com/open?id=1hgDc1DN7bt7zxbuvs0pkuED-tRmw6hT1,0.06,not owned by a public authority,,permissioned,,,,,,,,,2017-12-31,2017-12-31,,,
,,,,,,,,,,,,,,,,,,,http://opendatacommunities.org/id/london-borough-council/sutton,,LBS-BLR78,"""248 Woodcote Road""",-0.147785,51.347359,https://drive.google.com/open?id=1Q8hEyZaG5xGHvAf3ijixkiToqKPg9QjQ,0.10,not owned by a public authority,,not permissioned,,,,4,,9,,,2017-12-31,2017-12-31,,,
,,,,,,,,,,,,,,,,,,,http://opendatacommunities.org/id/london-borough-council/sutton,,LBS-BLR79,"""Allen House, 1 Westmead Road, Sutton. SM1 4LA""",-0.171849,51.365949,https://drive.google.com/open?id=1ZGkUW4PdWTGffoUi9yWJr0dVqJK6Fdm1,0.04,not owned by a public authority,,permissioned,,,,,,,,,2017-12-31,2017-12-31,,,
,,,,,,,,,,,,,,,,,,,http://opendatacommunities.org/id/london-borough-council/sutton,,LBS-BLR80,"""Redevelopment of Wandle Trading Estate, Technology Park and Riverside fronting Goat Road and Budge Lane and 37 - 39 Wood Street, Mitcham Junction. CR4 4HW""",-0.161748,51.385670,https://drive.google.com/open?id=1BgVIjWuyRdSehLJTPY_zIRrxqIIopZA7,2.45,not owned by a public authority,,permissioned,,,,,,,,,2017-12-31,2017-12-31,,,
,,,,,,,,,,,,,,,,,,,http://opendatacommunities.org/id/london-borough-council/sutton,,LBS-BLR81,"""Land and buildings on the south side of Station Road, Belmont""",-0.199435,51.343407,https://drive.google.com/open?id=1157NVYhavysMJQeydxzA0yu6cnR3Aarb,0.18,not owned by a public authority,,permissioned,,,,,,,,,2017-12-31,2017-12-31,,,
,,,,,,,,,,,,,,,,,,,http://opendatacommunities.org/id/london-borough-council/sutton,,LBS-BLR82,"""1-16 Nightingale Close, Carshalton. SM5 2DD""",-0.160998,51.376753,https://drive.google.com/open?id=1CjZ_eaumzWsle77avVANZhQWgbXpwi2F,0.59,owned by a public authority,,permissioned,,,,,,,,,2017-12-31,2017-12-31,,,
,,,,,,,,,,,,,,,,,,,http://opendatacommunities.org/id/london-borough-council/sutton,,LBS-BLR83,"""1-72 Corbet Close, Hackbridge. SM6 7AP""",-0.160455,51.378267,https://drive.google.com/open?id=1bxwuUZ6BfRS1h1x1s0fgBGX2B58ZSelM,1.33,owned by a public authority,,permissioned,,,,,,,,,2017-12-31,2017-12-31,,,
,,,,,,,,,,,,,,,,,,,http://opendatacommunities.org/id/london-borough-council/sutton,,LBS-BLR84,"""Durand Close Regeneration Scheme, Durand Close, Carshalton. SM5 2FH""",-0.165844,51.379930,https://drive.google.com/open?id=1geGzIAy-8LB2ePo36s8Xy9oq02rjN_MB,4.11,owned by a public authority,,permissioned,,,,,,,,,2017-12-31,2017-12-31,,,
,,,,,,,,,,,,,,,,,,,http://opendatacommunities.org/id/london-borough-council/sutton,,LBS-BLR85,"""Palmerston House 5-7 Palmerston Road, Sutton. SM1 4QL""",-0.185546,51.365169,https://drive.google.com/open?id=10hsj0Y0AJmEXcv1Q6V2KBxU1qmCGcO8U,0.02,not owned by a public authority,,permissioned,,,,,,,,,2017-12-31,2017-12-31,,,
,,,,,,,,,,,,,,,,,,,http://opendatacommunities.org/id/london-borough-council/sutton,,LBS-BLR86,"""Southfields Court. 180 Sutton Common Road, Sutton. SM1 3JH""",-0.200024,51.378644,https://drive.google.com/open?id=1VjZMDjG_SuacNymlMGA-tU5M-0UnwTiV,0.28,not owned by a public authority,,permissioned,,,,,,,,,2017-12-31,2017-12-31,,,
,,,,,,,,,,,,,,,,,,,http://opendatacommunities.org/id/london-borough-council/sutton,,LBS-BLR87,"""Dawson House, 128-130 Carshalton Road, Sutton. SM1 4TW""",-0.185405,51.362441,https://drive.google.com/open?id=1TYgi6hnWyBNBZYk9sHNgsSikA1h6N1dz,0.02,not owned by a public authority,,permissioned,,,,,,,,,2017-12-31,2017-12-31,,,
,,,,,,,,,,,,,,,,,,,http://opendatacommunities.org/id/london-borough-council/sutton,,LBS-BLR88,"""Sutton Superbowl""",-0.194022,51.363303,https://drive.google.com/open?id=1PX6LKiSf65mTXM2PSZuH3bCqmmT79kj7,0.25,not owned by a public authority,,permissioned,,,,36.75,,,,,2017-12-31,2017-12-31,,,
,,,,,,,,,,,,,,,,,,,http://opendatacommunities.org/id/london-borough-council/sutton,,LBS-BLR89,"""32 St Dunstans Hill, Cheam. SM1 2UD""",-0.211274,51.369838,https://drive.google.com/open?id=1KbZ3bR3qT3RAWbHqq7H0-YmE10yf9fgI,0.08,not owned by a public authority,,permissioned,,,,,,,,,2017-12-31,2017-12-31,,,
,,,,,,,,,,,,,,,,,,,http://opendatacommunities.org/id/london-borough-council/sutton,,LBS-BLR90,"""24-34 Sutton Court Road, Sutton. SM1 4SY""",-0.188796,51.360454,https://drive.google.com/open?id=1KfLxsX6ifygQ0S2bZ8vluHoW-v2BORTZ,0.16,not owned by a public authority,,permissioned,,,,,,,,,2017-12-31,2017-12-31,,,
,,,,,,,,,,,,,,,,,,,http://opendatacommunities.org/id/london-borough-council/sutton,,LBS-BLR91,"""Grace Court, 138 Brighton Road, Sutton. SM2 5LU""",-0.194171,51.349676,https://drive.google.com/open?id=1fj5oqzJPEMlsEf0P77_doEfWn6SIyqqO,0.28,not owned by a public authority,,permissioned,,,,,,,,,2017-12-31,2017-12-31,,,
,,,,,,,,,,,,,,,,,,,http://opendatacommunities.org/id/london-borough-council/sutton,,LBS-BLR92,"""Helena House""",-0.194116,51.370840,https://drive.google.com/open?id=1RV-n4AYbRysNd52APYRD_TWkJfvl2wvo,0.11,not owned by a public authority,,permissioned,,,,157.5,,,,,2017-12-31,2017-12-31,,,
,,,,,,,,,,,,,,,,,,,http://opendatacommunities.org/id/london-borough-council/sutton,,LBS-BLR93,"""Sutton Park House, 15 Carshalton Road, Sutton. SM1 4LD""",-0.191400,51.361813,https://drive.google.com/open?id=129cyXyovY2kP7HVxcx2-cSLdt2AXmM4r,0.26,not owned by a public authority,,permissioned,,,,,,,,,2017-12-31,2017-12-31,,,
,,,,,,,,,,,,,,,,,,,http://opendatacommunities.org/id/london-borough-council/sutton,,LBS-BLR94,"""18 Avenue Road, Belmont""",-0.211240,51.348516,https://drive.google.com/open?id=1wcg1kjhMk485Th6zwioECkXYu_UI-80V,0.70,not owned by a public authority,,permissioned,,,,,,,,,2017-12-31,2017-12-31,,,
,,,,,,,,,,,,,,,,,,,http://opendatacommunities.org/id/london-borough-council/sutton,,LBS-BLR95,"""Unilink House 21, Lewis Road, Sutton. SM1 4BR""",-0.193941,51.369105,https://drive.google.com/open?id=1PzWP1PLDduBMkSpf9iaovSXI9mKOlkf9,0.02,not owned by a public authority,,permissioned,,,,,,,,,2017-12-31,2017-12-31,,,
,,,,,,,,,,,,,,,,,,,http://opendatacommunities.org/id/london-borough-council/sutton,,LBS-BLR96,"""Indepth House, Wellesley Road, Sutton. SM2 5BW""",-0.190049,51.358539,https://drive.google.com/open?id=121Caiz3hhiAPuvlC2UNT55yZvu3nuQaK,0.03,not owned by a public authority,,permissioned,,,,,,,,,2017-12-31,2017-12-31,,,
,,,,,,,,,,,,,,,,,,,http://opendatacommunities.org/id/london-borough-council/sutton,,LBS-BLR97,"""7 Woodside Road, Sutton. SM1 3SU""",-0.190005,51.370900,https://drive.google.com/open?id=14bWIOMQy9ua7GW9mqE4ZAnIhBnzys01Z,0.08,not owned by a public authority,,permissioned,,,,,,,,,2017-12-31,2017-12-31,,,
,,,,,,,,,,,,,,,,,,,http://opendatacommunities.org/id/london-borough-council/sutton,,LBS-BLR98,"""Development of Homelands, Dorset Road, and 80 - 82 York Road, Cheam SM2 6HJ""",-0.204908,51.347828,https://drive.google.com/open?id=1aA6TfsyvwZQlJVuK6-40KCaVtRx3hjQJ,0.23,not owned by a public authority,,permissioned,,,,,,,,,2017-12-31,2017-12-31,,,
,,,,,,,,,,,,,,,,,,,http://opendatacommunities.org/id/london-borough-council/sutton,,LBS-BLR99,"""27 Grange Road, Sutton. SM2 6SY""",-0.197125,51.354663,https://drive.google.com/open?id=1JFl16lTfI1WtSvBDXeK41TPX-NfqsIDY,0.09,not owned by a public authority,,permissioned,,,,,,,,,2017-12-31,2017-12-31,,,
,,,,,,,,,,,,,,,,,,,http://opendatacommunities.org/id/london-borough-council/sutton,,LBS-BLR100,"""37 The Highway. Sutton. SM2 5QS""",-0.186206,51.347498,https://drive.google.com/open?id=1UaEc8TpSaicXCsDe5AurmSVsP6CwMWnW,0.49,not owned by a public authority,,permissioned,,,,,,,,,2017-12-31,2017-12-31,,,
,,,,,,,,,,,,,,,,,,,http://opendatacommunities.org/id/london-borough-council/sutton,,LBS-BLR101,"""40 The Broadway, Cheam. SM3 8BD""",-0.216270,51.358842,https://drive.google.com/open?id=1ZNa7Q9p0kHA1Ui7Jn5E4ocCoytqrcbCX,0.16,not owned by a public authority,,permissioned,,,,,,,,,2017-12-31,2017-12-31,,,
,,,,,,,,,,,,,,,,,,,http://opendatacommunities.org/id/london-borough-council/sutton,,LBS-BLR102,"""Land at Cheam Station, OCEANTECH House""",-0.214783,51.355051,https://drive.google.com/open?id=1iXOoNcjK7hfptCyi46P8vpdkpXSEo-Bd,0.10,not owned by a public authority,,permissioned,,,,50.31576215,,,,,2017-12-31,2017-12-31,,,
,,,,,,,,,,,,,,,,,,,http://opendatacommunities.org/id/london-borough-council/sutton,,LBS-BLR103,"""711-715 London Road, North Cheam. SM3 9DL""",-0.222311,51.376813,https://drive.google.com/open?id=1_-m3qjgIMb3AC-ajP-PsVusErz5UNkqg,0.05,not owned by a public authority,,permissioned,,,,,,,,,2017-12-31,2017-12-31,,,
,,,,,,,,,,,,,,,,,,,http://opendatacommunities.org/id/london-borough-council/sutton,,LBS-BLR104,"""Haredon House, 810 London Road, North Cheam. SM3 9BS""",-0.218995,51.378900,https://drive.google.com/open?id=11_3RKW8fIm_xDljr1BnlECWqZ9WYNNSb,0.46,not owned by a public authority,,permissioned,,,,,,,,,2017-12-31,2017-12-31,,,
