address,address-text,deliverable,end-date,entry-date,hazardous-substances,hectares,latitude,longitude,maximum-net-dwellings,minimum-net-dwellings,notes,organisation,ownership-status,planning-permission-date,planning-permission-history,planning-permission-status,planning-permission-type,site,OrganisationURI,OrganisationLabel,SiteReference,SiteNameAddress,GeoX,GeoY,SiteplanURL,Hectares,OwnershipStatus,HazardousSubstances,PlanningStatus,PermissionType,PermissionDate,PlanningHistory,MinNetDwellings,NetDwellingsRangeFrom,NetDwellingsRangeTo,Deliverable,Notes,FirstAddedDate,LastUpdatedDate,EndDate,site-plan-url,start-date
,,,,,,,,,,,,,,,,,,,http://opendatacommunities.org/id/district-council/castle-point,Castle Point Borough Council,CP0001,"""Land at Foksville Road, Canvey Island.""",0.596186,51.522268,https://www.castlepoint.gov.uk/download.cfm?doc=docm93jijm4n3926.pdf&ver=6630,0.14,not owned by a public authority,,permissioned,,,,10,,10,,Outline permission granted. Works have not commenced. Permission expires 08/03/2020. Delivery lead in time 1.5 years.  08/11/17. 12/09/18.,08/11/2017,12/09/2018,,,
,,,,,,,,,,,,,,,,,,,http://opendatacommunities.org/id/district-council/castle-point,Castle Point Borough Council,CP0002,"""Vallee Casa, 62 Hill Road, Benfleet.""",0.570424,51.559444,https://www.castlepoint.gov.uk/download.cfm?doc=docm93jijm4n3928.pdf&ver=6632,0.28,not owned by a public authority,,not permissioned,,,,5,,5,,No current planning permission. Delivery lead in time 2.5 years.  08/11/17. 12/09/18.,08/11/2017,12/09/2018,,,
,,,,,,,,,,,,,,,,,,,http://opendatacommunities.org/id/district-council/castle-point,Castle Point Borough Council,CP0003,"""166-168 Kiln Road, Benfleet, SS7 1SU.""",0.588983,51.560489,https://www.castlepoint.gov.uk/download.cfm?doc=docm93jijm4n3929.pdf&ver=6633,0.08,not owned by a public authority,,not permissioned,,,,2,,2,,Previous permission for 9 flats expired 2012. Recent application refused. One existing dwelling converted. Delivery lead in time 2 years without planning permission. 14/11/17. 12/09/18.,08/11/2017,12/09/2018,,,
,,,,,,,,,,,,,,,,,,,http://opendatacommunities.org/id/district-council/castle-point,Castle Point Borough Council,CP0004,"""1a Clarence Road, South Benfleet, Benfleet SS7 1DE.""",0.56414,51.555214,https://www.castlepoint.gov.uk/download.cfm?doc=docm93jijm4n3927.pdf&ver=6631,0.11,not owned by a public authority,,permissioned,,,,1,,1,,Full planning permission granted. Works have not commenced. Existing dwelling to be demolished. Permission expires 10/08/2020. Delivery lead in time 1 year.  09/11/17. 12/09/18.,09/11/2017,12/09/2018,,,
,,,,,,,,,,,,,,,,,,,http://opendatacommunities.org/id/district-council/castle-point,Castle Point Borough Council,CP0005,"""Job Centre, 140 Furtherwick Road, Canvey Island.""",0.592569,51.519425,https://www.castlepoint.gov.uk/download.cfm?doc=docm93jijm4n3931.pdf&ver=6635,0.13,not owned by a public authority,,not permissioned,,,,15,,15,,No current planning permission. Delivery lead in time 2 years.  09/11/17. 12.09.18.,09/11/2017,12/09/2018,,,
,,,,,,,,,,,,,,,,,,,http://opendatacommunities.org/id/district-council/castle-point,Castle Point Borough Council,CP0006,"""84 Vicarage Hill, Benfleet SS7 1PE.""",0.569148,51.549178,https://www.castlepoint.gov.uk/download.cfm?doc=docm93jijm4n3932.pdf&ver=6636,0.28,not owned by a public authority,,permissioned,,,,2,,2,,Full planning permission granted. Works have not commenced. Existing dwelling to be demolished. Permission expires 28/04/2019. Delivery lead in time 1 year.  09/11/17. 12/09/18.,09/11/2017,12/09/2018,,,
,,,,,,,,,,,,,,,,,,,http://opendatacommunities.org/id/district-council/castle-point,Castle Point Borough Council,CP0007,"""240-244 High Road, Benfleet.""",0.561664,51.553173,https://www.castlepoint.gov.uk/download.cfm?doc=docm93jijm4n3930.pdf&ver=6634,0.19,not owned by a public authority,,permissioned,,,,19,,19,,Full planning permission. Works have commenced and 16 flats have been completed so far. 09/11/17. 12/09/18.,09/11/2017,12/09/2018,,,
,,,,,,,,,,,,,,,,,,,http://opendatacommunities.org/id/district-council/castle-point,Castle Point Borough Council,CP0008,"""Site adjacent to Pauls Court, Meppel Avenue, Canvey Island.""",0.585962,51.531522,https://www.castlepoint.gov.uk/download.cfm?doc=docm93jijm4n3933.pdf&ver=6637,0.07,not owned by a public authority,,permissioned,,,,5,,5,,Full planning permission. Works have commenced. Existing dwelling demolished. 09/11/17. 12/09/18.,09/11/2017,12/09/2018,,,
,,,,,,,,,,,,,,,,,,,http://opendatacommunities.org/id/district-council/castle-point,Castle Point Borough Council,CP0010,"""20 Haresland Close, Hadleigh, SS7 2UT.""",0.618843,51.565675,https://www.castlepoint.gov.uk/download.cfm?doc=docm93jijm4n3936.pdf&ver=6640,0.56,not owned by a public authority,,not permissioned,,,,3,,3,,No current planning permission. Lead in time 1.5 years. Existing dwelling would need to be demolished. NPPF applied in terms of suitable capacity for the site. 14/11/17. 12/09/18.,09/11/2017,12/09/2018,,,
,,,,,,,,,,,,,,,,,,,http://opendatacommunities.org/id/district-council/castle-point,Castle Point Borough Council,CP0011,"""109 Long Road, Canvey Island""",0.585778,51.520163,https://www.castlepoint.gov.uk/download.cfm?doc=docm93jijm4n3934.pdf&ver=6638,0.2,not owned by a public authority,,permissioned,,,,7,,7,,Full planning permission. Works have not commenced. Permission expires 07/12/2018. Delivery lead in time 1 year. 14/11/17. 12/09/18.,14/11/2017,12/09/2018,,,
,,,,,,,,,,,,,,,,,,,http://opendatacommunities.org/id/district-council/castle-point,Castle Point Borough Council,CP0012,"""The Island Site, High Street / London Road, Hadleigh""",0.607009,51.55394,https://www.castlepoint.gov.uk/download.cfm?doc=docm93jijm4n3938.pdf&ver=6642,0.59,owned by a public authority,,not permissioned,,,,54,,54,,No current planning permission. Lead in time 2 years. 14/11/17. 12/09/18.,14/11/2017,12/09/2018,,,
,,,,,,,,,,,,,,,,,,,http://opendatacommunities.org/id/district-council/castle-point,Castle Point Borough Council,CP0013,"""88 High Street, Hadleigh""",0.953219,52.044769,https://www.castlepoint.gov.uk/download.cfm?doc=docm93jijm4n3935.pdf&ver=6639,0.02,not owned by a public authority,,permissioned,,,,4,,4,,Full planning permission. Works have commenced. Flat to be demolished as part of works. 14/11/17. 12/09/18.,14/11/2017,12/09/2018,,,
,,,,,,,,,,,,,,,,,,,http://opendatacommunities.org/id/district-council/castle-point,Castle Point Borough Council,CP0014,"""Admiral Jellico Public House, 283 High Street, Canvey Island""",0.610645,51.518853,https://www.castlepoint.gov.uk/download.cfm?doc=docm93jijm4n3937.pdf&ver=6641,0.33,not owned by a public authority,,pending decision,,,,40,,40,,Full planning permission pending decision. No. of dwellings proposed increased from 2017 BLR from 15. Lead in time 2 years without permission. 14/11/17. 12/09/18.,14/11/2017,12/09/2018,,,
,,,,,,,,,,,,,,,,,,,http://opendatacommunities.org/id/district-council/castle-point,Castle Point Borough Council,CP0015,"""Outpatients centre, Long Road, Canvey Island""",0.581945,51.520382,https://www.castlepoint.gov.uk/download.cfm?doc=docm93jijm4n3939.pdf&ver=6643,0.3,owned by a public authority,,not permissioned,,,,10,,10,,No current planning permission. Delivery lead in time 2.5 years.  14/11/17. 12/09/18.,14/11/2017,12/09/2018,,,
,,,,,,,,,,,,,,,,,,,http://opendatacommunities.org/id/district-council/castle-point,Castle Point Borough Council,CP0016,"""343 Rayleigh Road, Thundersley""",0.59505,51.569153,https://www.castlepoint.gov.uk/download.cfm?doc=docm93jijm4n3940.pdf&ver=6644,0.13,not owned by a public authority,,not permissioned,,,,10,,10,,No current planning permission. Delivery lead in time 2 years.  14/11/17. 12/09/18.,14/11/2017,12/09/2018,,,
,,,,,,,,,,,,,,,,,,,http://opendatacommunities.org/id/district-council/castle-point,Castle Point Borough Council,CP0017,"""125-127 High Street, Canvey Island""",0.600961,51.522996,https://www.castlepoint.gov.uk/download.cfm?doc=docm93jijm4n3941.pdf&ver=6645,0.19,not owned by a public authority,,permissioned,,,,14,,14,,Full planning permission granted at appeal. Works have commenced. 14/11/17. 12/09/18.,14/11/2017,12/09/2018,,,
,,,,,,,,,,,,,,,,,,,http://opendatacommunities.org/id/district-council/castle-point,Castle Point Borough Council,CP0018,"""4-12 Park Chase, Hadleigh, Benfleet, SS7 2BZ.""",0.614904,51.550297,https://www.castlepoint.gov.uk/download.cfm?doc=docm93jijm4n3942.pdf&ver=6646,0.27,not owned by a public authority,,permissioned,,,,21,,21,,Full planning permission granted. Works have commenced. 4 existing dwellings demolished. 15/11/17. 12/09/18.,15/11/2017,12/09/2018,,,
,,,,,,,,,,,,,,,,,,,http://opendatacommunities.org/id/district-council/castle-point,Castle Point Borough Council,CP0019,"""Prout Industrial Estate, Point Road, Canvey Island.""",0.621824,51.519561,https://www.castlepoint.gov.uk/download.cfm?doc=docm93jijm4n3944.pdf&ver=6648,0.76,not owned by a public authority,,not permissioned,,,,27,,27,,No current planning permission. Site area reduced to area where landowners permitted site to be included. Delivery lead in time 3 years. 15/11/17. 12/09/18.,15/11/2017,12/09/2018,,,
,,,,,,,,,,,,,,,,,,,http://opendatacommunities.org/id/district-council/castle-point,Castle Point Borough Council,CP0020,"""Benfleet Tavern Public House, High Road, Benfleet.""",0.557424,51.554011,https://www.castlepoint.gov.uk/download.cfm?doc=docm93jijm4n3943.pdf&ver=6647,0.25,not owned by a public authority,,not permissioned,,,,14,,14,,No current planning permission. Site area reduced to area where landowners permitted site to be included. Delivery lead in time 2 years. 21/11/17. 12/09/18.,21/11/2017,12/09/2018,,,
,,,,,,,,,,,,,,,,,,,http://opendatacommunities.org/id/district-council/castle-point,Castle Point Borough Council,CP0021,"""West of Venebles Close, Canvey Island""",0.59736,51.522592,https://www.castlepoint.gov.uk/download.cfm?doc=docm93jijm4n3945.pdf&ver=6649,0.26,not owned by a public authority,,permissioned,,,,24,,24,,Outline permission granted. Works have not commenced. Permission expires 09/03/2021. Delivery lead in time 1.5 years. 12/09/18.,12/09/2018,12/09/2018,,,
,,,,,,,,,,,,,,,,,,,http://opendatacommunities.org/id/district-council/castle-point,Castle Point Borough Council,CP0022,"""316 London Road, Benfleet""",0.563118,51.566099,https://www.castlepoint.gov.uk/download.cfm?doc=docm93jijm4n3946.pdf&ver=6650,0.22,not owned by a public authority,,permissioned,,,,1,,1,,Full planning permission. Works have not commenced. Permission expires 22/09/2021. Delivery lead in time 1 year. 12/09/18.,12/09/2018,12/09/2018,,,
,,,,,,,,,,,,,,,,,,,http://opendatacommunities.org/id/district-council/castle-point,Castle Point Borough Council,CP0023,"""87-97 High Street, Benfleet""",0.562359,51.544224,https://www.castlepoint.gov.uk/download.cfm?doc=docm93jijm4n3947.pdf&ver=6651,0.13,not owned by a public authority,,not permissioned,,,,14,,14,,No current planning permission. Permission sought for 14 flats was withdrawn. Delivery lead in time 2 years. 12/09/18.,12/09/2018,12/09/2018,,,
,,,,,,,,,,,,,,,,,,,http://opendatacommunities.org/id/district-council/castle-point,Castle Point Borough Council,CP0025,"""Briar Cottage, Leige Avenue, Canvey Island""",0.584758,51.530915,https://www.castlepoint.gov.uk/download.cfm?doc=docm93jijm4n3951.pdf&ver=6655,0.08,not owned by a public authority,,not permissioned,,,,11,,11,,Delivery lead in time 2 years. 10/10/18.,10/10/2018,10/10/2018,,,
,,,,,,,,,,,,,,,,,,,http://opendatacommunities.org/id/district-council/castle-point,Castle Point Borough Council,CP0026,"""Tower Radio, 573-581 London Road, Hadleigh""",0.618916,51.550642,https://www.castlepoint.gov.uk/download.cfm?doc=docm93jijm4n3948.pdf&ver=6652,0.15,not owned by a public authority,,permissioned,,,,14,,14,,Full planning permission. Works have commenced. 12/09/18.,12/09/2018,12/09/2018,,,
,,,,,,,,,,,,,,,,,,,http://opendatacommunities.org/id/district-council/castle-point,Castle Point Borough Council,CP0027,"""82 High Street, Hadleigh""",0.607791,51.553311,https://www.castlepoint.gov.uk/download.cfm?doc=docm93jijm4n3950.pdf&ver=6654,0.04,not owned by a public authority,,permissioned,,,,6,,6,,"Full planning permission. Works have commenced. Prior approval not required for change of use to propvide 5 flats, 6 flats in total being created. 12/09/18.",12/09/2018,12/09/2018,,,
,,,,,,,,,,,,,,,,,,,http://opendatacommunities.org/id/district-council/castle-point,Castle Point Borough Council,CP0028,"""231 London Road, Hadleigh""",0.609426,51.55383,https://www.castlepoint.gov.uk/download.cfm?doc=docm93jijm4n3952.pdf&ver=6656,0.04,not owned by a public authority,,permissioned,,,,6,,6,,Full planning permission granted. Works have commenced. 12/09/18.,12/09/2018,12/09/2018,,,
,,,,,,,,,,,,,,,,,,,http://opendatacommunities.org/id/district-council/castle-point,Castle Point Borough Council,CP0029,"""Beaver Doors, 211-213 London Road, Thundersley""",0.556386,51.567219,https://www.castlepoint.gov.uk/download.cfm?doc=docm93jijm4n3953.pdf&ver=6657,0.07,not owned by a public authority,,permissioned,,,,10,,10,,Full planning permission. Works have not commenced. Permission expires 26/11/2020. Delivery lead in time 1 year. 12/09/18.,12/09/2018,12/09/2018,,,
,,,,,,,,,,,,,,,,,,,http://opendatacommunities.org/id/district-council/castle-point,Castle Point Borough Council,CP0030,"""Rear of 179-181 Church Road, Thundersley""",0.560915,51.572058,https://www.castlepoint.gov.uk/download.cfm?doc=docm93jijm4n3954.pdf&ver=6658,0.31,not owned by a public authority,,not permissioned,,,,40,,40,,No current planning permission. Permission previously granted for one property on small section of the site. Delivery lead in time 2 years. 12/09/18.,12/09/2018,12/09/2018,,,
,,,,,,,,,,,,,,,,,,,http://opendatacommunities.org/id/district-council/castle-point,Castle Point Borough Council,CP0031,"""Benfleet Police Station, 90-92 High Road, Benfleet""",0.563505,51.549123,https://www.castlepoint.gov.uk/download.cfm?doc=docm93jijm4n3955.pdf&ver=6659,0.13,not owned by a public authority,,permissioned,,,,13,,13,,Full planning permission. Delivery lead in time 1 year. 10/10/18.,12/09/2018,12/09/2018,,,
,,,,,,,,,,,,,,,,,,,http://opendatacommunities.org/id/district-council/castle-point,Castle Point Borough Council,CP0037,"""320 London Road, Hadleigh""",0.613299,51.551516,https://www.castlepoint.gov.uk/download.cfm?doc=docm93jijm4n3961.pdf&ver=6665,0.13,not owned by a public authority,,permissioned,,,,20,,20,,"Full planning permission granted. Works have commenced. Phase 1 - 12 dwellings built 2006, 20 with extant permission remain. 12/09/18.",12/09/2018,12/09/2018,,,
,,,,,,,,,,,,,,,,,,,http://opendatacommunities.org/id/district-council/castle-point,Castle Point Borough Council,CP0038,"""High Road, Tarpots Town Centre, Benfleet""",0.549672,51.566398,https://www.castlepoint.gov.uk/download.cfm?doc=docm93jijm4n3963.pdf&ver=6667,0.38,not owned by a public authority,,not permissioned,,,,17,,17,,No current planning permission. Delivery lead in time 2 years. 12/09/18.,12/09/2018,12/09/2018,,,
,,,,,,,,,,,,,,,,,,,http://opendatacommunities.org/id/district-council/castle-point,Castle Point Borough Council,CP0039,"""286 London Road, Benfleet""",0.560938,51.566228,https://www.castlepoint.gov.uk/download.cfm?doc=docm93jijm4n3962.pdf&ver=6666,0.13,not owned by a public authority,,not permissioned,,,,5,,5,,No current planning permission. Delivery lead in time 2.5 years. 12/09/18.,12/09/2018,12/09/2018,,,
,,,,,,,,,,,,,,,,,,,http://opendatacommunities.org/id/district-council/castle-point,Castle Point Borough Council,CP0040,"""Maharaja Restaurant, 358 London Road, Benfleet""",0.565625,51.565062,https://www.castlepoint.gov.uk/download.cfm?doc=docm93jijm4n3964.pdf&ver=6668,0.12,not owned by a public authority,,not permissioned,,,,6,,6,,No current planning permission. Delivery lead in time 2 years. 12/09/18.,12/09/2018,12/09/2018,,,
,,,,,,,,,,,,,,,,,,,http://opendatacommunities.org/id/district-council/castle-point,Castle Point Borough Council,CP0041,"""61-69 Hart Road, Thundersley""",0.581429,51.569106,https://www.castlepoint.gov.uk/download.cfm?doc=docm93jijm4n3965.pdf&ver=6669,0.11,not owned by a public authority,,not permissioned,,,,2,,2,,No current planning permission. 4 existing flats on site. Delivery lead in time 2 years. 12/09/18.,12/09/2018,12/09/2018,,,
,,,,,,,,,,,,,,,,,,,http://opendatacommunities.org/id/district-council/castle-point,Castle Point Borough Council,CP0042,"""210 & 212 High Road, Benfleet""",0.561969,51.552102,https://www.castlepoint.gov.uk/download.cfm?doc=docm93jijm4n3971.pdf&ver=6675,0.04,not owned by a public authority,,not permissioned,,,,5,,5,,No current planning permission. Delivery lead in time 2 years. 12/09/18.,12/09/2018,12/09/2018,,,
,,,,,,,,,,,,,,,,,,,http://opendatacommunities.org/id/district-council/castle-point,Castle Point Borough Council,CP0043,"""191-193 High Road, Benfleet""",0.56161,51.551641,https://www.castlepoint.gov.uk/download.cfm?doc=docm93jijm4n3967.pdf&ver=6672,0.12,not owned by a public authority,,pending decision,,,,14,,14,,Full planning permission pending decision. Delivery lead in time 1 year with permission. 12/09/18.,12/09/2018,12/09/2018,,,
,,,,,,,,,,,,,,,,,,,http://opendatacommunities.org/id/district-council/castle-point,Castle Point Borough Council,CP0044,"""30-32 Essex Way, Benfleet""",0.564914,51.545419,https://www.castlepoint.gov.uk/download.cfm?doc=docm93jijm4n3968.pdf&ver=6671,0.1,not owned by a public authority,,not permissioned,,,,14,,14,,No current planning permission. Delivery lead in time 2 years. 12/09/18.,12/09/2018,12/09/2018,,,
,,,,,,,,,,,,,,,,,,,http://opendatacommunities.org/id/district-council/castle-point,Castle Point Borough Council,CP0045,"""Stafford Court Care Home, Venables Close, Canvey Island""",0.597211,51.52219,https://www.castlepoint.gov.uk/download.cfm?doc=docm93jijm4n3968.pdf&ver=6671,0.33,not owned by a public authority,,not permissioned,,,,0,,0,,"No current planning permission. Delivery lead in time 2 years. 28 existing flats, like for like redevelopment. 12/09/18.",12/09/2018,12/09/2018,,,
,,,,,,,,,,,,,,,,,,,http://opendatacommunities.org/id/district-council/castle-point,Castle Point Borough Council,CP0046,"""364 London Road, Hadleigh """,0.614474,51.550929,https://www.castlepoint.gov.uk/download.cfm?doc=docm93jijm4n3970.pdf&ver=6674,0.01,not owned by a public authority,,not permissioned,,,,9,,9,,No current planning permission. Delivery lead in time 2 years. 12/09/18.,12/09/2018,12/09/2018,,,
,,,,,,,,,,,,,,,,,,,http://opendatacommunities.org/id/district-council/castle-point,Castle Point Borough Council,CP0047,"""54 Beech Road, Hadleigh""",0.609916,51.551193,https://www.castlepoint.gov.uk/download.cfm?doc=docm93jijm4n3969.pdf&ver=6673,0.12,not owned by a public authority,,pending decision,,,,14,,14,,Outline permission pending decision. Delivery lead in time 1.5 years with outline permission. 12/09/18.,12/09/2018,12/09/2018,,,
,,,,,,,,,,,,,,,,,,,http://opendatacommunities.org/id/district-council/castle-point,Castle Point Borough Council,CP0052,"""246-250 High Road, Benfleet""",0.561097,51.553217,https://www.castlepoint.gov.uk/download.cfm?doc=docm93jijm4n3976.pdf&ver=6680,0.09,not owned by a public authority,,pending decision,,,,11,,11,,Full planning permission pending decision. Delivery lead in time 1 year with permission. 12/09/18.,12/09/2018,12/09/2018,,,
