address,address-text,deliverable,end-date,entry-date,hazardous-substances,hectares,latitude,longitude,maximum-net-dwellings,minimum-net-dwellings,notes,organisation,ownership-status,planning-permission-date,planning-permission-history,planning-permission-status,planning-permission-type,site,OrganisationURI,OrganisationLabel,SiteReference,SiteNameAddress,GeoX,GeoY,SiteplanURL,Hectares,OwnershipStatus,HazardousSubstances,PlanningStatus,PermissionType,PermissionDate,PlanningHistory,MinNetDwellings,NetDwellingsRangeFrom,NetDwellingsRangeTo,Deliverable,Notes,FirstAddedDate,LastUpdatedDate,EndDate,site-plan-url,start-date
,,,,,,,,,,,,,,,,,,,http://opendatacommunities.org/id/district-council/craven,CravenDistrictCouncil,BRL02,"""GreenLane""",407070.354,453870.513,,4.36,Notownedbyapublicauthority,,Not permissioned,,,,,,,,,2018-01-09 00:00:00,2018-02-02 00:00:00,,,
,,,,,,,,,,,,,,,,,,,http://opendatacommunities.org/id/district-council/craven,CravenDistrictCouncil,BRL03,"""LandatCollegeFarm""",400596.835,448570.121,,0.616,Notownedbyapublicauthority,,Permissioned,,,,5,,,,Planning permission has not yet been implemented.,2018-01-09 00:00:00,2018-02-02 00:00:00,,,
,,,,,,,,,,,,,,,,,,,http://opendatacommunities.org/id/district-council/craven,CravenDistrictCouncil,BRL04,"""RichardThornton'sCEPrimarySchool""",364817.015,472265.051,,0.73,Notownedbyapublicauthority,,Not permissioned,,,,,,,,Land allocated within Draft Local Plan,2018-01-09 00:00:00,2018-02-02 00:00:00,,,
,,,,,,,,,,,,,,,,,,,http://opendatacommunities.org/id/district-council/craven,CravenDistrictCouncil,BRL05,"""KeasdenWaterTreatmentWorks""",372290.07,462655.707,,0.37,Notownedbyapublicauthority,,Not permissioned,,,,,,,,,2018-01-09 00:00:00,2018-02-02 00:00:00,,,
,,,,,,,,,,,,,,,,,,,http://opendatacommunities.org/id/district-council/craven,CravenDistrictCouncil,BRL06,"""StationWorksnorthofCononleyLane""",399337.42,446920.209,,2.16,Notownedbyapublicauthority,,Pending decision,,,,92,,,,Land allocated within Draft Local Plan,2018-01-09 00:00:00,2018-02-02 00:00:00,,,
,,,,,,,,,,,,,,,,,,,http://opendatacommunities.org/id/district-council/craven,CravenDistrictCouncil,BRL07,"""LandatStationYard""",392714.182,449566.181,,0.46,Notownedbyapublicauthority,,Not permissioned,,,,,,,,,2018-01-09 00:00:00,2018-02-02 00:00:00,,,
,,,,,,,,,,,,,,,,,,,http://opendatacommunities.org/id/district-council/craven,CravenDistrictCouncil,BRL08,"""FormerHighwaysDepotoffEshtonRoad""",393523.933,454503.114,,0.5,Notownedbyapublicauthority,,Not permissioned,,,,,,,,,2018-01-09 00:00:00,2018-02-02 00:00:00,,,
,,,,,,,,,,,,,,,,,,,http://opendatacommunities.org/id/district-council/craven,CravenDistrictCouncil,BRL09,"""NevilleHouse,NevilleCrescent""",392935.844,454263.713,,0.42,Ownedbyapublicauthority,,Not permissioned,,,,,,,,Land allocated within Draft Local Plan,2018-01-09 00:00:00,2018-02-02 00:00:00,,,
,,,,,,,,,,,,,,,,,,,http://opendatacommunities.org/id/district-council/craven,CravenDistrictCouncil,BRL10,"""FredGreenandSonLtd,CanalWaterhouse,EshtonRoad""",393418.563,454543.69,,1.12,Notownedbyapublicauthority,,Not permissioned,,,,,,,,,2018-01-09 00:00:00,2018-02-02 00:00:00,,,
,,,,,,,,,,,,,,,,,,,http://opendatacommunities.org/id/district-council/craven,CravenDistrictCouncil,BRL11,"""SystagenixFactorySite""",393842.898,454348.763,,8.21,Notownedbyapublicauthority,,Not permissioned,,,,,,,,,2018-01-09 00:00:00,2018-02-02 00:00:00,,,
,,,,,,,,,,,,,,,,,,,http://opendatacommunities.org/id/district-council/craven,CravenDistrictCouncil,BRL12,"""LandatMartonRoad""",392292.78,453929.025,,0.74,Notownedbyapublicauthority,,Not permissioned,,,,,,,,,2018-01-09 00:00:00,2018-02-02 00:00:00,,,
,,,,,,,,,,,,,,,,,,,http://opendatacommunities.org/id/district-council/craven,CravenDistrictCouncil,BRL13,"""GolfClubcarparkandclubhouse,RobinLane""",366934.432,469906.131,,0.67,Notownedbyapublicauthority,,Not permissioned,,,,,,,,,2018-01-09 00:00:00,2018-02-02 00:00:00,,,
,,,,,,,,,,,,,,,,,,,http://opendatacommunities.org/id/district-council/craven,CravenDistrictCouncil,BRL14,"""BankHeadwestofRobinLanesouthofLakeberDrive""",366872.431,469571.295,,0.84,Notownedbyapublicauthority,,Not permissioned,,,,,,,,,2018-01-09 00:00:00,2018-02-02 00:00:00,,,
,,,,,,,,,,,,,,,,,,,http://opendatacommunities.org/id/district-council/craven,CravenDistrictCouncil,BRL15,"""PrimaryschooleastofRobinLane,westofLowcroft""",366936.22,469312.54,,0.962,Ownedbyapublicauthority,,Pending decision,,,,72,,,,Land allocated within Draft Local Plan,2018-01-09 00:00:00,2018-02-02 00:00:00,,,
,,,,,,,,,,,,,,,,,,,http://opendatacommunities.org/id/district-council/craven,CravenDistrictCouncil,BRL16,"""LandtoeastofLairgillRowonButtsLane""",367097.957,469362.973,,0.42,Ownedbyapublicauthority,,Not permissioned,,,,,,,,,2018-01-09 00:00:00,2018-02-02 00:00:00,,,
,,,,,,,,,,,,,,,,,,,http://opendatacommunities.org/id/district-council/craven,CravenDistrictCouncil,BRL17,"""WestofStationRoad,southofrailwaystation""",366636.664,468957.163,,0.44,MultipleOwners,,Not permissioned,,,,,,,,,2018-01-09 00:00:00,2018-02-02 00:00:00,,,
,,,,,,,,,,,,,,,,,,,http://opendatacommunities.org/id/district-council/craven,CravenDistrictCouncil,BRL18,"""StorageYardandpremiseswestofMayfieldRoad""",366485.871,468769.456,,0.26,Notownedbyapublicauthority,,Not permissioned,,,,,,,,,2018-01-09 00:00:00,2018-02-02 00:00:00,,,
,,,,,,,,,,,,,,,,,,,http://opendatacommunities.org/id/district-council/craven,CravenDistrictCouncil,BRL19,"""LandoffDukeStreet""",366256.589,469235.203,,0.4,Notownedbyapublicauthority,,Not permissioned,,,,,,,,,2018-01-09 00:00:00,2018-02-02 00:00:00,,,
,,,,,,,,,,,,,,,,,,,http://opendatacommunities.org/id/district-council/craven,CravenDistrictCouncil,BRL20,"""AuctionMartandlandsouthofMountPleasant""",366867.959,469160.896,,1.179,Notownedbyapublicauthority,,Not permissioned,,,,,,,,,2018-01-09 00:00:00,2018-02-02 00:00:00,,,
,,,,,,,,,,,,,,,,,,,http://opendatacommunities.org/id/district-council/craven,CravenDistrictCouncil,BRL21,"""HighBenthamWaterTreatmentWorks""",367828.292,467091.563,,0.51,Ownedbyapublicauthority,,Pending decision,,,,1,,,,A large part of the site is still available for development.,2018-01-09 00:00:00,2018-02-02 00:00:00,,,
,,,,,,,,,,,,,,,,,,,http://opendatacommunities.org/id/district-council/craven,CravenDistrictCouncil,BRL22,"""CampleHatcheries,LowBenthamRoad""",365910.546,469456.215,,0.501,Notownedbyapublicauthority,,Permissioned,,,,,,,,https://publicaccess.cravendc.gov.uk/online-applications/caseDetails.do?caseType=Application&keyVal=ZZZZYYFKJV980. A new application has been put in on site and is awaiting a decision.,2018-01-09 00:00:00,2018-02-02 00:00:00,,,
,,,,,,,,,,,,,,,,,,,http://opendatacommunities.org/id/district-council/craven,CravenDistrictCouncil,BRL23,"""LandtowestofGisburnRd,BlackHorseSite""",385539.518,456482.297,,0.23,Notownedbyapublicauthority,,Not permissioned,,,,,,,,,2018-01-09 00:00:00,2018-02-02 00:00:00,,,
,,,,,,,,,,,,,,,,,,,http://opendatacommunities.org/id/district-council/craven,CravenDistrictCouncil,BRL24,"""HighwaysDepotandadjoininglandBackgate""",369652.555,472888.499,,1.273,MultipleOwners,,Pending decision,,,,13,,,,,2018-01-09 00:00:00,2018-02-02 00:00:00,,,
,,,,,,,,,,,,,,,,,,,http://opendatacommunities.org/id/district-council/craven,CravenDistrictCouncil,BRL25,"""MoorgarthHall""",369754.394,472018.179,,0.77,Notownedbyapublicauthority,,Pending decision,,,,5,,,,,2018-01-09 00:00:00,2018-02-02 00:00:00,,,
,,,,,,,,,,,,,,,,,,,http://opendatacommunities.org/id/district-council/craven,CravenDistrictCouncil,BRL26,"""ScrapYard,NewRoad""",369507.429,472290.232,,0.46,Notownedbyapublicauthority,,Not permissioned,,,,,,,,,2018-01-09 00:00:00,2018-02-02 00:00:00,,,
,,,,,,,,,,,,,,,,,,,http://opendatacommunities.org/id/district-council/craven,CravenDistrictCouncil,BRL27,"""FormerSedberghJuniorSchool""",364443.216,469306.427,,1.45,Notownedbyapublicauthority,,Not permissioned,,,,,,,,,2018-01-09 00:00:00,2018-02-02 00:00:00,,,
,,,,,,,,,,,,,,,,,,,http://opendatacommunities.org/id/district-council/craven,CravenDistrictCouncil,BRL28,"""LandatcornerofSkiptonRoadandKeighleyRoad""",401235.079,445048.851,,0.26,Notownedbyapublicauthority,,Not permissioned,,,,,,,,,2018-01-09 00:00:00,2018-02-02 00:00:00,,,
,,,,,,,,,,,,,,,,,,,http://opendatacommunities.org/id/district-council/craven,CravenDistrictCouncil,BRL29,"""SouthandeastofHayfieldMillsColneRoad""",400039.701,444578.996,,0.62,Notownedbyapublicauthority,,Not permissioned,,,,,,,,,2018-01-09 00:00:00,2018-02-02 00:00:00,,,
,,,,,,,,,,,,,,,,,,,http://opendatacommunities.org/id/district-council/craven,CravenDistrictCouncil,BRL30,"""WorksandlandatLowFold,ManorWay""",400440.213,444024.599,,0.34,Notownedbyapublicauthority,,Permissioned,,,,10,,,,Planning permission has not yet been implemented.,2018-01-09 00:00:00,2018-02-02 00:00:00,,,
,,,,,,,,,,,,,,,,,,,http://opendatacommunities.org/id/district-council/craven,CravenDistrictCouncil,BRL31,"""HayfieldMills,ColneRoad""",400073.683,444663.689,,2.61,Notownedbyapublicauthority,,Not permissioned,,,,,,,,,2018-01-09 00:00:00,2018-02-02 00:00:00,,,
,,,,,,,,,,,,,,,,,,,http://opendatacommunities.org/id/district-council/craven,CravenDistrictCouncil,BRL32,"""LandatMalsis""",399061.796,444544.069,,1.29,Ownedbyapublicauthority,,Pending decision,,,,67,,,,Land allocated within Draft Local Plan,2018-01-09 00:00:00,2018-02-02 00:00:00,,,
,,,,,,,,,,,,,,,,,,,http://opendatacommunities.org/id/district-council/craven,CravenDistrictCouncil,BRL33,"""CastlebergHospital,RainesRoad""",381003.025,463729.581,,1.12,Notownedbyapublicauthority,,Not permissioned,,,,,,,,,2018-01-09 00:00:00,2018-02-02 00:00:00,,,
,,,,,,,,,,,,,,,,,,,http://opendatacommunities.org/id/district-council/craven,CravenDistrictCouncil,BRL34,"""NYCCDepotnorthofKing'sMill""",381481.302,463946.368,,0.52,Notownedbyapublicauthority,,Not permissioned,,,,,,,,,2018-01-09 00:00:00,2018-02-02 00:00:00,,,
,,,,,,,,,,,,,,,,,,,http://opendatacommunities.org/id/district-council/craven,CravenDistrictCouncil,BRL35,"""CarparkoffLowerGreenfootandCommercialStreet""",382046.708,463398.768,,0.412,Ownedbyapublicauthority,,Not permissioned,,,,,,,,Land allocated within Draft Local Plan,2018-01-09 00:00:00,2018-02-02 00:00:00,,,
,,,,,,,,,,,,,,,,,,,http://opendatacommunities.org/id/district-council/craven,CravenDistrictCouncil,BRL36,"""NYCCDepot,Kirkgate""",381847.07,463732.06,,0.24,Ownedbyapublicauthority,,Not permissioned,,,,,,,,Land allocated within Draft Local Plan,2018-01-09 00:00:00,2018-02-02 00:00:00,,,
,,,,,,,,,,,,,,,,,,,http://opendatacommunities.org/id/district-council/craven,CravenDistrictCouncil,BRL37,"""Premisesandfirestation,MillCloseandKingsMillLane""",381552.567,463727.843,,1.09,Notownedbyapublicauthority,,Not permissioned,,,,,,,,,2018-01-09 00:00:00,2018-02-02 00:00:00,,,
,,,,,,,,,,,,,,,,,,,http://opendatacommunities.org/id/district-council/craven,CravenDistrictCouncil,BRL38,"""LandtoeastofmineralrailwayoffBroughamSt""",399341.73,451276.128,,0.868,Ownedbyapublicauthority,,Not permissioned,,,,,,,,,2018-01-09 00:00:00,2018-02-02 00:00:00,,,
,,,,,,,,,,,,,,,,,,,http://opendatacommunities.org/id/district-council/craven,CravenDistrictCouncil,BRL39,"""MillandbuildersyardnorthofMartonStreet""",397737.216,451448.811,,0.27,Notownedbyapublicauthority,,Not permissioned,,,,,,,,,2018-01-09 00:00:00,2018-02-02 00:00:00,,,
,,,,,,,,,,,,,,,,,,,http://opendatacommunities.org/id/district-council/craven,CravenDistrictCouncil,BRL40,"""Formerallotmentsandgarages,BroughtonRoad""",397696.476,451239.707,,0.591,Notownedbyapublicauthority,,Permissioned,,,,8,,,,Land allocated within Draft Local Plan. Planning application not yet implemented.,2018-01-09 00:00:00,2018-02-02 00:00:00,,,
,,,,,,,,,,,,,,,,,,,http://opendatacommunities.org/id/district-council/craven,CravenDistrictCouncil,BRL41,"""WestofIngsLane/southofrailway""",397659.873,451080.691,,0.482,Notownedbyapublicauthority,,Not permissioned,,,,,,,,,2018-01-09 00:00:00,2018-02-02 00:00:00,,,
,,,,,,,,,,,,,,,,,,,http://opendatacommunities.org/id/district-council/craven,CravenDistrictCouncil,BRL42,"""WhitakersFactorySite,KeighleyRoad""",398866.127,451114.993,,0.492,Notownedbyapublicauthority,,Not permissioned,,,,,,,,Land allocated within Draft Local Plan,2018-01-09 00:00:00,2018-02-02 00:00:00,,,
,,,,,,,,,,,,,,,,,,,http://opendatacommunities.org/id/district-council/craven,CravenDistrictCouncil,BRL43,"""BusinesspremisesandlandwestofFirthStreet""",399019.142,451015.71,,2.351,Notownedbyapublicauthority,,Permissioned,,,,78,,,,Land allocated within Draft Local Plan. Planning permission not yet implemented.,2018-01-09 00:00:00,2018-02-02 00:00:00,,,
,,,,,,,,,,,,,,,,,,,http://opendatacommunities.org/id/district-council/craven,CravenDistrictCouncil,BRL44,"""JNBentleyLtd,SnaygillIndustrialEstate,WestofKeighleyRoad""",399061.691,450125.428,,0.792,Notownedbyapublicauthority,,Not permissioned,,,,,,,,,2018-01-09 00:00:00,2018-02-02 00:00:00,,,
