address,address-text,deliverable,end-date,entry-date,hazardous-substances,hectares,latitude,longitude,maximum-net-dwellings,minimum-net-dwellings,notes,organisation,ownership-status,planning-permission-date,planning-permission-history,planning-permission-status,planning-permission-type,site,OrganisationURI,OrganisationLabel,SiteReference,SiteNameAddress,GeoX,GeoY,SiteplanURL,Hectares,OwnershipStatus,HazardousSubstances,PlanningStatus,PermissionType,PermissionDate,PlanningHistory,MinNetDwellings,NetDwellingsRangeFrom,NetDwellingsRangeTo,Deliverable,Notes,FirstAddedDate,LastUpdatedDate,EndDate,site-plan-url,start-date
,,,,,,,,,,,,,,,,,,,http://opendatacommunities.org/id/district-council/chorley,Chorley,"""2933""","""Bank Hall, Bank Hall Drive, Bretherton""",53.675649,-2.81503,https://myaccount.chorley.gov.uk/MyChorley.aspx?iv=tabs,0.26,not owned by a public authority,,permissioned,,,,12,,,,"""Planning Ref: 09/01021/FULMAJ.The conversion of Bank Hall into 12 dwellings has started. The 23 new build dwellings are expected to commence following completion of the conversion. It is predicted that all of these dwellings will be completed in the five year period.""",2017-10-12,2018-12-07,,,
,,,,,,,,,,,,,,,,,,,http://opendatacommunities.org/id/district-council/chorley,Chorley,"""2528.7""","""Group 1, Parcels M1 & H1a, Brookwook Way, Buckshaw""",53.658112,-2.613453,https://myaccount.chorley.gov.uk/MyChorley.aspx?iv=tabs,3.49,not owned by a public authority,,permissioned,,,,140,,,,"""Planning Ref: 17/00441/REMMAJ (2017-10-11); 17/01123/REM (2018-01-17) 96 dwellings under construction by September 2018.""",2017-10-12,2018-12-07,,,
,,,,,,,,,,,,,,,,,,,http://opendatacommunities.org/id/district-council/chorley,Chorley,"""2528.6""","""Group 1, Parcel H1b(ii) Euxton Lane, Buckshaw""",53.676001,-2.673099,https://myaccount.chorley.gov.uk/MyChorley.aspx?iv=tabs,4.63,not owned by a public authority,,permissioned,,,,125,,,,"""Planning Ref: 17/00767/REMMAJ. 76 dwellings were under construction as at September 2018.  The parcel would be completed in the five year period and has been included in the five year supply.""",2017-10-12,2018-12-07,,,
,,,,,,,,,,,,,,,,,,,http://opendatacommunities.org/id/district-council/chorley,Chorley,"""2528""","""Group 1,  Euxton Lane, Buckshaw""",53.675024,-2.669526,https://myaccount.chorley.gov.uk/MyChorley.aspx?iv=tabs,2.3,not owned by a public authority,,permissioned,,,,96,,,,"""Planning Ref: 08/00910/OUTMAJ""",2017-10-12,2018-12-07,,,
,,,,,,,,,,,,,,,,,,,http://opendatacommunities.org/id/district-council/chorley,Chorley,"""2528.5""","""Parcel H1c, Group 1, Euxton Lane, Buckshaw""",53.676156,-2.669559,https://myaccount.chorley.gov.uk/MyChorley.aspx?iv=tabs,2.15,not owned by a public authority,,permissioned,,,,9,,,,"""Planning Ref: 15/01037/REMMAJ (2015-12-16); 16/00999/REMMAJ (2017-01-25). 9 dwellings left to be built at September 2018, all of which were under construction. All dwellings have been included in the five year supply.""",2017-10-12,2018-12-07,,,
,,,,,,,,,,,,,,,,,,,http://opendatacommunities.org/id/district-council/chorley,Chorley,"""2525""","""Talbot Mill, Froom Street, Chorley""",53.649618,-2.632376,https://myaccount.chorley.gov.uk/MyChorley.aspx?iv=tabs,4.44,not owned by a public authority,,permissioned,,,,149,,,,"""Planning Ref: 07/01426/FULMAJ (2009-06-12); 1/00875/FULMAJ (2012-01-19). Land remediation and contamination works started in 2015 however construction of the dwellings has not yet started. An email from the applicant states that terms have been agreed with a housebuilder and construction of the dwellings is expected to start around April 2018. Assuming a completion rate of 30 dwellings per annum, 120 dwellings would be completed in the five year period.""",2017-10-12,2018-11-29,,,
,,,,,,,,,,,,,,,,,,,http://opendatacommunities.org/id/district-council/chorley,Chorley,"""2613""","""The Eagle and Child Hotel, 20 Pall Mall, Chorley""",53.655737,-2.632846,https://myaccount.chorley.gov.uk/MyChorley.aspx?iv=tabs,0.1,not owned by a public authority,,permissioned,,,,14,,,,"""Planning Ref: 08/00111/FULMAJ (2010-08-05); 14/01079/FULMAJ (2015-01-20); 15/00369/FULMAJ (2016-02-19). 14 units under construction in September 2018.""",2017-10-12,2018-12-07,,,
,,,,,,,,,,,,,,,,,,,http://opendatacommunities.org/id/district-council/chorley,Chorley,"""3184""","""Lingmell House, Water Street, Chorley, PR7 1EJ""",53.706148,-2.638571,https://myaccount.chorley.gov.uk/MyChorley.aspx?iv=tabs,0.3,not owned by a public authority,,permissioned,,,,33,,,,"""Planning Ref: 16/00678/P3PAJ (2016-09-28); 16/00678/P3PAJ 16/00754/FUL (2016-10-14). Development of the site had not started in April 2017. It is predicted that all of these dwellings will be completed in the five year period.""",2017-10-12,2018-11-29,,,
,,,,,,,,,,,,,,,,,,,http://opendatacommunities.org/id/district-council/chorley,Chorley,"""3406""","""Land West of Coppull Enterprise Centre, Mill Lane, Coppull""",53.627783,-2.662791,https://myaccount.chorley.gov.uk/MyChorley.aspx?iv=tabs,1.99,not owned by a public authority,,permissioned,,,,75,,,,"""Planning Ref: 16/00656/FULMAJ (2018-05-11).  2 dwellings under construction at September 2018.""",2017-10-12,2019-01-30,,,
,,,,,,,,,,,,,,,,,,,http://opendatacommunities.org/id/district-council/chorley,Chorley,"""3124""","""The Mill Hotel, Moor Road, Croston""",53.66563,-2.752891,https://myaccount.chorley.gov.uk/MyChorley.aspx?iv=tabs,0.9,not owned by a public authority,,permissioned,,,,7,,7,,"""Planning Ref: 14/00761/OUTMAJ (2015-12-17); 16/00452/OUTMAJ (2017-02-10). Outline planning permission granted  2017-02-10 for erection of 4 detatched dwellings.  Outline planning permission granted 10/02/17 for 4 dwellings.""",2017-10-12,2018-11-29,,,
,,,,,,,,,,,,,,,,,,,http://opendatacommunities.org/id/district-council/chorley,Chorley,"""3219""","""Gleadhill House Stud, Dawbers Lane, Euxton""",53.649986,-2.623925,https://myaccount.chorley.gov.uk/MyChorley.aspx?iv=tabs,1.91,not owned by a public authority,,permissioned,,,,7,,,,"""Planning Ref: 16/00633/OUTMAJ (2017-03-31); 17/00806/REMMAJ (2017-11-08); 17/01172/REM (2018-02-07); 17/01173/REM (2018-02-28); 17/01174/REM (2018-02-28); 17/01175/REM (2019-02-28).  The site has planning permission for 12 dwellings but 2 dwellings are to be demolished therefore the net number of dwellings is 10. It is predicted that all of these dwellings will be completed in the five year period.""",2017-10-12,2018-12-07,,,
,,,,,,,,,,,,,,,,,,,http://opendatacommunities.org/id/district-council/chorley,Chorley,"""3105""","""Hole House Farm, Chorley Road, Heath Charnock""",53.690631,-2.562105,https://myaccount.chorley.gov.uk/MyChorley.aspx?iv=tabs,0.29,not owned by a public authority,,permissioned,,,,5,,,,"""Planning Ref: 15/00556/OUT (2015-09-02)",2017-10-12,2018-12-07,,,
,,,,,,,,,,,,,,,,,,,http://opendatacommunities.org/id/district-council/chorley,Chorley,"""3044""","""Goodyear Business Park, Gorsey Lane, Mawdesley""",53.63471,-2.710161,https://myaccount.chorley.gov.uk/MyChorley.aspx?iv=tabs,0.74,not owned by a public authority,,permissioned,,,,11,,,,"""Planning Ref: 17/01097/REMMAJ (2019-08-31). Erection of 56 dwellings, of which 11 are on brownfield land.""",2017-10-12,2018-12-07,,,
,,,,,,,,,,,,,,,,,,,http://opendatacommunities.org/id/district-council/chorley,Chorley,"""2952""","""JF Electrical, Little Quarry, Hill Top Lane, Whittle-le-Woods""",53.67622,-2.677402,https://myaccount.chorley.gov.uk/MyChorley.aspx?iv=tabs,6.62,not owned by a public authority,,permissioned,,,,85,,,,"""Planning Ref: 12/01134/OUTMAJ (2013-08-30). A reserved matters planning application is currently under consideration . However there is uncertainty about the deliverability of this site due to issues relating to filling works required and associated permission required from Lancashire County Council for waste operations. It has therefore not been included in the five year supply.""",2017-10-12,2018-11-29,,,
,,,,,,,,,,,,,,,,,,,http://opendatacommunities.org/id/district-council/chorley,Chorley,"""2559""","""Finnington Industrial Estate, Finnington Lane, Feniscowles""",53.642157,-2.721373,https://myaccount.chorley.gov.uk/MyChorley.aspx?iv=tabs,0.87,not owned by a public authority,,not permissioned,,,,18,,,,"""Planning permission expired in August 2017. There is uncertainty regarding the delivery of this site therefore it has not been included in the five year supply.""",2017-10-12,2018-11-29,,,
,,,,,,,,,,,,,,,,,,,http://opendatacommunities.org/id/district-council/chorley,Chorley,"""2955""","""Chimney and Building, Withnell Fold Mill, Withnell Fold, Withnell""",53.622037,-2.603602,https://myaccount.chorley.gov.uk/MyChorley.aspx?iv=tabs,2.08,not owned by a public authority,,permissioned,,,,37,,,,"""Planning Ref: 12/00084/FULMAJ (2013-08-29). Development of the site had not started in April 2017. There is uncertainty about when this development will come forward therefore it has not been included in the five year supply.""",2017-10-12,2018-11-29,,,
,,,,,,,,,,,,,,,,,,,http://opendatacommunities.org/id/district-council/chorley,Chorley,"""Camelot""","""Camelot Theme Park, Hall Road, Charnock Richard""",53.625251,-2.767459,https://myaccount.chorley.gov.uk/MyChorley.aspx?iv=tabs,14.69,not owned by a public authority,,not permissioned,,,,195,,,,"""Planning permission refused on 28/3/18""",2017-10-12,2017-10-12,,,
,,,,,,,,,,,,,,,,,,,http://opendatacommunities.org/id/district-council/chorley,Chorley,"""2932""","""Former Initial Textile Services, bounded by Botany Brow and Willow Road, Chorley""",53.664626,-2.632813,https://myaccount.chorley.gov.uk/MyChorley.aspx?iv=tabs,0.91,not owned by a public authority,,permissioned,,,,33,,,,"""Planning Ref: 11/00871/FULMAJ (2013-07-31); 12/01015/FULMAJ (2013-08-05); 13/00993/FULMAJ (2014-01-15); 14/01225/MNMA (2014-12-08); 15/00028/FUL (2015-03-18); 16/00053/FUL (2016-03-02). 33 dwellings left to be built at April 2018, none of which were under construction.  It is predicted that all of these dwellings will be completed in the five year period.""",2017-10-12,2018-11-29,,,
,,,,,,,,,,,,,,,,,,,http://opendatacommunities.org/id/district-council/chorley,Chorley,"""1799.06""","""Southern Commercial Quarter Central Core, West Block, Buckshaw Village, Chorley""",53.636117,-2.665659,https://myaccount.chorley.gov.uk/MyChorley.aspx?iv=tabs,0.12,not owned by a public authority,,permissioned,,,,31,,,,"""Planning Ref: 08/01100/REMMAJ (2009-01-15); 10/00334/FULMAJ (2010-07-28); 10/01052/REMMAJ (2011.01.13); 12/01001/REMMAJ (2013-01-16). 31 dwellings left to be built at April 2017 (West Block), none of which were under construction. It is predicted that all of these dwellings will be completed in the early to middle years of the five year period.""",2017-10-12,2018-11-29,,,
,,,,,,,,,,,,,,,,,,,http://opendatacommunities.org/id/district-council/chorley,Chorley,"""HS1.34""","""Regent Street, Coppull""",53.674913,-2.660412,https://myaccount.chorley.gov.uk/MyChorley.aspx?iv=tabs,0.5,not owned by a public authority,,not permissioned,,,,22,,,,"""No evidence that the site will come forward in the five year period.""",2017-10-12,2018-11-29,,,
,,,,,,,,,,,,,,,,,,,http://opendatacommunities.org/id/district-council/chorley,Chorley,"""HS1.52""","""Pole Green Nurseries, Charnock Richard""",53.647921,-2.643803,https://myaccount.chorley.gov.uk/MyChorley.aspx?iv=tabs,0.89,not owned by a public authority,,not permissioned,,,,29,,,,"""No evidence that the site will come forward in the five year period. A previous planning permission on the site expired in 2014.""",2017-10-12,2018-11-29,,,
,,,,,,,,,,,,,,,,,,,http://opendatacommunities.org/id/district-council/chorley,Chorley,"""2502""","""Hospital Car Park, Preston Road, Chorley""",53.71899,-2.558043,https://myaccount.chorley.gov.uk/MyChorley.aspx?iv=tabs,0.18,not owned by a public authority,,permissioned,,,,28,,,,"""Planning Ref: 09/00033/OUTMAJ (2009-04-20); 13/00076/OUTMAJ (2013-04-26); 16/00236/OUTMAJ (2016-05-26).  The site has outline planning permission for 28 dwellings. It also has temporary planning permission for use a hospital car park until July 2019 therefore redevelopment of the site is unlikely until after this date. The outline planning permission has been renewed several times as well as the temporary planning permission for use as a car park. Given the uncertainty regarding the delivery of this site it has not been included in the five year supply.""",2017-10-12,2018-11-29,,,
,,,,,,,,,,,,,,,,,,,http://opendatacommunities.org/id/district-council/chorley,Chorley,"""3349""","""Calder House and Rydal House, Chorley Hall Road, Chorley""",53.662561,-2.632071,https://myaccount.chorley.gov.uk/MyChorley.aspx?iv=tabs,0.52,not owned by a public authority,,permissioned,,,,14,,,,"""Planning Ref: 17/00438/FULMAJ (2017-11-03).""",2017-10-12,2018-11-29,,,
,,,,,,,,,,,,,,,,,,,http://opendatacommunities.org/id/district-council/chorley,Chorley,"""3074""","""Withnell Hall, Formerly Lake View Nursing Home, Chorley Road, Withnell, Chorley, PR6 8BG""",53.676191,-2.664912,https://myaccount.chorley.gov.uk/MyChorley.aspx?iv=tabs,0.79,not owned by a public authority,,permissioned,,,,14,,,,"""Planning Ref: 14/00098/FUL (2015-03-09); 16/00697/FULMAJ (2017-07-26).""",2017-10-12,2018-12-07,,,
,,,,,,,,,,,,,,,,,,,http://opendatacommunities.org/id/district-council/chorley,Chorley,"""3321""","""41 Cunliffe Street, Chorley, PR7 2BA""",53.662482,-2.774279,https://myaccount.chorley.gov.uk/MyChorley.aspx?iv=tabs,0.03,not owned by a public authority,,permissioned,,,,5,,,,"""Planning Ref: 17/00635/FUL (2017-08-16).""",2017-10-12,2018-11-29,,,
,,,,,,,,,,,,,,,,,,,http://opendatacommunities.org/id/district-council/chorley,Chorley,"""2850""","""127a Station Road, Croston""",53.703048,-2.574525,https://myaccount.chorley.gov.uk/MyChorley.aspx?iv=tabs,0.3,not owned by a public authority,,permissioned,,,,7,,,,"""Planning Ref: 12/00942/FUL (2012-12-12); 14/00315/FUL (2014-11-04); 15/00953/FULMAJ (2016-0714); 15/01040/OUT (2016-07-14); 16/01032/REM (2017-01-31); 16/00292/FUL (2017-02-06). 7 dwellings under construction at September 2018. It is predicted that all of these dwellings will be completed in the five year period.""",2017-10-12,2018-11-29,,,
,,,,,,,,,,,,,,,,,,,http://opendatacommunities.org/id/district-council/chorley,Chorley,"""3227""","""Land North of Railway Public House, Wigan Road, Euxton, PR7 6LA""",53.675718,-2.659395,https://myaccount.chorley.gov.uk/MyChorley.aspx?iv=tabs,0.16,not owned by a public authority,,permissioned,,,,9,,,,"""Planning Ref: 15/01092/OUT (2016-10-03).""",2017-10-12,2018-11-29,,,
,,,,,,,,,,,,,,,,,,,http://opendatacommunities.org/id/district-council/chorley,Chorley,"""2928""","""H W Moon Ltd, 56 Wood Lane, Heskin, Chorley""",53.634418,-2.698753,https://myaccount.chorley.gov.uk/MyChorley.aspx?iv=tabs,0.19,not owned by a public authority,,permissioned,,,,5,,,,"""Planning Ref: 13/00365/OUT (2013-07-10); 15/00281/REM (2015-05-29); 15/00282/FUL (2015-06-19); 16/00242/REM (2016-05-03). 5 dwellings left to be built at April 2018, all of which were under construction. It is predicted that all of these dwellings will be completed in the five year period.""",2017-10-12,2018-12-07,,,
,,,,,,,,,,,,,,,,,,,http://opendatacommunities.org/id/district-council/chorley,Chorley,"""3217""","""Brinscall Plumbing and Building Supplies, 17 Hartington Road, Brinscall, Chorley, PR6 8RF""",53.657232,-2.684528,https://myaccount.chorley.gov.uk/MyChorley.aspx?iv=tabs,0.15,not owned by a public authority,,permissioned,,,,7,,,,"""Planning Ref: 16/00258/OUT (2017-03-08).""",2017-10-12,2018-11-29,,,
,,,,,,,,,,,,,,,,,,,http://opendatacommunities.org/id/district-council/chorley,Chorley,"""3213""","""The Moor Inn, 26 Moor Road""",53.642395,-2.638912,https://myaccount.chorley.gov.uk/MyChorley.aspx?iv=tabs,0.03,not owned by a public authority,,permissioned,,,,8,,,,"""Planning Ref: 16/00953/OUT (2017-02-09); 17/01160/REM (2018-03-07).""",2018-12-07,2018-12-07,,,
,,,,,,,,,,,,,,,,,,,http://opendatacommunities.org/id/district-council/chorley,Chorley,"""3341""","""Chorley and South Ribble District Purchasing Team Government Offices, Peter Street""",53.653039,-2.633475,https://myaccount.chorley.gov.uk/MyChorley.aspx?iv=tabs,0.05,not owned by a public authority,,permissioned,,,,14,,,,"""Planning Ref: 17/00929/P3PAJ (2017-11-2).""",2018-12-07,2018-12-07,,,
,,,,,,,,,,,,,,,,,,,http://opendatacommunities.org/id/district-council/chorley,Chorley,"""3347""","""208 Stump Lane""",53.656327,-2.620118,https://myaccount.chorley.gov.uk/MyChorley.aspx?iv=tabs,0.19,not owned by a public authority,,permissioned,,,,10,,,,"""Planning Ref: 17/00616/FULMAJ (2017-11-08).""",2018-12-07,2018-12-07,,,
,,,,,,,,,,,,,,,,,,,http://opendatacommunities.org/id/district-council/chorley,Chorley,"""3348""","""5-9 Queens Road""",53.654541,-2.634889,https://myaccount.chorley.gov.uk/MyChorley.aspx?iv=tabs,0.04,not owned by a public authority,,permissioned,,,,18,,,,"""Planning Ref: 17/00490/FULMAJ (2017-11-28).""",2018-12-07,2018-12-07,,,
,,,,,,,,,,,,,,,,,,,http://opendatacommunities.org/id/district-council/chorley,Chorley,"""3354""","""Land adjacent to 13 and 15 Halliwell Street""",53.651815,-2.6304308,https://myaccount.chorley.gov.uk/MyChorley.aspx?iv=tabs,0.03,not owned by a public authority,,permissioned,,,,10,,,,"""Planning Ref: 17/00962/FULMAJ (2018-01-09).""",2017-12-07,2018-12-07,,,
,,,,,,,,,,,,,,,,,,,http://opendatacommunities.org/id/district-council/chorley,Chorley,"""3362""","""Shepherds Arms, 38 Eaves Lane""",53.65164,-2.617417,https://myaccount.chorley.gov.uk/MyChorley.aspx?iv=tabs,0.02,not owned by a public authority,,permissioned,,,,6,,,,"""Planning Ref: 17/01134/FUL (2018-02-09).""",2018-12-07,2018-12-07,,,
,,,,,,,,,,,,,,,,,,,http://opendatacommunities.org/id/district-council/chorley,Chorley,"""3320""","""St Bede's Parish Hall, Brownley Street""",53.69711,-2.638211,https://myaccount.chorley.gov.uk/MyChorley.aspx?iv=tabs,0.47,not owned by a public authority,,permissioned,,,,13,,,,"""Planning Ref: 17/00016/FULMAJ (2017-07-14).""",2018-12-07,2018-12-07,,,
,,,,,,,,,,,,,,,,,,,http://opendatacommunities.org/id/district-council/chorley,Chorley,"""3300""","""St George's House, St George's Street""",53.651966,-2.630736,https://myaccount.chorley.gov.uk/MyChorley.aspx?iv=tabs,0.01,not owned by a public authority,,permissioned,,,,13,,,,"""Planning Ref: 17/00276/P3PAJ (2017); 17/00270/FUL (2017-05-19); 17/00467/FUL (2017-06-28).""",2018-12-07,2018-12-07,,,
,,,,,,,,,,,,,,,,,,,http://opendatacommunities.org/id/district-council/chorley,Chorley,"""3304""","""St James Bowling Club, Eaves Lane""",53.650221,-2.617184,https://myaccount.chorley.gov.uk/MyChorley.aspx?iv=tabs,0.24,not owned by a public authority,,permissioned,,,,12,,,,"""Planning Ref: 17/00044/FULMAJ (2017-04-11).""",2018-12-07,2018-12-07,,,
,,,,,,,,,,,,,,,,,,,http://opendatacommunities.org/id/district-council/chorley,Chorley,"""3440""","""Euxton Mill, Dawbers Lane, Euxton PR7 6EB""",53.658552,-2.679949,https://myaccount.chorley.gov.uk/MyChorley.aspx?iv=tabs,0.75,not owned by a public authority,,permissioned,,,,8,,,,"""Planning Ref: 15/00162/OUTMAJ (2018-11-22).""",2019-01-30,2019-01-30,,,
,,,,,,,,,,,,,,,,,,,http://opendatacommunities.org/id/district-council/chorley,Chorley,"""3162""","""Land 20m West of 6 Ellerbeck View, Castle House Lane""",53.610036,-2.616674,https://myaccount.chorley.gov.uk/MyChorley.aspx?iv=tabs,0.2,not owned by a public authority,,permissioned,,,,7,,,,"""Planning Ref: 16/00075/FUL (2016-04-13).""",2019-01-30,2019-01-30,,,
,,,,,,,,,,,,,,,,,,,http://opendatacommunities.org/id/district-council/chorley,Chorley,"""3169""","""Bonny Greenhalgh & Co, Back Ashby Street""",53.647147,-2.629287,https://myaccount.chorley.gov.uk/MyChorley.aspx?iv=tabs,0.06,not owned by a public authority,,permissioned,,,,12,,,,"""Planning Ref: 16/00116/OUTMAJ (2016-06-30).""",2019-01-30,2019-01-30,,,
,,,,,,,,,,,,,,,,,,,http://opendatacommunities.org/id/district-council/chorley,Chorley,"""3222""","""Lynric Farm, Blue Stone Lane""",53.635139,-2.750656,https://myaccount.chorley.gov.uk/MyChorley.aspx?iv=tabs,0.8,not owned by a public authority,,permissioned,,,,5,,,,"""Planning Ref: 16/01061/FUL (2017-03-08); 17/00770/FUL (2017-11-03).""",2019-01-30,2019-01-30,,,
,,,,,,,,,,,,,,,,,,,http://opendatacommunities.org/id/district-council/chorley,Chorley,"""Former Shell Garage""","""Former Shell Garage, Preston Road""",53.662048,-2.631321,https://myaccount.chorley.gov.uk/MyChorley.aspx?iv=tabs,0.2,not owned by a public authority,,not permissioned,,,,5,,,,,2019-01-31,2019-01-31,,,
