address,address-text,deliverable,end-date,entry-date,hazardous-substances,hectares,latitude,longitude,maximum-net-dwellings,minimum-net-dwellings,notes,organisation,ownership-status,planning-permission-date,planning-permission-history,planning-permission-status,planning-permission-type,site,OrganisationURI,OrganisationLabel,SiteReference,SiteNameAddress,GeoX,GeoY,SiteplanURL,Hectares,OwnershipStatus,HazardousSubstances,PlanningStatus,PermissionType,PermissionDate,PlanningHistory,MinNetDwellings,NetDwellingsRangeFrom,NetDwellingsRangeTo,Deliverable,Notes,FirstAddedDate,LastUpdatedDate,EndDate,site-plan-url,start-date
,,,,,,,,,,,,,,,,,,,http://opendatacommunities.org/doc/district-council/breckland,Breckland District Council,BLR_01,"""Land south of Whitehouse Lane, Attleborough""",1.02623,52.511745,https://www.breckland.gov.uk/media/6177/BLR-01/pdf/BLR_01.pdf,2.62,not owned by a public authority,,permissioned,,,,60,,78,,,10/08/2017,20/11/2017,,,
,,,,,,,,,,,,,,,,,,,http://opendatacommunities.org/doc/district-council/breckland,Breckland District Council,BLR_02,"""Land at Dereham hospital, Dereham""",0.946188,52.690288,https://www.breckland.gov.uk/media/6178/BLR-02/pdf/BLR_02.pdf,3.28,not owned by a public authority,,not permissioned,,,,114,,114,,,10/08/2017,20/11/2017,,,
,,,,,,,,,,,,,,,,,,,http://opendatacommunities.org/doc/district-council/breckland,Breckland District Council,BLR_03,"""The Necton Diner, Necton""",0.773996,52.65628,http://planning.breckland.gov.uk/OcellaWeb/viewDocument?file=dv_pl_files%5C3PL_2013_0983_O%5C3PL_2013_0983_O-AM_1_1.pdf&module=pl,0.85,not owned by a public authority,yes,permissioned,,,,31,,,,,10/08/2017,20/11/2017,,,
,,,,,,,,,,,,,,,,,,,http://opendatacommunities.org/doc/district-council/breckland,Breckland District Council,BLR_04,"""Former V A Infant School, Necton""",0.780292,52.652257,https://www.breckland.gov.uk/media/6179/BLR-04/pdf/BLR_04.pdf,0.34,not owned by a public authority,yes,permissioned,,,,4,,,,Please refer to the Technical Details Constent Key Development considerations set out in the decision notice: http://planning.breckland.gov.uk/OcellaWeb/planningDetails?reference=BLR/2017/0002/PIP&from=planningSearch,10/08/2017,20/02/2018,,,
,,,,,,,,,,,,,,,,,,,http://opendatacommunities.org/doc/district-council/breckland,Breckland District Council,BLR_05,"""D D Dodd and Sons, Chapel Street, Shipdham""",0.896217,52.630081,https://www.breckland.gov.uk/media/6180/BLR-05/pdf/BLR_05.pdf,0.44,not owned by a public authority,yes,permissioned,,,,9,,,,,10/08/2017,20/11/2017,,,
,,,,,,,,,,,,,,,,,,,http://opendatacommunities.org/doc/district-council/breckland,Breckland District Council,BLR_06,"""Mellor Metals, Attleborough Road, Great Ellingham""",0.980077,52.53414,https://www.breckland.gov.uk/media/6181/BLR-06/pdf/BLR_06.pdf,1.61,not owned by a public authority,yes,permissioned,,,,75,,,,,10/08/2017,20/11/2017,,,
,,,,,,,,,,,,,,,,,,,http://opendatacommunities.org/doc/district-council/breckland,Breckland District Council,BLR_07,"""Plaswood Products Ltd Griston Road, Watton""",0.838471,52.568359,http://planning.breckland.gov.uk/OcellaWeb/viewDocument?file=dv_pl_files%5C3PL_2017_0370_D%5C6226+S01.pdf&module=pl,0.65,not owned by a public authority,yes,permissioned,,,,31,,,,,10/08/2017,20/11/2017,,,
,,,,,,,,,,,,,,,,,,,http://opendatacommunities.org/doc/district-council/breckland,Breckland District Council,BLR_08,"""Development Site, Station Road, Eccles""",0.971203,52.469954,https://www.breckland.gov.uk/media/6182/BLR-08/pdf/BLR_08.pdf,0.26,not owned by a public authority,yes,permissioned,,,,6,,,,,10/08/2017,20/11/2017,,,
,,,,,,,,,,,,,,,,,,,http://opendatacommunities.org/doc/district-council/breckland,Breckland District Council,BLR_09,"""The Old Rectory, Ashburton Road, Ickburgh""",0.683627,52.524589,http://planning.breckland.gov.uk/OcellaWeb/viewDocument?file=dv_pl_files%5C3PL_2015_0001_F%5C3PL_2015_0001_F-LP.pdf&module=pl,0.96,not owned by a public authority,yes,permissioned,,,,8,,,,,10/08/2017,20/11/2017,,,
,,,,,,,,,,,,,,,,,,,http://opendatacommunities.org/doc/district-council/breckland,Breckland District Council,BLR_10,"""Necton Garden Centre, Necton""",0.776026,52.656808,http://planning.breckland.gov.uk/OcellaWeb/viewDocument?file=dv_pl_files%5C3PL_2016_0422_D%5CSite+Layout+%281%29%281%29.pdf&module=pl,0.4,not owned by a public authority,yes,permissioned,,,,9,,,,,10/08/2017,20/11/2017,,,
,,,,,,,,,,,,,,,,,,,http://opendatacommunities.org/doc/district-council/breckland,Breckland District Council,BLR_11,"""Land off Lancaster Avenue, Carbrooke""",0.857208,52.568943,http://planning.breckland.gov.uk/OcellaWeb/viewDocument?file=dv_pl_files%5C3PL_2016_0084_F%5C3PL_2016_0084_F-LP.pdf&module=pl,2.93,not owned by a public authority,yes,permissioned,,,,106,,,,,10/08/2017,20/11/2017,,,
,,,,,,,,,,,,,,,,,,,http://opendatacommunities.org/doc/district-council/breckland,Breckland District Council,BLR_12,"""Dennys Walk, Narborough""",0.58423,52.683664,https://www.breckland.gov.uk/media/6184/BLR-12/pdf/BLR_12.pdf,0.53,not owned by a public authority,yes,permissioned,,,,21,,,,,10/08/2017,20/11/2017,,,
,,,,,,,,,,,,,,,,,,,http://opendatacommunities.org/doc/district-council/breckland,Breckland District Council,BLR_13,"""Land off Fengate Drove, Brandon""",0.619799,52.454089,https://www.breckland.gov.uk/media/6188/BLR-13/pdf/BLR_13.pdf,0.55,not owned by a public authority,yes,permissioned,,,,21,,,,Only part of the site has been included as the majority of the site falls outside of the district boundary.,10/08/2017,20/11/2017,,,
,,,,,,,,,,,,,,,,,,,http://opendatacommunities.org/doc/district-council/breckland,Breckland District Council,BLR_14,"""Low Meadow Park, Thompson Road, Griston""",0.867898,52.551157,http://planning.breckland.gov.uk/OcellaWeb/viewDocument?file=dv_pl_files%5C3PL_2016_0297_O%5CSITE+LOCATION+A4.pdf&module=pl,0.38,not owned by a public authority,yes,permissioned,,,,5,,,,,10/08/2017,20/11/2017,,,
,,,,,,,,,,,,,,,,,,,http://opendatacommunities.org/doc/district-council/breckland,Breckland District Council,BLR_15,"""SPK engineering, The Old Sawmills, Mileham""",0.826668,52.737327,https://www.breckland.gov.uk/media/6189/BLR-15/pdf/BLR_15.pdf,0.31,not owned by a public authority,yes,permissioned,,,,10,,,,,10/08/2017,20/11/2017,,,
,,,,,,,,,,,,,,,,,,,http://opendatacommunities.org/doc/district-council/breckland,Breckland District Council,BLR_16,"""Land off Kimms Belt London Road, Thetford""",0.732985,52.407589,http://planning.breckland.gov.uk/OcellaWeb/viewDocument?file=dv_pl_files%5C3PL_2016_0379_F%5C3PL_2016_0379_F-AM.pdf&module=pl,0.42,not owned by a public authority,yes,permissioned,,,,29,,,,,10/08/2017,20/11/2017,,,
,,,,,,,,,,,,,,,,,,,http://opendatacommunities.org/doc/district-council/breckland,Breckland District Council,BLR_17,"""Land East of Brandon Road, Swaffham""",0.69447,52.632991,http://planning.breckland.gov.uk/OcellaWeb/viewDocument?file=dv_pl_files%5C3PL_2014_1154_F%5C3PL_2014_1154_F-LP.pdf&module=pl,5.1,not owned by a public authority,yes,permissioned,,,,136,,,,,10/08/2017,20/11/2017,,,
,,,,,,,,,,,,,,,,,,,http://opendatacommunities.org/doc/district-council/breckland,Breckland District Council,BLR_18,"""Iceni Brewery, Foulden Road, Ickburgh""",0.662219,52.520181,http://planning.breckland.gov.uk/OcellaWeb/viewDocument?file=dv_pl_files%5C3PL_2017_0288_F%5C1616+03C+Proposed+Site+Plan.pdf&module=pl,0.3,not owned by a public authority,yes,permissioned,,,,1,,,,,10/08/2017,20/11/2017,,,
,,,,,,,,,,,,,,,,,,,http://opendatacommunities.org/doc/district-council/breckland,Breckland District Council,BLR_19,"""The Old Maltings, Norwich Road, Dereham""",0.950765,52.676955,http://planning.breckland.gov.uk/OcellaWeb/viewDocument?file=dv_pl_files%5C3PL_2016_1454_H%5CPlanning+Application+Boundary.pdf&module=pl,4.8,not owned by a public authority,yes,permissioned,,,,127,,,,,10/08/2017,20/11/2017,,,
,,,,,,,,,,,,,,,,,,,http://opendatacommunities.org/doc/district-council/breckland,Breckland District Council,BLR_20,"""The Old Maltings, Norwich Road, Dereham""",0.949567,52.677192,https://www.breckland.gov.uk/media/6190/BLR-20/pdf/BLR_20.pdf,2.01,not owned by a public authority,,not permissioned,,,,53,,75,,Please refer to the Technical Details Constent Key Development considerations set out in the decision notice: http://planning.breckland.gov.uk/OcellaWeb/planningDetails?reference=BLR/2017/0003/PIP&from=planningSearch,10/08/2017,20/02/2018,,,
,,,,,,,,,,,,,,,,,,,http://opendatacommunities.org/doc/district-council/breckland,Breckland District Council,BLR_21,"""Hamilton Acorn Ltd. Halford Road, Attleborough""",1.016868,52.513647,http://planning.breckland.gov.uk/OcellaWeb/viewDocument?file=dv_pl_files%5C3PL_2011_0489_O%5C3PL_2011_0489_O-LP.pdf&module=pl,2.5,not owned by a public authority,yes,permissioned,,,,86,,,,Please refer to the Technical Details Constent Key Development considerations set out in the decision notice: http://planning.breckland.gov.uk/OcellaWeb/planningDetails?reference=BLR/2017/0004/PIP&from=planningSearch,10/08/2017,20/02/2018,,,
,,,,,,,,,,,,,,,,,,,http://opendatacommunities.org/doc/district-council/breckland,Breckland District Council,BLR_22,"""Former Quantrills Industrial Estate, Church Street, Griston""",0.864404,52.553454,http://planning.breckland.gov.uk/OcellaWeb/viewDocument?file=dv_pl_files%5C3PL_2012_1045_O%5CChurch+Road+Griston+Location+Plan.pdf&module=pl,1.8,not owned by a public authority,yes,permissioned,,,,37,,,,,10/08/2017,20/11/2017,,,
,,,,,,,,,,,,,,,,,,,http://opendatacommunities.org/doc/district-council/breckland,Breckland District Council,BLR_23,"""Station Yard, North Elmham""",0.95184,52.744024,http://planning.breckland.gov.uk/OcellaWeb/viewDocument?file=dv_pl_files%5C3PL_2013_1045_O%5C3PL_2013_1045_O-LP.pdf&module=pl,0.77,not owned by a public authority,yes,permissioned,,,,19,,,,,10/08/2017,20/11/2017,,,
,,,,,,,,,,,,,,,,,,,http://opendatacommunities.org/doc/district-council/breckland,Breckland District Council,BLR_24,"""Horningham Welding & Fabrication Services, Kensington Forge, Mattishall""",1.004427,52.661442,http://planning.breckland.gov.uk/OcellaWeb/viewDocument?file=dv_pl_files%5C3PL_2014_0495_F%5C3PL_2014_0495_F-PLANS.pdf&module=pl,0.98,not owned by a public authority,yes,permissioned,,,,11,,,,,10/08/2017,20/11/2017,,,
,,,,,,,,,,,,,,,,,,,http://opendatacommunities.org/doc/district-council/breckland,Breckland District Council,BLR_25,"""The Old Waggon & Horses, Chapel Street, Shipdham""",0.89518,52.630493,https://www.breckland.gov.uk/media/6191/BLR-25/pdf/BLR_25.pdf,1.23,not owned by a public authority,yes,permissioned,,,,90,,,,"The outline permission is kept live by the reserved matters application, which is yet to be determined (3PL/2017/0757/D: http://planning.breckland.gov.uk/OcellaWeb/planningDetails?reference=3PL/2017/0757/D&from=planningSearch)",10/08/2017,20/11/2017,,,
