address,address-text,deliverable,end-date,entry-date,hazardous-substances,hectares,latitude,longitude,maximum-net-dwellings,minimum-net-dwellings,notes,organisation,ownership-status,planning-permission-date,planning-permission-history,planning-permission-status,planning-permission-type,site,OrganisationURI,OrganisationLabel,SiteReference,SiteNameAddress,GeoX,GeoY,SiteplanURL,Hectares,OwnershipStatus,HazardousSubstances,PlanningStatus,PermissionType,PermissionDate,PlanningHistory,MinNetDwellings,NetDwellingsRangeFrom,NetDwellingsRangeTo,Deliverable,Notes,FirstAddedDate,LastUpdatedDate,EndDate,site-plan-url,start-date
,,,,,,,,,,,,,,,,,,,http://opendatacommunities.org/resource?uri=http://opendatacommunities.org/id/geography/administration/nmd/E07000242,East Herts Council,BR/01,"Bishop's Stortford High School Site, London Road,  Bishop's Stortford, CM23 3LU",549002.2,219746.3,https://www.eastherts.gov.uk/brownfieldregister,2.69ha,Not owned by a public authority,,Not permissioned,,,,150.0,,,,"The Bishop’s Stortford High School site has been allocated in the emerging East Herts District Plan, under Policy BISH6. This site will only be released for development if sufficient secondary school capacity is provided within the Bishop’s Stortford South site (BISH5), also allocated in the East Herts District Plan. Only part of the whole site is brownfield.",2017-12-31,2017-12-31,,,
,,,,,,,,,,,,,,,,,,,http://opendatacommunities.org/resource?uri=http://opendatacommunities.org/id/geography/administration/nmd/E07000243,East Herts Council,BR/02,"The Goods Yard, Station Road, Bishop's Stortford, CM23 3BL",549124.5,220749.1,https://www.eastherts.gov.uk/brownfieldregister,6.64ha,Not owned by a public authority,,Pending decision,,,,600.0,,,,"The Goods Yard site has been allocated in the emerging East Herts District Plan, under Policy BISH7.",2017-12-31,2017-12-31,,,
,,,,,,,,,,,,,,,,,,,http://opendatacommunities.org/resource?uri=http://opendatacommunities.org/id/geography/administration/nmd/E07000244,East Herts Council,BR/03,"Old River Lane, The Causeway, Bishop's Stortford, CM23 2EN",548840.4,221498.3,https://www.eastherts.gov.uk/brownfieldregister,1.68ha,Owned by a public authority,,Not permissioned,,,,100.0,,,,"The Old River Lane site has been allocated in the emerging East Herts District Plan, under Policy BISH8.",2017-12-31,2017-12-31,,,
,,,,,,,,,,,,,,,,,,,http://opendatacommunities.org/resource?uri=http://opendatacommunities.org/id/geography/administration/nmd/E07000245,East Herts Council,BR/04,"The Mill Site, Dane Street, Bishop's Stortford, CM23 3XZ",549025.6,221134.2,https://www.eastherts.gov.uk/brownfieldregister,1.48ha,Not owned by a public authority,,Not permissioned,,,,,,,,"The Mill Site has been allocated in the emerging East Herts District Plan, under Policy BISH10. A housing allocation has not been given for this site, as currently the site is still in employment use. The site will remain a designated employment area, until such time that the land becomes available for redevelopment.",2017-12-31,2017-12-31,,,
,,,,,,,,,,,,,,,,,,,http://opendatacommunities.org/resource?uri=http://opendatacommunities.org/id/geography/administration/nmd/E07000246,East Herts Council,BR/05,"8 & 10 Rye Street, Bishop's Stortford, CM23 2HG",548725.9,221816.5,https://www.eastherts.gov.uk/brownfieldregister,0.11ha,Not owned by a public authority,,Permissioned,,,,7.0,,,,,2017-12-31,2017-12-31,,,
,,,,,,,,,,,,,,,,,,,http://opendatacommunities.org/resource?uri=http://opendatacommunities.org/id/geography/administration/nmd/E07000247,East Herts Council,BR/06,"Millars One, Southmill Road, Bishop's Stortford, CM23 3DH",549076.0,220666.7,https://www.eastherts.gov.uk/brownfieldregister,0.04ha,Not owned by a public authority,,Permissioned,,,,6.0,,,,,2017-12-31,2017-12-31,,,
,,,,,,,,,,,,,,,,,,,http://opendatacommunities.org/resource?uri=http://opendatacommunities.org/id/geography/administration/nmd/E07000248,East Herts Council,BR/07,"Thorley Place, Thorley Lane East, Bishop's Stortford, CM23 4BH",547512.5,219435.6,https://www.eastherts.gov.uk/brownfieldregister,0.04ha,Not owned by a public authority,,Permissioned,,,,5.0,,,,Only part of the whole site is brownfield.,2017-12-31,2017-12-31,,,
,,,,,,,,,,,,,,,,,,,http://opendatacommunities.org/resource?uri=http://opendatacommunities.org/id/geography/administration/nmd/E07000249,East Herts Council,BR/08,"First and Second Floors, 42 North Street, Bishop's Stortford, CM23 2LR",548687.7,221562.7,https://www.eastherts.gov.uk/brownfieldregister,0.02ha,Not owned by a public authority,,Permissioned,,,,5.0,,,,,2017-12-31,2017-12-31,,,
,,,,,,,,,,,,,,,,,,,http://opendatacommunities.org/resource?uri=http://opendatacommunities.org/id/geography/administration/nmd/E07000251,East Herts Council,BR/09,"Mead Lane Area, Mead Lane, Hertford, SG13 7AJ",533273.3,213219.6,https://www.eastherts.gov.uk/brownfieldregister,4.18ha,Not owned by a public authority,,Not permissioned,,,,200.0,,,,"The Mead Lane Area has been allocated in the emerging East Herts District Plan, under HERT2.",2017-12-31,2017-12-31,,,
,,,,,,,,,,,,,,,,,,,http://opendatacommunities.org/resource?uri=http://opendatacommunities.org/id/geography/administration/nmd/E07000252,East Herts Council,BR/10,"Land North of Hertford (Nursery Site), Sacombe Road, Hertford, SG14 3DX",532339.3,214246.1,https://www.eastherts.gov.uk/brownfieldregister,1.13ha,Not owned by a public authority,,Not permissioned,,,,50.0,,,,The Bengeo Nursery Site has been allocated as part of the site allocation policy HERT4 in the emerging East Herts District Plan. This part of the allocation will deliver 50 homes. Only part of the whole site is brownfield.,2017-12-31,2017-12-31,,,
,,,,,,,,,,,,,,,,,,,http://opendatacommunities.org/resource?uri=http://opendatacommunities.org/id/geography/administration/nmd/E07000253,East Herts Council,BR/11,"26 Ware Road, Hertford, SG13 7HH",533184.2,212767.2,https://www.eastherts.gov.uk/brownfieldregister,0.07ha,Not owned by a public authority,,Permissioned,,,,10.0,,,,,2017-12-31,2017-12-31,,,
,,,,,,,,,,,,,,,,,,,http://opendatacommunities.org/resource?uri=http://opendatacommunities.org/id/geography/administration/nmd/E07000254,East Herts Council,BR/12,"17 - 19 Castle Street, Hertford, Sg14 1ER",532623.6,212460.9,https://www.eastherts.gov.uk/brownfieldregister,0.03ha,Not owned by a public authority,,Permissioned,,,,8.0,,,,Only part of the whole site is brownfield.,2017-12-31,2017-12-31,,,
,,,,,,,,,,,,,,,,,,,http://opendatacommunities.org/resource?uri=http://opendatacommunities.org/id/geography/administration/nmd/E07000255,East Herts Council,BR/13,"First, Second and Third Floors, 24, 26,28 Maidenhead Street and 4, 6, 8 The Wash, Hertford, SG14 1DR",532561.3,212615.6,https://www.eastherts.gov.uk/brownfieldregister,0.02ha,Not owned by a public authority,,Permissioned,,,,7.0,,,,,2017-12-31,2017-12-31,,,
,,,,,,,,,,,,,,,,,,,http://opendatacommunities.org/resource?uri=http://opendatacommunities.org/id/geography/administration/nmd/E07000256,East Herts Council,BR/14,"8 - 12 Railway Street, Hertford, SG14 1BG",532708.6,212650.4,https://www.eastherts.gov.uk/brownfieldregister,0.02ha,Not owned by a public authority,,Permissioned,,,,7.0,,,,,2017-12-31,2017-12-31,,,
,,,,,,,,,,,,,,,,,,,http://opendatacommunities.org/resource?uri=http://opendatacommunities.org/id/geography/administration/nmd/E07000257,East Herts Council,BR/15,"8 – 12 Bull Plain, Hertford, SG14 1DT",532656.1,212672.8,https://www.eastherts.gov.uk/brownfieldregister,0.02ha,Not owned by a public authority,,Permissioned,,,,6.0,,,,,2017-12-31,2017-12-31,,,
,,,,,,,,,,,,,,,,,,,http://opendatacommunities.org/resource?uri=http://opendatacommunities.org/id/geography/administration/nmd/E07000258,East Herts Council,BR/16,"Suite 2, Plymouth House, The Square, Sawbridgeworth, CM21 9AE",548347.6,214804.8,https://www.eastherts.gov.uk/brownfieldregister,0.01ha,Not owned by a public authority,,Permissioned,,,,5.0,,,,,2017-12-31,2017-12-31,,,
,,,,,,,,,,,,,,,,,,,http://opendatacommunities.org/resource?uri=http://opendatacommunities.org/id/geography/administration/nmd/E07000259,East Herts Council,BR/17,"Land at Crane Mead, Crane Mead, Ware, SG12 9PY",536195.3,213962.6,https://www.eastherts.gov.uk/brownfieldregister,0.84ha,Not owned by a public authority,,Permissioned,,,,101.0,,,,,2017-12-31,2017-12-31,,,
,,,,,,,,,,,,,,,,,,,http://opendatacommunities.org/resource?uri=http://opendatacommunities.org/id/geography/administration/nmd/E07000260,East Herts Council,BR/18,"Former Sun and Harrow Public House, Fanhams Road, Ware, SG12 7DQ",536435.9,214796.8,https://www.eastherts.gov.uk/brownfieldregister,0.11ha,Not owned by a public authority,,Permissioned,,,,8.0,,,,,2017-12-31,2017-12-31,,,
,,,,,,,,,,,,,,,,,,,http://opendatacommunities.org/resource?uri=http://opendatacommunities.org/id/geography/administration/nmd/E07000261,East Herts Council,BR/19,"2b Star Street, Ware, SG12 7AA",536045.1,214182.5,https://www.eastherts.gov.uk/brownfieldregister,0.05ha,Owned by a public authority,,Not permissioned,,,,5.0,,,,,2017-12-31,2017-12-31,,,
,,,,,,,,,,,,,,,,,,,http://opendatacommunities.org/resource?uri=http://opendatacommunities.org/id/geography/administration/nmd/E07000250,East Herts Council,BR/20,"Steelcraft Works, Hare Street, Buntingford, SG9 0DX",539106.0,230363.1,https://www.eastherts.gov.uk/brownfieldregister,0.54ha,Not owned by a public authority,,Permissioned,,,,5.0,,,,,2017-12-31,2017-12-31,,,
,,,,,,,,,,,,,,,,,,,http://opendatacommunities.org/resource?uri=http://opendatacommunities.org/id/geography/administration/nmd/E07000262,East Herts Council,BR/21,"Builders Yard, High Wych Lane, High Wych, Sawbridgeworth, CM21 0JS",546406.8,214218.2,https://www.eastherts.gov.uk/brownfieldregister,0.22ha,Not owned by a public authority,,Permissioned,,,,3.0,,,,The site is only part brownfield. The site area of the whole site is over 0.25ha.,2017-12-31,2017-12-31,,,
,,,,,,,,,,,,,,,,,,,http://opendatacommunities.org/resource?uri=http://opendatacommunities.org/id/geography/administration/nmd/E07000263,East Herts Council,BR/22,"The Well House and Dixon’s Yard, Acorn Street, Hunsdon, SG12 8PF",541784.5,213482.8,https://www.eastherts.gov.uk/brownfieldregister,0.78ha,Not owned by a public authority,,Permissioned,,,,12.0,,,,,2017-12-31,2017-12-31,,,
,,,,,,,,,,,,,,,,,,,http://opendatacommunities.org/resource?uri=http://opendatacommunities.org/id/geography/administration/nmd/E07000264,East Herts Council,BR/23,"Spellbrook Farm, London Road, Spellbrook, Bishop’s Stortford, CM23 4AX",548584.5,217572.0,https://www.eastherts.gov.uk/brownfieldregister,0.26ha,Not owned by a public authority,,Permissioned,,,,3.0,,,,,2017-12-31,2017-12-31,,,
,,,,,,,,,,,,,,,,,,,http://opendatacommunities.org/resource?uri=http://opendatacommunities.org/id/geography/administration/nmd/E07000265,East Herts Council,BR/24,"The Spinney, Hoddesdon Road, Stanstead Abbotts, Ware, SG12 8EJ",538046.6,211390.2,https://www.eastherts.gov.uk/brownfieldregister,0.22ha,Not owned by a public authority,,Permissioned,,,,6.0,,,,,2017-12-31,2017-12-31,,,
,,,,,,,,,,,,,,,,,,,http://opendatacommunities.org/resource?uri=http://opendatacommunities.org/id/geography/administration/nmd/E07000266,East Herts Council,BR/25,"17 High Road, Stapleford, Hertford, SG14 3NW",531054.6,217224.2,https://www.eastherts.gov.uk/brownfieldregister,0.24ha,Not owned by a public authority,,Permissioned,,,,7.0,,,,,2017-12-31,2017-12-31,,,
,,,,,,,,,,,,,,,,,,,http://opendatacommunities.org/resource?uri=http://opendatacommunities.org/id/geography/administration/nmd/E07000267,East Herts Council,BR/26,"Land adjoining Sacombe Road, Sacombe Road, Waterford, SG14 3LU",531832.1,215037.5,https://www.eastherts.gov.uk/brownfieldregister,0.5ha,Not owned by a public authority,,Permissioned,,,,8.0,,,,,2017-12-31,2017-12-31,,,
,,,,,,,,,,,,,,,,,,,http://opendatacommunities.org/resource?uri=http://opendatacommunities.org/id/geography/administration/nmd/E07000268,East Herts Council,BR/27,"Watton-at-Stone Depot, Station Road, Watton-at-Stone, SG14 3SH",529671.1,219296.1,https://www.eastherts.gov.uk/brownfieldregister,0.39ha,Not owned by a public authority,,Not permissioned,,,,10.0,,,,"The Watton-at-Stone Depot was identified in the Strategic Land Availability Assessment, 2016 as suitable, available and achievable.",2017-12-31,2017-12-31,,,
