address,address-text,deliverable,end-date,entry-date,hazardous-substances,hectares,latitude,longitude,maximum-net-dwellings,minimum-net-dwellings,notes,organisation,ownership-status,planning-permission-date,planning-permission-history,planning-permission-status,planning-permission-type,site,OrganisationURI,OrganisationLabel,SiteReference,SiteNameAddress,GeoX,GeoY,SiteplanURL,Hectares,OwnershipStatus,HazardousSubstances,PlanningStatus,PermissionType,PermissionDate,PlanningHistory,MinNetDwellings,NetDwellingsRangeFrom,NetDwellingsRangeTo,Deliverable,Notes,FirstAddedDate,LastUpdatedDate,EndDate,site-plan-url,start-date
,,,,,,,,,,,,,,,,,,,http://opendatacommunities.org/id/district-council/amber-valley,Amber Valley,BFLR0001,Spring Road Riddings,53.069235,-1.350658,http://info.ambervalley.gov.uk/maps/brownfieldmap.html?lat=53.0692352277&lng=-1.3506579388,1.27,not owned by a public authority,,permissioned,,,,14,,14,,The site is currently under construction,06/12/2017,06/12/2017,,,
,,,,,,,,,,,,,,,,,,,http://opendatacommunities.org/id/district-council/amber-valley,Amber Valley,BFLR0002,Land at Greenhill Lane Leabrooks,53.075517,-1.372058,http://info.ambervalley.gov.uk/maps/brownfieldmap.html?lat=53.0755165967&lng=-1.3720578812,2.02,not owned by a public authority,,permissioned,,,,24,,24,,The site is currently under construction,06/12/2017,06/12/2017,,,
,,,,,,,,,,,,,,,,,,,http://opendatacommunities.org/id/district-council/amber-valley,Amber Valley,BFLR0003,Millford Mills Milford,53.00341,-1.479428,http://info.ambervalley.gov.uk/maps/brownfieldmap.html?lat=53.00034104272&lng=-1.4794278291,2.01,not owned by a public authority,,permissioned,,,,69,,69,,Part of a mixed use development,06/12/2017,06/12/2017,,,
,,,,,,,,,,,,,,,,,,,http://opendatacommunities.org/id/district-council/amber-valley,Amber Valley,BFLR0004,Black Horse Inn Lower Somercotes,53.074898,-1.358902,http://info.ambervalley.gov.uk/maps/brownfieldmap.html?lat=53.0748981511&lng=-1.3589017133,0.9,not owned by a public authority,,permissioned,,,,18,,18,,,06/12/2017,06/12/2017,,,
,,,,,,,,,,,,,,,,,,,http://opendatacommunities.org/id/district-council/amber-valley,Amber Valley,BFLR0005,John Smedley Ltd Lea Road Lea Bridge,53.104037,-1.525055,http://info.ambervalley.gov.uk/maps/brownfieldmap.html?lat=53.1040369302&lng=-1.5250554687,0.46,not owned by a public authority,,permissioned,,,,26,,26,,,06/12/2017,06/12/2017,,,
,,,,,,,,,,,,,,,,,,,http://opendatacommunities.org/id/district-council/amber-valley,Amber Valley,BFLR0006,Derwent Street Belper,53.023879,-1.487785,http://info.ambervalley.gov.uk/maps/brownfieldmap.html?lat=53.0238791092lng=-1.4877850025,4.02,not owned by a public authority,,permissioned,,,,107,,107,,,06/12/2017,06/12/2017,,,
,,,,,,,,,,,,,,,,,,,http://opendatacommunities.org/id/district-council/amber-valley,Amber Valley,BFLR0007,Land at Salcombe Road Alfreton,53.100504,-1.373292,http://info.ambervalley.gov.uk/maps/brownfieldmap.html?lat=53.1005040651&lng=-1.3732924756,0.34,not owned by a public authority,,permissioned,,,,21,,21,,The site is currently under construction,06/12/2017,06/12/2017,,,
,,,,,,,,,,,,,,,,,,,http://opendatacommunities.org/id/district-council/amber-valley,Amber Valley,BFLR0008,Delves Court Heanor,53.008994,-1.358074,http://info.ambervalley.gov.uk/maps/brownfieldmap.html?lat=53.0089935361&lng=-1.3580738024,0.75,not owned by a public authority,,permissioned,,,,30,,30,,The site is currently under construction,06/12/2017,06/12/2017,,,
,,,,,,,,,,,,,,,,,,,http://opendatacommunities.org/id/district-council/amber-valley,Amber Valley,BFLR0009,Bridge Waste Disposal 66 Main Road Pye Bridge,53.07189,-1.341364,http://info.ambervalley.gov.uk/maps/brownfieldmap.html?lat=53.0718899941&lng=-1.3413644197,0.48,not owned by a public authority,,pending decision,,,,17,,17,,,06/12/2017,06/12/2017,,,
,,,,,,,,,,,,,,,,,,,http://opendatacommunities.org/id/district-council/amber-valley,Amber Valley,BFLR0010,Bradshaw Avenue Ridding,53.068588,-1.362249,http://info.ambervalley.gov.uk/maps/brownfieldmap.html?lat=53.0685877201&lng=-1.3622487862,2.5,owned by a public authority,,permissioned,,,,93,,93,,,06/12/2017,06/12/2017,,,
,,,,,,,,,,,,,,,,,,,http://opendatacommunities.org/id/district-council/amber-valley,Amber Valley,BFLR0011,Land at Butterley Hill Ripley,53.053715,-1.344804,http://info.ambervalley.gov.uk/maps/brownfieldmap.html?lat=53.0537146558&lng=-1.344808074,0.3,not owned by a public authority,,permissioned,,,,14,,14,,,06/12/2017,06/12/2017,,,
,,,,,,,,,,,,,,,,,,,http://opendatacommunities.org/id/district-council/amber-valley,Amber Valley,BFLR0012,Former Loscoe Miners Welfare Loscoe,53.024987,-1.361698,http://info.ambervalley.gov.uk/maps/brownfieldmap.html?lat=53.0249869236&lng=-1.3616983637,2.18,not owned by a public authority,,permissioned,,,,68,,68,,,06/12/2017,06/12/2017,,,
,,,,,,,,,,,,,,,,,,,http://opendatacommunities.org/id/district-council/amber-valley,Amber Valley,BFLR0013,19 Church Street Heanor,53.01396,-1.350622,http://info.ambervalley.gov.uk/maps/brownfieldmap.html?lat=53.0139600908&lng=-1.3506222175,0.09,not owned by a public authority,,permissioned,,,,12,,12,,,06/12/2017,06/12/2017,,,
,,,,,,,,,,,,,,,,,,,http://opendatacommunities.org/id/district-council/amber-valley,Amber Valley,BFLR0014,Land to rear of 27-41 Main Road Leabrooks,53.076811,-1.372129,http://info.ambervalley.gov.uk/maps/brownfieldmap.html?lat=53.0768114135&lng=-1.3721286348,0.32,not owned by a public authority,,permissioned,,,,18,,18,,,06/12/2017,06/12/2017,,,
,,,,,,,,,,,,,,,,,,,http://opendatacommunities.org/id/district-council/amber-valley,Amber Valley,BFLR0015,Land to Rear of The Butchers Arms Hands Road Heanor,53.013107,-1.342527,http://info.ambervalley.gov.uk/maps/brownfieldmap.html?lat=53.0131066085&lng=-1.3425266854,0.2,not owned by a public authority,,permissioned,,,,11,,11,,,06/12/2017,06/12/2017,,,
,,,,,,,,,,,,,,,,,,,http://opendatacommunities.org/id/district-council/amber-valley,Amber Valley,BFLR0016,Middlebrook Transport Heanor,53.100304,-1.376208,http://info.ambervalley.gov.uk/maps/brownfieldmap.html?lat=53.1003036141&lng=-1.3762077543,1.2,not owned by a public authority,,permissioned,,,,54,,54,,The site is currently under construction,06/12/2017,06/12/2017,,,
,,,,,,,,,,,,,,,,,,,http://opendatacommunities.org/id/district-council/amber-valley,Amber Valley,BFLR0017,17 King Street Alfreton,53.096798,-1.390162,http://info.ambervalley.gov.uk/maps/brownfieldmap.html?lat=53.0967981203&lng=-1.3901619656,1,not owned by a public authority,,permissioned,,,,11,,11,,,06/12/2017,06/12/2017,,,
,,,,,,,,,,,,,,,,,,,http://opendatacommunities.org/id/district-council/amber-valley,Amber Valley,BFLR0018,Former American Adventure Theme Park Pit Lane Shipley,52.993639,-1.338263,http://info.ambervalley.gov.uk/maps/brownfieldmap.html?lat=53.9936392978&lng=-1.3382626567,46.48,owned by a public authority,,permissioned,,,,307,,307,,Residential element as part of large mixed use development,06/12/2017,06/12/2017,,,
,,,,,,,,,,,,,,,,,,,http://opendatacommunities.org/id/district-council/amber-valley,Amber Valley,BFLR0019,Belper Police Station Field Lane Belper,53.024761,-1.481736,http://info.ambervalley.gov.uk/maps/brownfieldmap.html?lat=53.024760858&lng=-1.4817363861,0.47,not owned by a public authority,,permissioned,,,,13,,13,,,06/12/2017,06/12/2017,,,
,,,,,,,,,,,,,,,,,,,http://opendatacommunities.org/id/district-council/amber-valley,Amber Valley,BFLR0020,Land off Cromford Road Langley Mill,53.023432,-1.327432,http://info.ambervalley.gov.uk/maps/brownfieldmap.html?lat=53.0234317133&lng=-1.3274318858,0.88,not owned by a public authority,,permissioned,,,,38,,38,,The site is currently under construction,06/12/2017,06/12/2017,,,
,,,,,,,,,,,,,,,,,,,http://opendatacommunities.org/id/district-council/amber-valley,Amber Valley,BFLR0021,Marehay Garage Derby Road Marehay,53.031736,-1.406543,http://info.ambervalley.gov.uk/maps/brownfieldmap.html?lat=53.0317361246&lng=-1.4065426835,0.42,not owned by a public authority,,permissioned,,,,20,,20,,,06/12/2017,06/12/2017,,,
,,,,,,,,,,,,,,,,,,,http://opendatacommunities.org/id/district-council/amber-valley,Amber Valley,BFLR0022,Land at Sleetmoor Lane Somercotes,53.080631,-1.371969,http://info.ambervalley.gov.uk/maps/brownfieldmap.html?lat=53.0806309749&lng=-1.3719686501,0.11,not owned by a public authority,,permissioned,,,,12,,12,,The site is currently under construction,06/12/2017,06/12/2017,,,
,,,,,,,,,,,,,,,,,,,http://opendatacommunities.org/id/district-council/amber-valley,Amber Valley,BFLR0023,Memory Lane Inn 72 Derby Road Heanor,53.013541,-1.361152,http://info.ambervalley.gov.uk/maps/brownfieldmap.html?lat=53.0135406622&lng=-1.3611515064,0.12,not owned by a public authority,,permissioned,,,,13,,13,,,06/12/2017,06/12/2017,,,
,,,,,,,,,,,,,,,,,,,http://opendatacommunities.org/id/district-council/amber-valley,Amber Valley,BFLR0024,Land West of Old Coppice Side Heanor,53.004733,-1.356408,http://info.ambervalley.gov.uk/maps/brownfieldmap.html?lat=53.0047326278&lng=-1.356408232,0.93,owned by a public authority,,permissioned,,,,30,,30,,,06/12/2017,06/12/2017,,,
,,,,,,,,,,,,,,,,,,,http://opendatacommunities.org/id/districy-council/amber-valley,Amber Valley,BFLR0025,Labour Club Lander Lane Belper,53.023997,-1.47769,http://info.ambervalley.gov.uk/maps/brownfieldmap.html?lat=53.02399708&lng=-1.4776903346,0.14,not owned by a public authority,,permissioned,,,,13,,13,,,06/12/2017,06/12/2017,,,
,,,,,,,,,,,,,,,,,,,http://opendatacommunities.org/id/district-council/amber-valley,Amber Valley,BFLR0026,Land at 34 Greenhill Lane Leabrooks,53.07445,-1.374342,http://info.ambervalley.gov.uk/maps/brownfieldmap.html?lat=53.0744499141&lng=-1.3743421891,1.27,not owned by a public authority,,permissioned,,,,58,,58,,,06/12/2017,06/12/2017,,,
,,,,,,,,,,,,,,,,,,,http://opendatacommunities.org/id/district-council/amber-valley,Amber Valley,BFLR0027,Land at Bullbridge Hill Ambergate,53.066138,-1.46954,http://info.ambervalley.gov.uk/maps/brownfieldmap.html?lat=53.0661383088&lng=-1.4695395665,8.2,not owned by a public authority,,permissioned,,,,171,,171,,Residential emelent as part of a mixed use development,06/12/2017,06/12/2017,,,
,,,,,,,,,,,,,,,,,,,http://opendatacommunities.org/id/district-council/amber-valley,Amber Valley,BFRL0028,Derwentside Industrial Park Derby Road Belper,53.012122,-1.479592,http://info.ambervalley.gov.uk/maps/brownfieldmap.html?lat=53.0121216712&lng=-1.4795919862,5.75,mixed ownership,,permissioned,,,,136,,136,,,06/12/2017,06/12/2017,,,
,,,,,,,,,,,,,,,,,,,http://opendatacommunities.org/id/district-council/amber-valley,Amber Valley,BFLR0029,Land at Cemetery Road Ripley,53.044301,-1.402537,http://info.ambervalley.gov.uk/maps/brownfieldmap.html?lat=53.044301032&lng=-1.402536981,1.74,owned by a public authority,,not permissioned,,,,20,,20,,,06/12/2017,06/12/2017,,,
,,,,,,,,,,,,,,,,,,,http://opendatacommunities.org/id/district-council/amber-valley,Amber Valley,BFLR0030,Land adj 30 Cromford Road Langley Mill,53.016263,-1.331508,http://info.ambervalley.gov.uk/maps/brownfieldmap.html?lat=53.016263292&lng=-1.3315081078,3.49,not owned by a public authority,,permissioned,,,,87,,87,,,06/12/2017,06/12/2017,,,
,,,,,,,,,,,,,,,,,,,http://opendatacommunities.org/id/district-council/amber-valley,Amber Valley,BFRL0031,Land at Hall Road Langley Mill,53.025873,-1.329884,http://info.ambervalley.gov.uk/maps/brownfieldmap.html?lat=53.025872662&lng=-1.329883815,1.12,not owned by a public authority,,not permissioned,,,,34,,33,,Part of a larger site which comprises greenfield land,06/12/2017,06/12/2017,,,
,,,,,,,,,,,,,,,,,,,http://opendatacommunities.org/id/district-council/amber-valley,Amber Valley,BFLR0032,Asher Lane Business Park (North) Ripley,53.062332,-1.409525,http://info.ambervalley.gov.uk/maps/brownfieldmap.html?lat=53.0623322729&lng=-1.4095252228,2.13,not owned by a public authority,,not permissioned,,,,85,,85,,,06/12/2017,06/12/2017,,,
,,,,,,,,,,,,,,,,,,,http://opendatacommunities.org/id/district-council/amber-valley,Amber Valley,BFLR0033,Asher Lane Business Park (South) Ripley,53.060675,-1.408802,http://info.ambervalley.gov.uk/maps/brownfieldmap.html?lat=53.0606746746&lng=-1.4088017823,3.04,not owned by a public authority,,not permissioned,,,,95,,95,,,06/12/2017,06/12/2017,,,
,,,,,,,,,,,,,,,,,,,http://opendatacommunities.org/id/district-council/amber-valley,Amber Valley,BFLR0034,All Saints Church Hall Site Moseley Street Ripley,53.051743,-1.407775,http://info.ambervalley.gov.uk/maps/brownfieldmap.html?lat=53.0517432986&lng=-1.4077751188,0.15,not owned by a public authority,,not permissioned,,,,10,,10,,,06/12/2017,06/12/2017,,,
,,,,,,,,,,,,,,,,,,,http://opendatacommunities.org/id/district-council/amber-valley,Amber Valley,BFLR0035,Duffield Depot Derby Road Duffield,52.976207,-1.483239,http://info.ambervalley.gov.uk/maps/brownfieldmap.html?lat=52.9762072903&lng=-1.4832390315,1.09,owned by a public authority,,not permissioned,,,,16,,16,,,06/12/2017,06/12/2017,,,
,,,,,,,,,,,,,,,,,,,http://opendatacommunities.org/id/district-council/amber-valley,Amber Valley,BFLR0036,Land off Whysall Street Heanor,53.014431,-1.352866,http://info.ambervalley.gov.uk/maps/brownfieldmap.html?lat=53.0144307641&lng=-1.3528658898,1.45,owned by a public authority,,not permissioned,,,,76,,76,,,06/12/2017,06/12/2017,,,
,,,,,,,,,,,,,,,,,,,http://opendatacommunities.org/id/district-council/amber-valley,Amber Valley,BFLR0037,Land at Taylor Lane Loscoe,53.025325,-1.364362,http://info.ambervalley.gov.uk/maps/brownfieldmap.html?lat=53.0253247976&lng=-1.3643621353,9.92,not owned by a public authority,,pending decision,,,,250,,250,,,06/12/2017,06/12/2017,,,
,,,,,,,,,,,,,,,,,,,http://opendatacommunities.org/id/district-council/amber-valley,Amber Valley,BFLR0038,Land North of Denby,53.019742,-1.433675,http://info.ambervalley.gov.uk/maps/brownfieldmap.html?lat=53.0197417532&lng=-1.4336748681,40.42,not owned by a public authority,,not permissioned,,,,720,,720,,,06/12/2017,06/12/2017,,,
