address,address-text,deliverable,end-date,entry-date,hazardous-substances,hectares,latitude,longitude,maximum-net-dwellings,minimum-net-dwellings,notes,organisation,ownership-status,planning-permission-date,planning-permission-history,planning-permission-status,planning-permission-type,site,OrganisationURI,OrganisationLabel,SiteReference,SiteNameAddress,GeoX,GeoY,SiteplanURL,Hectares,OwnershipStatus,HazardousSubstances,PlanningStatus,PermissionType,PermissionDate,PlanningHistory,MinNetDwellings,NetDwellingsRangeFrom,NetDwellingsRangeTo,Deliverable,Notes,FirstAddedDate,LastUpdatedDate,EndDate,site-plan-url,start-date
,,,,,,,,,,,,,,,,,,,http://opendatacommunities.org/id/district-council/south-lakeland,,BLR1,"""Former Cedar House School, Kirkby Lonsdale""",-2.6029,54.2028,https://my.southlakeland.gov.uk/mysouthlakeland.aspx?SouthLakes/MyMapsSouthLakes&SearchLayer=Brownfield&SearchField=site_ref&SearchValue=BLR01,0.87,not owned by a public authority,,permissioned,,,,,,11,,"Hybrid application for full planning permission for conversion of former school dining hall to six dwellings and part of the former main school building to two dwellings and outline planning permission for demolition of remaining former school buildings and erection of up to 12 residential dwellings with vehicular access. Two applications were subsequently submitted in 2017 but later withdrawn: SL/2017/0421 - reserved matters application for the erection of 12 dwellings and SL/2017/1067 – demolition of existing building and erection of 6 affordable dwellings. An amended scheme for part of the site (SL/2018/0608 for 3 detached houses) was approved in December 2018 which replaced the previous proposal for 12 dwellings, thus reducing the overall estimated capacity from 20 dwellings to 11 dwellings. Site is under construction.",01/12/2017,01/12/2019,,,
,,,,,,,,,,,,,,,,,,,http://opendatacommunities.org/id/district-council/south-lakeland,,BLR2,"""Busher House, Busher Walk, Kendal""",-2.9138,54.187,https://my.southlakeland.gov.uk/mysouthlakeland.aspx?SouthLakes/MyMapsSouthLakes&SearchLayer=Brownfield&SearchField=site_ref&SearchValue=BLR02,0.17,owned by a public authority,,permissioned,,,,,,16,,"Change of use of office building under PD rights to 16 flats, but building has now been demolished and other options being pursued.",01/12/2017,01/12/2019,,,
,,,,,,,,,,,,,,,,,,,http://opendatacommunities.org/id/district-council/south-lakeland,,BLR3,"""Sawyers Arms Hotel, Stricklandgate, Kendal""",-2.928,54.1816,https://my.southlakeland.gov.uk/mysouthlakeland.aspx?SouthLakes/MyMapsSouthLakes&SearchLayer=Brownfield&SearchField=site_ref&SearchValue=BLR03,0.03,not owned by a public authority,,permissioned,,,,,,12,,Conversion of vacant public house and alteration/extension of redundant outbuildings to create 12 self-contained apartments. Under construction.,01/12/2017,01/12/2019,,,
,,,,,,,,,,,,,,,,,,,http://opendatacommunities.org/id/district-council/south-lakeland,,BLR4,"""Royal Hotel, Burton-in-Kendal""",-3.0874,54.1936,https://my.southlakeland.gov.uk/mysouthlakeland.aspx?SouthLakes/MyMapsSouthLakes&SearchLayer=Brownfield&SearchField=site_ref&SearchValue=BLR04,0.26,not owned by a public authority,,permissioned,,,,,,6,,"Demolition of outbuildings, refurbishment and extension of public house and erection of six dwellings.",01/12/2017,01/12/2019,,,
,,,,,,,,,,,,,,,,,,,http://opendatacommunities.org/id/district-council/south-lakeland,,BLR5,"""West End Nursery, Ulverston""",-3.087,54.1923,https://my.southlakeland.gov.uk/mysouthlakeland.aspx?SouthLakes/MyMapsSouthLakes&SearchLayer=Brownfield&SearchField=site_ref&SearchValue=BLR05,0.61,not owned by a public authority,,permissioned,,,,,,8,,"Demolition of existing building and site structures, and erection of 87 dwellings. The 8 units in the Register refer to the previously developed part of the site (plant nursery buildings)",01/12/2017,01/12/2019,,,
,,,,,,,,,,,,,,,,,,,http://opendatacommunities.org/id/district-council/south-lakeland,,BLR6,"""Depot on the south side of Parkside Road, Kendal""",-3.0928,54.1975,https://my.southlakeland.gov.uk/mysouthlakeland.aspx?SouthLakes/MyMapsSouthLakes&SearchLayer=Brownfield&SearchField=site_ref&SearchValue=BLR06,0.18,not owned by a public authority,,pending decision,,,,,,6,,"Outline Planning Application with some matters reserved for the development
of 6no. dwellings on land south of Parkside Road, Kendal.",01/12/2017,01/12/2019,,,
,,,,,,,,,,,,,,,,,,,http://opendatacommunities.org/id/district-council/south-lakeland,,BLR7,"""Depot on the north side of Parkside Road, Kendal""",-3.0878,54.1892,https://my.southlakeland.gov.uk/mysouthlakeland.aspx?SouthLakes/MyMapsSouthLakes&SearchLayer=Brownfield&SearchField=site_ref&SearchValue=BLR07,1.17,not owned by a public authority,,permissioned,,,,,,43,,"Outline Planning Application with all matters, except for access, reserved
for the development of 43no. Dwellings.",01/12/2017,01/12/2019,,,
,,,,,,,,,,,,,,,,,,,http://opendatacommunities.org/id/district-council/south-lakeland,,BLR8,"""Ulverston Town Hall, Queen St, Ulverston""",-2.8325,54.1973,https://my.southlakeland.gov.uk/mysouthlakeland.aspx?SouthLakes/MyMapsSouthLakes&SearchLayer=Brownfield&SearchField=site_ref&SearchValue=BLR08,0.07,owned by a public authority,,permissioned,,,,,,17,,Change of use of existing building into 9 apartments and erection of new apartment block to rear to provide a further 8 units. Under construction.,01/12/2017,01/12/2019,,,
,,,,,,,,,,,,,,,,,,,http://opendatacommunities.org/id/district-council/south-lakeland,,BLR9,"""Stables, Cartmel Racecourse, Cartmel""",-2.8008,54.2197,https://my.southlakeland.gov.uk/mysouthlakeland.aspx?SouthLakes/MyMapsSouthLakes&SearchLayer=Brownfield&SearchField=site_ref&SearchValue=BLR09,0.48,not owned by a public authority,,not permissioned,,,,,,15,,Allocated in Local Plan,01/12/2017,01/12/2019,,,
,,,,,,,,,,,,,,,,,,,http://opendatacommunities.org/id/district-council/south-lakeland,,BLR10,"""Mixed use allocation at Berners Pool, Grange""",-3.0926,54.1945,https://my.southlakeland.gov.uk/mysouthlakeland.aspx?SouthLakes/MyMapsSouthLakes&SearchLayer=Brownfield&SearchField=site_ref&SearchValue=BLR10,0.61,owned by a public authority,,not permissioned,,,,,,40,,Allocated in Local Plan. Remaining part of mixed use site that has partially developed for housing and a health centre. Identified in Neighbourhood Plan as a preferred location for extra care housing site.,01/12/2017,01/12/2019,,,
,,,,,,,,,,,,,,,,,,,http://opendatacommunities.org/id/district-council/south-lakeland,,BLR11,"""Mixed use allocation at Guide's Lot, Grange""",-2.7481,54.3228,https://my.southlakeland.gov.uk/mysouthlakeland.aspx?SouthLakes/MyMapsSouthLakes&SearchLayer=Brownfield&SearchField=site_ref&SearchValue=BLR11,1.15,owned by a public authority,,not permissioned,,,,,,16,,"Allocated in Local Plan, 0.37ha for employment land.",01/12/2017,01/12/2019,,,
,,,,,,,,,,,,,,,,,,,http://opendatacommunities.org/id/district-council/south-lakeland,,BLR12,"""Morecambe Road Scrapyard, Ulverston""",-2.7488,54.3328,https://my.southlakeland.gov.uk/mysouthlakeland.aspx?SouthLakes/MyMapsSouthLakes&SearchLayer=Brownfield&SearchField=site_ref&SearchValue=BLR12,0.39,not owned by a public authority,,not permissioned,,,,,,12,,Allocated in Local Plan,01/12/2017,01/12/2019,,,
,,,,,,,,,,,,,,,,,,,http://opendatacommunities.org/id/district-council/south-lakeland,,BLR13,"""North of Watery Lane, Ulverston""",-3.0631,54.2182,https://my.southlakeland.gov.uk/mysouthlakeland.aspx?SouthLakes/MyMapsSouthLakes&SearchLayer=Brownfield&SearchField=site_ref&SearchValue=BLR13,0.12,not owned by a public authority,,pending decision,,,,,,8,,Residential development for up to 28 dwellings (brownfield and greenfield areas),01/12/2017,01/12/2019,,,
,,,,,,,,,,,,,,,,,,,http://opendatacommunities.org/id/district-council/south-lakeland,,BLR14,"""Millers Scrap Yard, Back Lane, Ulverston""",-2.8318,54.2032,https://my.southlakeland.gov.uk/mysouthlakeland.aspx?SouthLakes/MyMapsSouthLakes&SearchLayer=Brownfield&SearchField=site_ref&SearchValue=BLR14,0.2,not owned by a public authority,,not permissioned,,,,,,10,,"Permission for dismantling/removal of steel portal and demolition of workshops and relocation of scrapyard to another location, leaving this site available for redevelopment.",01/12/2017,01/12/2019,,,
,,,,,,,,,,,,,,,,,,,http://opendatacommunities.org/id/district-council/south-lakeland,,BLR15,"""Dragley Beck Depot, Ulverston""",-2.8301,54.1939,https://my.southlakeland.gov.uk/mysouthlakeland.aspx?SouthLakes/MyMapsSouthLakes&SearchLayer=Brownfield&SearchField=site_ref&SearchValue=BLR15,0.15,owned by a public authority,,not permissioned,,,,,,6,,County Council depot site available for redevelopment. Within Flood Zone 2 therefore the sequential test would need to be undertaken.,01/12/2017,01/12/2019,,,
,,,,,,,,,,,,,,,,,,,http://opendatacommunities.org/id/district-council/south-lakeland,,BLR16,"""Land off Queen's Drive, Arnside""",-3.0922,54.1964,https://my.southlakeland.gov.uk/mysouthlakeland.aspx?SouthLakes/MyMapsSouthLakes&SearchLayer=Brownfield&SearchField=site_ref&SearchValue=BLR16,0.12,not owned by a public authority,,not permissioned,,,,,,6,,"Garage block in residential area, allocated for residential development in the Arnside and Silverdale AONB Local Plan. (See Policy AS17)",01/12/2017,01/12/2019,,,
,,,,,,,,,,,,,,,,,,,http://opendatacommunities.org/id/district-council/south-lakeland,,BLR17,"""Land at Sandside Road and Quarry Lane, Sandside""",-2.7435,54.3196,https://my.southlakeland.gov.uk/mysouthlakeland.aspx?SouthLakes/MyMapsSouthLakes&SearchLayer=Brownfield&SearchField=site_ref&SearchValue=BLR17,3.09,not owned by a public authority,,not permissioned,,,,,,40,,"Allocated in Arnside and Silverdale AONB Local Plan for mixed uses including employment , residential and community (See Policy AS25).",01/12/2017,01/12/2019,,,
,,,,,,,,,,,,,,,,,,,http://opendatacommunities.org/id/district-council/south-lakeland,,BLR18,"""Police Station, Neville St, Ulverston""",-2.7481,54.3249,https://my.southlakeland.gov.uk/mysouthlakeland.aspx?SouthLakes/MyMapsSouthLakes&SearchLayer=Brownfield&SearchField=site_ref&SearchValue=BLR18,0.28,not owned by a public authority,,not permissioned,,,,,,10,,Site was sold in early 2019 and had been marketed as a redevelopment opportunity.,01/12/2017,01/12/2019,,,
,,,,,,,,,,,,,,,,,,,http://opendatacommunities.org/id/district-council/south-lakeland,,BLR19,"""Rear of Captain French Health Centre, Chapel Lane""",-2.7478,54.3348,https://my.southlakeland.gov.uk/mysouthlakeland.aspx?SouthLakes/MyMapsSouthLakes&SearchLayer=Brownfield&SearchField=site_ref&SearchValue=BLR19,0.28,not owned by a public authority,,not permissioned,,,,,,8,,Recently expired planning permission for an apartment building comprising 8 apartments.,01/12/2017,01/12/2019,,,
,,,,,,,,,,,,,,,,,,,http://opendatacommunities.org/id/district-council/south-lakeland,,BLR20,"""Armadale Hotel, Arrad Foot""",-2.7279,54.3226,https://my.southlakeland.gov.uk/mysouthlakeland.aspx?SouthLakes/MyMapsSouthLakes&SearchLayer=Brownfield&SearchField=site_ref&SearchValue=BLR20,0.04,not owned by a public authority,,permissioned,,,,,,5,,"Permission granted April 2018 for residential development. Redevelopment of hotel site. Gross 7 units, net 5.",01/12/2017,01/12/2019,,,
,,,,,,,,,,,,,,,,,,,http://opendatacommunities.org/id/district-council/south-lakeland,,BLR21,"""Former Garage, Ashleigh Road, Arnside""",-2.7434,54.3247,https://my.southlakeland.gov.uk/mysouthlakeland.aspx?SouthLakes/MyMapsSouthLakes&SearchLayer=Brownfield&SearchField=site_ref&SearchValue=BLR21,0.07,not owned by a public authority,,not permissioned,,,,,,5,,"Former garage site, with potential for 5 dwellings if small apartments.",01/12/2017,01/12/2019,,,
,,,,,,,,,,,,,,,,,,,http://opendatacommunities.org/id/district-council/south-lakeland,,BLR22,"""Garages at Stewart Close, Arnside""",-2.7476,54.331,https://my.southlakeland.gov.uk/mysouthlakeland.aspx?SouthLakes/MyMapsSouthLakes&SearchLayer=Brownfield&SearchField=site_ref&SearchValue=BLR22,0.07,not owned by a public authority,,not permissioned,,,,,,5,,Garage block in residential area.,01/12/2017,01/12/2019,,,
,,,,,,,,,,,,,,,,,,,http://opendatacommunities.org/id/district-council/south-lakeland,,BLR23,"""Hartley's Brewery, Ulverston""",-2.7209,54.1818,https://my.southlakeland.gov.uk/mysouthlakeland.aspx?SouthLakes/MyMapsSouthLakes&SearchLayer=Brownfield&SearchField=site_ref&SearchValue=BLR23,0.34,not owned by a public authority,,not permissioned,,,,,,50,,Being marketed for redevelopmnet.  Previous lapsed planning permission for retail development.,01/12/2018,01/12/2019,,,
,,,,,,,,,,,,,,,,,,,http://opendatacommunities.org/id/district-council/south-lakeland,,BLR24,"""K Village, Kendal""",-3.0839,54.1861,https://my.southlakeland.gov.uk/mysouthlakeland.aspx?SouthLakes/MyMapsSouthLakes&SearchLayer=Brownfield&SearchField=site_ref&SearchValue=BLR24,0.93,not owned by a public authority,,permissioned,,,,,,88,,"Part redevelopment of existing building (via change of use, occupation of redundant plant space and conversion / extension of roof space) to provide 69 bedroom hotel (Class C1), 88 one-bedroom apartments (Class C3), office space (Class B1) and flexible retail / office space (Classes A1, A2, A3 and B1) with external alterations to existing elevations and internal courtyard space. Under construction.",01/12/2018,01/12/2019,,,
,,,,,,,,,,,,,,,,,,,http://opendatacommunities.org/id/district-council/south-lakeland,,BLR25,"""114 Highgate, Kendal""",-2.7422,54.32,https://my.southlakeland.gov.uk/mysouthlakeland.aspx?SouthLakes/MyMapsSouthLakes&SearchLayer=Brownfield&SearchField=site_ref&SearchValue=BLR25,0.07,not owned by a public authority,,not permissioned,,,,,,15,,"Vacant retail premises and upper floors, on Kendal’s high street, recently marketed for redevelopment and sold in August 2019. A planning application (SL/2018/0120) was submittted but not progressed.",01/12/2018,01/12/2019,,,
,,,,,,,,,,,,,,,,,,,http://opendatacommunities.org/id/district-council/south-lakeland,,BLR26,"""Kendal Magistrates' Court""",-2.742,54.321,https://my.southlakeland.gov.uk/mysouthlakeland.aspx?SouthLakes/MyMapsSouthLakes&SearchLayer=Brownfield&SearchField=site_ref&SearchValue=BLR26,0.53,not owned by a public authority,,pending decision,,,,,,64,,Current application for demolition of existing building and redevelopment to form 64 retirement living apartments.,01/12/2018,01/12/2019,,,
,,,,,,,,,,,,,,,,,,,http://opendatacommunities.org/id/district-council/south-lakeland,,BLR27,"""Garage site east of Castle Drive, Kendal""",-3.0963,54.195,https://my.southlakeland.gov.uk/mysouthlakeland.aspx?SouthLakes/MyMapsSouthLakes&SearchLayer=Brownfield&SearchField=site_ref&SearchValue=BLR27,0.13,not owned by a public authority,,permissioned,,,,,,5,,Redevelopment of garage site for five affordable dwellings.,01/12/2019,01/12/2019,,,
,,,,,,,,,,,,,,,,,,,http://opendatacommunities.org/id/district-council/south-lakeland,,BLR28,"""9 and 10 Aynam Road, Kendal""",-2.9544,54.2023,https://my.southlakeland.gov.uk/mysouthlakeland.aspx?SouthLakes/MyMapsSouthLakes&SearchLayer=Brownfield&SearchField=site_ref&SearchValue=BLR28,0.06,not owned by a public authority,,permissioned,,,,,,7,,"Demolition of shop, workshop, stores and house and erection of 8 apartments. Gross 8 units, net 7 units.",01/12/2019,01/12/2019,,,
