address,address-text,deliverable,end-date,entry-date,hazardous-substances,hectares,latitude,longitude,maximum-net-dwellings,minimum-net-dwellings,notes,organisation,ownership-status,planning-permission-date,planning-permission-history,planning-permission-status,planning-permission-type,site,OrganisationURI,OrganisationLabel,SiteReference,SiteNameAddress,GeoX,GeoY,SiteplanURL,Hectares,OwnershipStatus,HazardousSubstances,PlanningStatus,PermissionType,PermissionDate,PlanningHistory,MinNetDwellings,NetDwellingsRangeFrom,NetDwellingsRangeTo,Deliverable,Notes,FirstAddedDate,LastUpdatedDate,EndDate,site-plan-url,start-date
,,,,,,,,,,,,,,,,,,,http://opendatacommunities.org/id/metropolitan-district-council/kirklees,,BLR_001,"""Land to the north of, Hall Lane, Thornhill, Dewsbury, WF12 0PL""",-1.6146,53.66704,https://mapping.kirklees.gov.uk/connect/analyst/mobile/#/main?mapcfg=Kirklees%20Brownfield%20Land%20Register,0.78,owned by a public authority,,pending decision,,,,,,30,,Part of a larger site that includes some greenfield land.,20/12/2017,13/12/2019,,,
,,,,,,,,,,,,,,,,,,,http://opendatacommunities.org/id/metropolitan-district-council/kirklees,,BLR_002,"""Land to the south of, Lock Street, Thornhill, Dewsbury, WF12 9BZ""",-1.62493,53.67463,https://mapping.kirklees.gov.uk/connect/analyst/mobile/#/main?mapcfg=Kirklees%20Brownfield%20Land%20Register,1.99,not owned by a public authority,,permissioned,,,,,,104,,Part of a larger site that includes some greenfield land.,20/12/2017,13/12/2019,,,
,,,,,,,,,,,,,,,,,,,http://opendatacommunities.org/id/metropolitan-district-council/kirklees,,BLR_003,"""Headfield Mills, Savile Road, Savile Town, Dewsbury, WF12 9NP""",-1.63594,53.68222,https://mapping.kirklees.gov.uk/connect/analyst/mobile/#/main?mapcfg=Kirklees%20Brownfield%20Land%20Register,1.19,not owned by a public authority,,not permissioned,,,,,,35,,,20/12/2017,13/12/2019,,,
,,,,,,,,,,,,,,,,,,,http://opendatacommunities.org/id/metropolitan-district-council/kirklees,,BLR_004,"""Land north west of, Forge Lane, Thornhill Lees, Dewsbury""",-1.64466,53.67488,https://mapping.kirklees.gov.uk/connect/analyst/mobile/#/main?mapcfg=Kirklees%20Brownfield%20Land%20Register,2.68,not owned by a public authority,,not permissioned,,,,,,93,,,20/12/2017,13/12/2019,,,
,,,,,,,,,,,,,,,,,,,http://opendatacommunities.org/id/metropolitan-district-council/kirklees,,BLR_005,"""Land at, Carlton Road/Hirst Road, Dewsbury""",-1.63465,53.69593,https://mapping.kirklees.gov.uk/connect/analyst/mobile/#/main?mapcfg=Kirklees%20Brownfield%20Land%20Register,0.49,not owned by a public authority,,not permissioned,,,,,,16,,,20/12/2017,13/12/2019,,,
,,,,,,,,,,,,,,,,,,,http://opendatacommunities.org/id/metropolitan-district-council/kirklees,,BLR_006,"""Site of former Woolpack Inn, 167, Heckmondwike Road, Dewsbury Moor, Dewsbury, WF13 3NS""",-1.65809,53.69494,https://mapping.kirklees.gov.uk/connect/analyst/mobile/#/main?mapcfg=Kirklees%20Brownfield%20Land%20Register,0.17,not owned by a public authority,,permissioned,,,,,,10,,,20/12/2017,13/12/2019,,,
,,,,,,,,,,,,,,,,,,,http://opendatacommunities.org/id/metropolitan-district-council/kirklees,,BLR_007,"""Pepperoyd Mills, Pepper Royd Street, Dewsbury, WF13 1PA""",-1.62362,53.6948,https://mapping.kirklees.gov.uk/connect/analyst/mobile/#/main?mapcfg=Kirklees%20Brownfield%20Land%20Register,0.57,not owned by a public authority,,pending decision,,,,,,9,,,20/12/2017,13/12/2019,,,
,,,,,,,,,,,,,,,,,,,http://opendatacommunities.org/id/metropolitan-district-council/kirklees,,BLR_008,"""Forge Lane, Dewsbury, WF12 9AA""",-1.64347,53.67435,https://mapping.kirklees.gov.uk/connect/analyst/mobile/#/main?mapcfg=Kirklees%20Brownfield%20Land%20Register,1.85,not owned by a public authority,,permissioned,,,,,,64,,Part of a larger site containing some greenfield land.,20/12/2017,13/12/2019,,,
,,,,,,,,,,,,,,,,,,,http://opendatacommunities.org/id/metropolitan-district-council/kirklees,,BLR_009,"""Cliffe Street, Dewsbury""",-1.62703,53.69478,https://mapping.kirklees.gov.uk/connect/analyst/mobile/#/main?mapcfg=Kirklees%20Brownfield%20Land%20Register,1.27,owned by a public authority,,not permissioned,,,,,,47,,,20/12/2017,13/12/2019,,,
,,,,,,,,,,,,,,,,,,,http://opendatacommunities.org/id/metropolitan-district-council/kirklees,,BLR_010,"""Red Laithes Court, Red Laithes Lane, Ravensthorpe, Dewsbury, WF13 3DB""",-1.66397,53.68207,https://mapping.kirklees.gov.uk/connect/analyst/mobile/#/main?mapcfg=Kirklees%20Brownfield%20Land%20Register,0.45,owned by a public authority,,not permissioned,,,,,,15,,,20/12/2017,13/12/2019,,,
,,,,,,,,,,,,,,,,,,,http://opendatacommunities.org/id/metropolitan-district-council/kirklees,,BLR_011,"""Westfield Assessment Centre, 13, Westfields Road, Mirfield, WF14 9PW""",-1.64485,53.67495,https://mapping.kirklees.gov.uk/connect/analyst/mobile/#/main?mapcfg=Kirklees%20Brownfield%20Land%20Register,1.17,not owned by a public authority,,permissioned,,,,,,22,,Site is under construction,20/12/2017,18/12/2018,,,
,,,,,,,,,,,,,,,,,,,http://opendatacommunities.org/id/metropolitan-district-council/kirklees,,BLR_012,"""Excelsior Works, 33, St John's Road, Birkby, Huddersfield, HD1 5DX.",-1.78603,53.65441,https://mapping.kirklees.gov.uk/connect/analyst/mobile/#/main?mapcfg=Kirklees%20Brownfield%20Land%20Register,0.22,owned by a public authority,,pending decision,,,,,,12,,Two Separate applications in for two different parts of the site,20/12/2017,13/12/2019,,,
,,,,,,,,,,,,,,,,,,,http://opendatacommunities.org/id/metropolitan-district-council/kirklees,,BLR_013,"""35, St John's Road, Huddersfield, HD1 5DX""",-1.78653,53.65481,https://mapping.kirklees.gov.uk/connect/analyst/mobile/#/main?mapcfg=Kirklees%20Brownfield%20Land%20Register,0.15,not owned by a public authority,,not permissioned,,,,,,8,,,20/12/2017,13/12/2019,,,
,,,,,,,,,,,,,,,,,,,http://opendatacommunities.org/id/metropolitan-district-council/kirklees,,BLR_014,"""Cote Royd House, 7, Halifax Road, Edgerton, Huddersfield, HD3 3AN""",-1.8084,53.65664,https://mapping.kirklees.gov.uk/connect/analyst/mobile/#/main?mapcfg=Kirklees%20Brownfield%20Land%20Register,0.38,not owned by a public authority,,not permissioned,,,,,,7,,Permission expired on site and still in medical use. No information to suggest that the site is available.,20/12/2017,13/12/2019,,,
,,,,,,,,,,,,,,,,,,,http://opendatacommunities.org/id/metropolitan-district-council/kirklees,,BLR_015,"""Land to North and South of, Crossley Lane, Huddersfield, HD5 0QP""",-1.73777,53.65172,https://mapping.kirklees.gov.uk/connect/analyst/mobile/#/main?mapcfg=Kirklees%20Brownfield%20Land%20Register,4.22,not owned by a public authority,,permissioned,,,,,,194,,,20/12/2017,13/12/2019,,,
,,,,,,,,,,,,,,,,,,,http://opendatacommunities.org/id/metropolitan-district-council/kirklees,,BLR_016,"""Land to the south of Fairfield Mills, Colne Road, Huddersfield, HD1 3ES""",-1.7827,53.63903,https://mapping.kirklees.gov.uk/connect/analyst/mobile/#/main?mapcfg=Kirklees%20Brownfield%20Land%20Register,0.39,not owned by a public authority,,permissioned,,,,,,30,,,20/12/2017,13/12/2019,,,
,,,,,,,,,,,,,,,,,,,http://opendatacommunities.org/id/metropolitan-district-council/kirklees,,BLR_017,"""Land to the west of Fenwick House, Colne road, Huddersfield, HD1 3ES""",-1.78185,53.63886,https://mapping.kirklees.gov.uk/connect/analyst/mobile/#/main?mapcfg=Kirklees%20Brownfield%20Land%20Register,0.23,not owned by a public authority,,permissioned,,,,,,38,,,20/12/2017,13/12/2019,,,
,,,,,,,,,,,,,,,,,,,http://opendatacommunities.org/id/metropolitan-district-council/kirklees,,BLR_018,"""Newsome Mills, Hart Street, Newsome, Huddersfield, HD4 6JF""",-1.78418,53.63011,https://mapping.kirklees.gov.uk/connect/analyst/mobile/#/main?mapcfg=Kirklees%20Brownfield%20Land%20Register,0.17,not owned by a public authority,,pending decision,,,,,,49,,Part of a larger site that includes some greenfield land.,20/12/2017,13/12/2019,,,
,,,,,,,,,,,,,,,,,,,http://opendatacommunities.org/id/metropolitan-district-council/kirklees,,BLR_019,"""Land at Waterfront Quarter, Chapel Hill, Huddersfield, HD1 3EB""",-1.78768,53.64134,https://mapping.kirklees.gov.uk/connect/analyst/mobile/#/main?mapcfg=Kirklees%20Brownfield%20Land%20Register,0.21,not owned by a public authority,,permissioned,,,,,,290,,,20/12/2017,13/12/2019,,,
,,,,,,,,,,,,,,,,,,,http://opendatacommunities.org/id/metropolitan-district-council/kirklees,,BLR_020,"""Queensgate, Huddersfield, HD1 2RR""",-1.78241,53.64209,https://mapping.kirklees.gov.uk/connect/analyst/mobile/#/main?mapcfg=Kirklees%20Brownfield%20Land%20Register,0.27,not owned by a public authority,,not permissioned,,,,,,73,,Previous permission on site has expired. No suggestion that further residential development will be achievable or if the site is available.,20/12/2017,13/12/2019,,,
,,,,,,,,,,,,,,,,,,,http://opendatacommunities.org/id/metropolitan-district-council/kirklees,,BLR_021,"""Land to rear of Row Street, Crosland Moor, Huddersfield, HD4 5AY""",-1.80145,53.63825,https://mapping.kirklees.gov.uk/connect/analyst/mobile/#/main?mapcfg=Kirklees%20Brownfield%20Land%20Register,0.56,not owned by a public authority,,permissioned,,,,,,19,,,20/12/2017,13/12/2019,,,
,,,,,,,,,,,,,,,,,,,http://opendatacommunities.org/id/metropolitan-district-council/kirklees,,BLR_022,"""Former St Lukes Hospital, Blackmoorfoot Road, Crosland Moor, Huddersfield, HD4 5RQ""",-1.81078,53.63509,https://mapping.kirklees.gov.uk/connect/analyst/mobile/#/main?mapcfg=Kirklees%20Brownfield%20Land%20Register,9.01,owned by a public authority,,permissioned,,,,,,200,,,20/12/2017,13/12/2019,,,
,,,,,,,,,,,,,,,,,,,http://opendatacommunities.org/id/metropolitan-district-council/kirklees,,BLR_023,"""Oakmead, 1C, Lidget Street, Lindley, Huddersfield, HD3 3JB""",-1.82333,53.65876,https://mapping.kirklees.gov.uk/connect/analyst/mobile/#/main?mapcfg=Kirklees%20Brownfield%20Land%20Register,0.64,owned by a public authority,,permissioned,,,,,,14,,,20/12/2017,13/12/2019,,,
,,,,,,,,,,,,,,,,,,,http://opendatacommunities.org/id/metropolitan-district-council/kirklees,,BLR_024,"""Land North of Flint Street, Fartown, Huddersfield""",-1.77935,53.66067,https://mapping.kirklees.gov.uk/connect/analyst/mobile/#/main?mapcfg=Kirklees%20Brownfield%20Land%20Register,1.29,owned by a public authority,,not permissioned,,,,,,45,,,20/12/2017,13/12/2019,,,
,,,,,,,,,,,,,,,,,,,http://opendatacommunities.org/id/metropolitan-district-council/kirklees,,BLR_025,"""Land north of Blackmoorfoot Road, Crosland Hill, Huddersfield""",-1.82476,53.62856,https://mapping.kirklees.gov.uk/connect/analyst/mobile/#/main?mapcfg=Kirklees%20Brownfield%20Land%20Register,3.34,not owned by a public authority,,not permissioned,,,,,,116,,,20/12/2017,13/12/2019,,,
,,,,,,,,,,,,,,,,,,,http://opendatacommunities.org/id/metropolitan-district-council/kirklees,,BLR_026,"""Land to west of, Luck Lane, Marsh""",-1.81072,53.6503,https://mapping.kirklees.gov.uk/connect/analyst/mobile/#/main?mapcfg=Kirklees%20Brownfield%20Land%20Register,0.76,not owned by a public authority,,not permissioned,,,,,,26,,Site has no application and is currently still in use. No evidence that the site is available for development.,20/12/2017,13/12/2019,,,
,,,,,,,,,,,,,,,,,,,http://opendatacommunities.org/id/metropolitan-district-council/kirklees,,BLR_027,"""Land north of Blackmoorfoot Road, Crosland Moor, Huddersfield""",-1.83033,53.62916,https://mapping.kirklees.gov.uk/connect/analyst/mobile/#/main?mapcfg=Kirklees%20Brownfield%20Land%20Register,14.44,not owned by a public authority,,not permissioned,,,,,,255,,,20/12/2017,13/12/2019,,,
,,,,,,,,,,,,,,,,,,,http://opendatacommunities.org/id/metropolitan-district-council/kirklees,,BLR_028,"""Land east of, Thewlis Lane, Crosland Hill""",-1.82199,53.6283,https://mapping.kirklees.gov.uk/connect/analyst/mobile/#/main?mapcfg=Kirklees%20Brownfield%20Land%20Register,0.96,not owned by a public authority,,not permissioned,,,,,,27,,Part of a larger site that includes greenfield land and land for minerals extraction.,20/12/2017,13/12/2019,,,
,,,,,,,,,,,,,,,,,,,http://opendatacommunities.org/id/metropolitan-district-council/kirklees,,BLR_029,"""Land to the north of New Hey Road, Salendine Nook, Huddersfield""",-1.83254,53.65531,https://mapping.kirklees.gov.uk/connect/analyst/mobile/#/main?mapcfg=Kirklees%20Brownfield%20Land%20Register,0.43,not owned by a public authority,,not permissioned,,,,,,15,,,20/12/2017,13/12/2019,,,
,,,,,,,,,,,,,,,,,,,http://opendatacommunities.org/id/metropolitan-district-council/kirklees,,BLR_030,"""Land north of Deighton Road, Deighton, Huddersfield""",-1.76056,53.67178,https://mapping.kirklees.gov.uk/connect/analyst/mobile/#/main?mapcfg=Kirklees%20Brownfield%20Land%20Register,2.11,owned by a public authority,,not permissioned,,,,,,88,,,20/12/2017,13/12/2019,,,
,,,,,,,,,,,,,,,,,,,http://opendatacommunities.org/id/metropolitan-district-council/kirklees,,BLR_031,"""Land west of, Shop Lane, Kirkheaton""",-1.72876,53.65691,https://mapping.kirklees.gov.uk/connect/analyst/mobile/#/main?mapcfg=Kirklees%20Brownfield%20Land%20Register,1.41,not owned by a public authority,,permissioned,,,,,,48,,,20/12/2017,13/12/2019,,,
,,,,,,,,,,,,,,,,,,,http://opendatacommunities.org/id/metropolitan-district-council/kirklees,,BLR_032,"""Land South of, St Thomas Gardens, Bradley""",-1.7459,53.68079,https://mapping.kirklees.gov.uk/connect/analyst/mobile/#/main?mapcfg=Kirklees%20Brownfield%20Land%20Register,0.79,owned by a public authority,,not permissioned,,,,,,9,,"Part of a larger site, includes some greenfield land. Replacement recreation facilities or mitigation measures of
equivalent value will be required to meet local needs having
regard to the most up-to-date evidence for sport and recreational
needs.",20/12/2017,13/12/2019,,,
,,,,,,,,,,,,,,,,,,,http://opendatacommunities.org/id/metropolitan-district-council/kirklees,,BLR_033,"""Land south of Cambridge Road, Huddersfield""",-1.78623,53.65155,https://mapping.kirklees.gov.uk/connect/analyst/mobile/#/main?mapcfg=Kirklees%20Brownfield%20Land%20Register,1.27,owned by a public authority,,not permissioned,,,,,,44,,,20/12/2017,13/12/2019,,,
,,,,,,,,,,,,,,,,,,,http://opendatacommunities.org/id/metropolitan-district-council/kirklees,,BLR_034,"""Land north of Trinity Street, Huddersfield""",-1.78885,53.64818,https://mapping.kirklees.gov.uk/connect/analyst/mobile/#/main?mapcfg=Kirklees%20Brownfield%20Land%20Register,2.44,not owned by a public authority,,pending decision,,,,,,45,,,20/12/2017,13/12/2019,,,
,,,,,,,,,,,,,,,,,,,http://opendatacommunities.org/id/metropolitan-district-council/kirklees,,BLR_035,"""Land east of Southgate, Huddersfield""",-1.77805,53.64911,https://mapping.kirklees.gov.uk/connect/analyst/mobile/#/main?mapcfg=Kirklees%20Brownfield%20Land%20Register,2.67,owned by a public authority,,not permissioned,,,,,,46,,,20/12/2017,13/12/2019,,,
,,,,,,,,,,,,,,,,,,,http://opendatacommunities.org/id/metropolitan-district-council/kirklees,,BLR_036,"""Land at former Stlie Common School, Plane Street, Newsome""",-1.78081,53.63497,https://mapping.kirklees.gov.uk/connect/analyst/mobile/#/main?mapcfg=Kirklees%20Brownfield%20Land%20Register,0.61,owned by a public authority,,pending decision,,,,,,21,,Part of a larger site that includes some greenfield land.,20/12/2017,13/12/2019,,,
,,,,,,,,,,,,,,,,,,,http://opendatacommunities.org/id/metropolitan-district-council/kirklees,,BLR_037,"""Land to rear of, 60 to 78, Nabcroft Lane, Crosland Moor, Huddersfield, HD4 5ES""",-1.80556,53.63417,https://mapping.kirklees.gov.uk/connect/analyst/mobile/#/main?mapcfg=Kirklees%20Brownfield%20Land%20Register,0.43,owned by a public authority,,permissioned,,,,,,18,,Part of a larger site that includes a small area of greenfield land.,20/12/2017,13/12/2019,,,
,,,,,,,,,,,,,,,,,,,http://opendatacommunities.org/id/metropolitan-district-council/kirklees,,BLR_038,"""Land off Hart Street, Newsome, Huddersfield, HD4 6LS""",-1.78323,53.62963,https://mapping.kirklees.gov.uk/connect/analyst/mobile/#/main?mapcfg=Kirklees%20Brownfield%20Land%20Register,0.4,not owned by a public authority,,permissioned,,,,,,13,,Site includes former mill ponds. Part of a larger site that includes some greenfield land.,20/12/2017,13/12/2019,,,
,,,,,,,,,,,,,,,,,,,http://opendatacommunities.org/id/metropolitan-district-council/kirklees,,BLR_039,"""Cellars Clough Mill, Manchester Road, Marsden, Huddersfield, HD7 6LY""",-1.91321,53.60931,https://mapping.kirklees.gov.uk/connect/analyst/mobile/#/main?mapcfg=Kirklees%20Brownfield%20Land%20Register,0.83,not owned by a public authority,,permissioned,,,,,,55,,,20/12/2017,13/12/2019,,,
,,,,,,,,,,,,,,,,,,,http://opendatacommunities.org/id/metropolitan-district-council/kirklees,,BLR_040,"""Central Garage, Concord Street, Honley, Holmfirth, HD9 6AE""",-1.7917,53.60345,https://mapping.kirklees.gov.uk/connect/analyst/mobile/#/main?mapcfg=Kirklees%20Brownfield%20Land%20Register,0.25,not owned by a public authority,,permissioned,,,,,,14,,,20/12/2017,13/12/2019,,,
,,,,,,,,,,,,,,,,,,,http://opendatacommunities.org/id/metropolitan-district-council/kirklees,,BLR_041,"""Westwood Mill, Lowestwood Lane, Linthwaite, Huddersfield, HD7 4RR""",-1.85653,53.62777,https://mapping.kirklees.gov.uk/connect/analyst/mobile/#/main?mapcfg=Kirklees%20Brownfield%20Land%20Register,1.8,not owned by a public authority,,permissioned,,,,,,108,,,20/12/2017,13/12/2019,,,
,,,,,,,,,,,,,,,,,,,http://opendatacommunities.org/id/metropolitan-district-council/kirklees,,BLR_042,"""Land at, Station Road, Holmfirth, HD9 1AE""",-1.78137,53.5752,https://mapping.kirklees.gov.uk/connect/analyst/mobile/#/main?mapcfg=Kirklees%20Brownfield%20Land%20Register,0.24,not owned by a public authority,,permissioned,,,,,,9,,,20/12/2017,13/12/2019,,,
,,,,,,,,,,,,,,,,,,,http://opendatacommunities.org/id/metropolitan-district-council/kirklees,,BLR_043,"""Travel Station Yard, Station Road, Honley""",-1.78167,53.60878,https://mapping.kirklees.gov.uk/connect/analyst/mobile/#/main?mapcfg=Kirklees%20Brownfield%20Land%20Register,0.36,not owned by a public authority,,not permissioned,,,,,,14,,,20/12/2017,13/12/2019,,,
,,,,,,,,,,,,,,,,,,,http://opendatacommunities.org/id/metropolitan-district-council/kirklees,,BLR_044,"""1, Wood Bottom, Marsden, Huddersfield, HD7 6NE""",-1.92044,53.60431,https://mapping.kirklees.gov.uk/connect/analyst/mobile/#/main?mapcfg=Kirklees%20Brownfield%20Land%20Register,0.63,not owned by a public authority,,permissioned,,,,,,8,,,20/12/2017,13/12/2019,,,
,,,,,,,,,,,,,,,,,,,http://opendatacommunities.org/id/metropolitan-district-council/kirklees,,BLR_045,"""Dobroyd Mills, Hepworth Road, New Mill, Holmfirth, HD9 1AF""",-1.75443,53.56137,https://mapping.kirklees.gov.uk/connect/analyst/mobile/#/main?mapcfg=Kirklees%20Brownfield%20Land%20Register,2.55,not owned by a public authority,,permissioned,,,,,,75,,Part of a larger site that includes some greenfield land.,20/12/2017,13/12/2019,,,
,,,,,,,,,,,,,,,,,,,http://opendatacommunities.org/id/metropolitan-district-council/kirklees,,BLR_046,"""Former Midlothian Garage, New Mill Road, Holmfirth""",-1.7775,53.57973,https://mapping.kirklees.gov.uk/connect/analyst/mobile/#/main?mapcfg=Kirklees%20Brownfield%20Land%20Register,1.27,Not owned by a public authority,,permissioned,,,,,,48,,"Part of a larger site that includes some greenfield land, including woodland.",20/12/2017,13/12/2019,,,
,,,,,,,,,,,,,,,,,,,http://opendatacommunities.org/id/metropolitan-district-council/kirklees,,BLR_047,"""Hinchcliffe Mill, Water Street, Holmbridge, Holmfirth, HD9 2NX""",-1.80986,53.56012,https://mapping.kirklees.gov.uk/connect/analyst/mobile/#/main?mapcfg=Kirklees%20Brownfield%20Land%20Register,1.34,not owned by a public authority,,not permissioned,,,,,,19,,,20/12/2017,13/12/2019,,,
,,,,,,,,,,,,,,,,,,,http://opendatacommunities.org/id/metropolitan-district-council/kirklees,,BLR_048,"""Royd Edge Dyeworks, Holmfirth Road, Meltham, Holmfirth, HD9 4BH""",-1.84956,53.5861,https://mapping.kirklees.gov.uk/connect/analyst/mobile/#/main?mapcfg=Kirklees%20Brownfield%20Land%20Register,1.81,not owned by a public authority,,not permissioned,,,,,,56,,,20/12/2017,13/12/2019,,,
,,,,,,,,,,,,,,,,,,,http://opendatacommunities.org/id/metropolitan-district-council/kirklees,,BLR_049,"""Hoyle Ing Dyeworks, Hoyle Ing, Linthwaite, Huddersfield, HD7 5QS""",-1.85315,53.62726,https://mapping.kirklees.gov.uk/connect/analyst/mobile/#/main?mapcfg=Kirklees%20Brownfield%20Land%20Register,0.32,Not owned by a public authority,,permissioned,,,,,,13,,,20/12/2017,13/12/2019,,,
,,,,,,,,,,,,,,,,,,,http://opendatacommunities.org/id/metropolitan-district-council/kirklees,,BLR_050,"""Taylor Valve Works, Dowker Street, Milnsbridge, Huddersfield, HD3 4JX""",-1.82579,53.64102,https://mapping.kirklees.gov.uk/connect/analyst/mobile/#/main?mapcfg=Kirklees%20Brownfield%20Land%20Register,0.51,not owned by a public authority,,not permissioned,,,,,,36,,,20/12/2017,13/12/2019,,,
,,,,,,,,,,,,,,,,,,,http://opendatacommunities.org/id/metropolitan-district-council/kirklees,,BLR_051,"""New Mills, Brougham Road, Marsden""",-1.9256,53.60183,https://mapping.kirklees.gov.uk/connect/analyst/mobile/#/main?mapcfg=Kirklees%20Brownfield%20Land%20Register,1.72,not owned by a public authority,,not permissioned,,,,,,29,,,20/12/2017,13/12/2019,,,
,,,,,,,,,,,,,,,,,,,http://opendatacommunities.org/id/metropolitan-district-council/kirklees,,BLR_052,"""Prickleden Mills, Woodhead Road, Holmfirth, HD9 2JU""",-1.79371,53.56764,https://mapping.kirklees.gov.uk/connect/analyst/mobile/#/main?mapcfg=Kirklees%20Brownfield%20Land%20Register,1.26,not owned by a public authority,,permissioned,,,,,,46,,,20/12/2017,13/12/2019,,,
,,,,,,,,,,,,,,,,,,,http://opendatacommunities.org/id/metropolitan-district-council/kirklees,,BLR_053,"""Former Storthes Hall Hospital, Storthes Hall Lane, Kirkburton, Huddersfield, HD8 0WA""",-1.73017,53.60875,https://mapping.kirklees.gov.uk/connect/analyst/mobile/#/main?mapcfg=Kirklees%20Brownfield%20Land%20Register,28.84,Not owned by a public authority,,permissioned,,,,,,505,,Permission for 300 homes plus residential care home on southern part of site.,20/12/2017,13/12/2019,,,
,,,,,,,,,,,,,,,,,,,http://opendatacommunities.org/id/metropolitan-district-council/kirklees,,BLR_054,"""Victoria Works, Fisher Green, Honley, Holmfirth, HD9 6DP""",-1.79738,53.60018,https://mapping.kirklees.gov.uk/connect/analyst/mobile/#/main?mapcfg=Kirklees%20Brownfield%20Land%20Register,0.19,not owned by a public authority,,permissioned,,,,,,17,,,20/12/2017,13/12/2019,,,
,,,,,,,,,,,,,,,,,,,http://opendatacommunities.org/id/metropolitan-district-council/kirklees,,BLR_055,"""Bank Bottom Mills, Mount Road, Marsden""",-1.9295,53.5968,https://mapping.kirklees.gov.uk/connect/analyst/mobile/#/main?mapcfg=Kirklees%20Brownfield%20Land%20Register,3.26,not owned by a public authority,,not permissioned,,,,,,38,,,20/12/2017,13/12/2019,,,
,,,,,,,,,,,,,,,,,,,http://opendatacommunities.org/id/metropolitan-district-council/kirklees,,BLR_056,"""HI Pylon Works, Slades Road, Bolster Moor, Huddersfield, HD7 4JS""",-1.92542,53.60182,https://mapping.kirklees.gov.uk/connect/analyst/mobile/#/main?mapcfg=Kirklees%20Brownfield%20Land%20Register,0.28,not owned by a public authority,,permissioned,,,,,,5,,Site is under construction,20/12/2017,18/12/2018,,,
,,,,,,,,,,,,,,,,,,,http://opendatacommunities.org/id/metropolitan-district-council/kirklees,,BLR_057,"""Land north of, Manchester Road, Linthwaite""",-1.83904,53.63578,https://mapping.kirklees.gov.uk/connect/analyst/mobile/#/main?mapcfg=Kirklees%20Brownfield%20Land%20Register,0.64,not owned by a public authority,,pending decision,,,,,,22,,,20/12/2017,13/12/2019,,,
,,,,,,,,,,,,,,,,,,,http://opendatacommunities.org/id/metropolitan-district-council/kirklees,,BLR_058,"""Land between, Wakefield Road and Liley Lane, Grange Moor""",-1.66966,53.63523,https://mapping.kirklees.gov.uk/connect/analyst/mobile/#/main?mapcfg=Kirklees%20Brownfield%20Land%20Register,0.35,not owned by a public authority,,not permissioned,,,,,,12,,Previously developed (industrial) site in green belt. Any development would need to comply with NPPF Paragraphs 143-145.,20/12/2017,13/12/2019,,,
,,,,,,,,,,,,,,,,,,,http://opendatacommunities.org/id/metropolitan-district-council/kirklees,,BLR_059,"""Park Mill, Manor Road, Clayton West""",-1.60557,53.60042,https://mapping.kirklees.gov.uk/connect/analyst/mobile/#/main?mapcfg=Kirklees%20Brownfield%20Land%20Register,2.71,not owned by a public authority,,not permissioned,,,,,,94,,Part of a larger site that contains some greenfield land.,20/12/2017,13/12/2019,,,
,,,,,,,,,,,,,,,,,,,http://opendatacommunities.org/id/metropolitan-district-council/kirklees,,BLR_060,"""Land to the East of, Denby Dale Railway Station, Station Road, Denby Dale""",-1.66262,53.57253,https://mapping.kirklees.gov.uk/connect/analyst/mobile/#/main?mapcfg=Kirklees%20Brownfield%20Land%20Register,0.37,not owned by a public authority,,not permissioned,,,,,,15,,Part of a larger site that includes some greenfield land.,20/12/2017,13/12/2019,,,
,,,,,,,,,,,,,,,,,,,http://opendatacommunities.org/id/metropolitan-district-council/kirklees,,BLR_061,"""230, Cumberworth Lane, Denby Dale, Huddersfield, HD8 8PR""",-1.6613,53.57658,https://mapping.kirklees.gov.uk/connect/analyst/mobile/#/main?mapcfg=Kirklees%20Brownfield%20Land%20Register,0.64,not owned by a public authority,,permissioned,,,,,,7,,Previously developed part of site in green belt. Any development would need to comply with NPPF Paragraphs 143-145.,20/12/2017,13/12/2019,,,
,,,,,,,,,,,,,,,,,,,http://opendatacommunities.org/id/metropolitan-district-council/kirklees,,BLR_062,"""Holme Mills, West Slaithwaite Road, Slaithwaite""",-1.90654,53.61316,https://mapping.kirklees.gov.uk/connect/analyst/mobile/#/main?mapcfg=Kirklees%20Brownfield%20Land%20Register,1.74,not owned by a public authority,,not permissioned,,,,,,60,,Previously developed site in green belt. Any development would need to comply with NPPF Paragraphs 143-145.,20/12/2017,13/12/2019,,,
,,,,,,,,,,,,,,,,,,,http://opendatacommunities.org/id/metropolitan-district-council/kirklees,,BLR_063,"""Denby Dale Nursery School, Wakefield Road, Denby Dale, Huddersfield, HD8 8RX""",-1.65372,53.57384,https://mapping.kirklees.gov.uk/connect/analyst/mobile/#/main?mapcfg=Kirklees%20Brownfield%20Land%20Register,0.17,not owned by a public authority,,pending decision,,,,,,7,,,20/12/2017,13/12/2019,,,
,,,,,,,,,,,,,,,,,,,http://opendatacommunities.org/id/metropolitan-district-council/kirklees,,BLR_064,"""Land to the east of, Abbey Road North, Shepley""",-1.7019,53.58543,https://mapping.kirklees.gov.uk/connect/analyst/mobile/#/main?mapcfg=Kirklees%20Brownfield%20Land%20Register,0.37,not owned by a public authority,,not permissioned,,,,,,12,,,20/12/2017,13/12/2019,,,
,,,,,,,,,,,,,,,,,,,http://opendatacommunities.org/id/metropolitan-district-council/kirklees,,BLR_065,"""Former Gees Garage, New Hey Road, Outlane, Huddersfield""",-1.86773,53.65924,https://mapping.kirklees.gov.uk/connect/analyst/mobile/#/main?mapcfg=Kirklees%20Brownfield%20Land%20Register,0.37,not owned by a public authority,,pending decision,,,,,,14,,Part of a larger site that contains some greenfield land.,20/12/2017,13/12/2019,,,
,,,,,,,,,,,,,,,,,,,http://opendatacommunities.org/id/metropolitan-district-council/kirklees,,BLR_066,"""Bridge Mills, New Road, Holmfirth""",-1.78561,53.57582,https://mapping.kirklees.gov.uk/connect/analyst/mobile/#/main?mapcfg=Kirklees%20Brownfield%20Land%20Register,1.02,not owned by a public authority,,not permissioned,,,,,,36,,Part of a larger site that includes some greenfield land.,20/12/2017,13/12/2019,,,
,,,,,,,,,,,,,,,,,,,http://opendatacommunities.org/id/metropolitan-district-council/kirklees,,BLR_067,"""Dene Bottom, Kirkburton, Huddersfield, HD8 0PP""",-1.71581,53.61586,https://mapping.kirklees.gov.uk/connect/analyst/mobile/#/main?mapcfg=Kirklees%20Brownfield%20Land%20Register,0.35,not owned by a public authority,,permissioned,,,,,,9,,,20/12/2017,13/12/2019,,,
,,,,,,,,,,,,,,,,,,,http://opendatacommunities.org/id/metropolitan-district-council/kirklees,,BLR_068,"""Healey Nursery School, Healey Lane, Batley""",-1.65737,53.71182,https://mapping.kirklees.gov.uk/connect/analyst/mobile/#/main?mapcfg=Kirklees%20Brownfield%20Land%20Register,0.56,owned by a public authority,,pending decision,,,,,,15,,,20/12/2017,13/12/2019,,,
,,,,,,,,,,,,,,,,,,,http://opendatacommunities.org/id/metropolitan-district-council/kirklees,,BLR_069,"""444, Bradford Road, Batley, WF17 5LW""",-1.62811,53.71441,https://mapping.kirklees.gov.uk/connect/analyst/mobile/#/main?mapcfg=Kirklees%20Brownfield%20Land%20Register,0.37,not owned by a public authority,,permissioned,,,,,,40,,,20/12/2017,13/12/2019,,,
,,,,,,,,,,,,,,,,,,,http://opendatacommunities.org/id/metropolitan-district-council/kirklees,,BLR_070,"""Former Cemex Site, Smithies Moor Lane, Birstall, Batley""",-1.71579,53.61586,https://mapping.kirklees.gov.uk/connect/analyst/mobile/#/main?mapcfg=Kirklees%20Brownfield%20Land%20Register,0.51,not owned by a public authority,,permissioned,,,,,,21,,Site is under construction,20/12/2017,18/12/2018,,,
,,,,,,,,,,,,,,,,,,,http://opendatacommunities.org/id/metropolitan-district-council/kirklees,,BLR_071,"""Cleckheaton Mills, Bradford Road, Cleckheaton, BD19 5BD""",-1.70667,53.71952,https://mapping.kirklees.gov.uk/connect/analyst/mobile/#/main?mapcfg=Kirklees%20Brownfield%20Land%20Register,2.66,not owned by a public authority,,permissioned,,,,,,114,,,20/12/2017,13/12/2019,,,
,,,,,,,,,,,,,,,,,,,http://opendatacommunities.org/id/metropolitan-district-council/kirklees,,BLR_072,"""Land adjacent, Mayman Lane, Mount Pleasant, Batley""",-1.64201,53.71312,https://mapping.kirklees.gov.uk/connect/analyst/mobile/#/main?mapcfg=Kirklees%20Brownfield%20Land%20Register,1.19,owned by a public authority,,not permissioned,,,,,,41,,,20/12/2017,13/12/2019,,,
,,,,,,,,,,,,,,,,,,,http://opendatacommunities.org/id/metropolitan-district-council/kirklees,,BLR_073,"""Spafield Mills, Upper Road, Batley, WF17 7LR""",-1.63939,53.70169,https://mapping.kirklees.gov.uk/connect/analyst/mobile/#/main?mapcfg=Kirklees%20Brownfield%20Land%20Register,0.76,not owned by a public authority,,not permissioned,,,,,,33,,Previous permission on site has expired. Site stays as a local plan allocation.,20/12/2017,13/12/2019,,,
,,,,,,,,,,,,,,,,,,,http://opendatacommunities.org/id/metropolitan-district-council/kirklees,,BLR_074,"""Land adjacent, South Parade, Cleckheaton""",-1.72472,53.72303,https://mapping.kirklees.gov.uk/connect/analyst/mobile/#/main?mapcfg=Kirklees%20Brownfield%20Land%20Register,0.37,not owned by a public authority,,not permissioned,,,,,,12,,Part of a larger site that includes some greenfield land.,20/12/2017,13/12/2019,,,
,,,,,,,,,,,,,,,,,,,http://opendatacommunities.org/id/metropolitan-district-council/kirklees,,BLR_075,"""Brook House Mill, Balme Road, Cleckheaton""",-1.71202,53.73115,https://mapping.kirklees.gov.uk/connect/analyst/mobile/#/main?mapcfg=Kirklees%20Brownfield%20Land%20Register,0.36,not owned by a public authority,,not permissioned,,,,,,12,,Part of a larger site that includes some greenfield land.,20/12/2017,13/12/2019,,,
,,,,,,,,,,,,,,,,,,,http://opendatacommunities.org/id/metropolitan-district-council/kirklees,,BLR_076,"""Land at, Squirrel Hill Reservoir, Staincliffe Road, Dewsbury Moor, Dewsbury""",-1.65419,53.70292,https://mapping.kirklees.gov.uk/connect/analyst/mobile/#/main?mapcfg=Kirklees%20Brownfield%20Land%20Register,0.88,not owned by a public authority,,not permissioned,,,,,,30,,,20/12/2017,13/12/2019,,,
,,,,,,,,,,,,,,,,,,,http://opendatacommunities.org/id/metropolitan-district-council/kirklees,,BLR_077,"""Land west of, 19 Staincliffe Hall Road, Staincliffe, Batley""",-1.65396,53.70766,https://mapping.kirklees.gov.uk/connect/analyst/mobile/#/main?mapcfg=Kirklees%20Brownfield%20Land%20Register,0.67,not owned by a public authority,,not permissioned,,,,,,23,,,20/12/2017,13/12/2019,,,
,,,,,,,,,,,,,,,,,,,http://opendatacommunities.org/id/metropolitan-district-council/kirklees,,BLR_078,"""Former White Lee Colliery, Leeds Road, Heckmondwike""",-1.66917,53.72261,https://mapping.kirklees.gov.uk/connect/analyst/mobile/#/main?mapcfg=Kirklees%20Brownfield%20Land%20Register,0.31,not owned by a public authority,,not permissioned,,,,,,9,,Previously developed (former colliery) site in green belt. Any development would need to comply with NPPF Paragraphs 143-145.,20/12/2017,13/12/2019,,,
,,,,,,,,,,,,,,,,,,,http://opendatacommunities.org/id/metropolitan-district-council/kirklees,,BLR_079,"""Spenborough Industrial Estate, Parker Street, Liversedge, WF15 7JX""",-1.68176,53.70558,https://mapping.kirklees.gov.uk/connect/analyst/mobile/#/main?mapcfg=Kirklees%20Brownfield%20Land%20Register,0.52,not owned by a public authority,,not permissioned,,,,,,28,,Previously permissioned site which has now expired. Site is a housing allocation in the local plan.,20/12/2017,13/12/2019,,,
,,,,,,,,,,,,,,,,,,,http://opendatacommunities.org/id/metropolitan-district-council/kirklees,,BLR_080,"""Land at Moor Top, Far Common Road, Mirfield""",-1.70899,53.69404,https://mapping.kirklees.gov.uk/connect/analyst/mobile/#/main?mapcfg=Kirklees%20Brownfield%20Land%20Register,0.8,not owned by a public authority,,not permissioned,,,,,,25,,Previously developed (industrial) site in green belt. Any development would need to comply with NPPF Paragraphs 143-145.,20/12/2017,13/12/2019,,,
,,,,,,,,,,,,,,,,,,,http://opendatacommunities.org/id/metropolitan-district-council/kirklees,,BLR_081,"""Heaton Avenue First and Nursery School, Westcliffe Road, Cleckheaton, BD19 3EP""",-1.72366,53.72551,https://mapping.kirklees.gov.uk/connect/analyst/mobile/#/main?mapcfg=Kirklees%20Brownfield%20Land%20Register,0.35,not owned by a public authority,,permissioned,,,,,,16,,,20/12/2017,13/12/2019,,,
,,,,,,,,,,,,,,,,,,,http://opendatacommunities.org/id/metropolitan-district-council/kirklees,,BLR_082,"""Land at, Gomersal Primary School, Oxford Road, Gomersal""",-1.6859,53.73297,https://mapping.kirklees.gov.uk/connect/analyst/mobile/#/main?mapcfg=Kirklees%20Brownfield%20Land%20Register,0.4,owned by a public authority,,not permissioned,,,,,,12,,Part of a larger site that includes some greenfield land.,20/12/2017,13/12/2019,,,
,,,,,,,,,,,,,,,,,,,http://opendatacommunities.org/id/metropolitan-district-council/kirklees,,BLR_083,"""Land east of, Boundary Street, Heckmondwike""",-1.6805,53.70816,https://mapping.kirklees.gov.uk/connect/analyst/mobile/#/main?mapcfg=Kirklees%20Brownfield%20Land%20Register,0.6,not owned by a public authority,,not permissioned,,,,,,21,,Part of a larger site that includes some greenfield land.,20/12/2017,13/12/2019,,,
,,,,,,,,,,,,,,,,,,,http://opendatacommunities.org/id/metropolitan-district-council/kirklees,,BLR_084,"""Land south of Westgate, Cleckheaton""",-1.72291,53.72131,https://mapping.kirklees.gov.uk/connect/analyst/mobile/#/main?mapcfg=Kirklees%20Brownfield%20Land%20Register,6.94,not owned by a public authority,,not permissioned,,,,,,223,,,20/12/2017,13/12/2019,,,
,,,,,,,,,,,,,,,,,,,http://opendatacommunities.org/id/metropolitan-district-council/kirklees,,BLR_085,"""The Whitcliffe Hotel, Prospect Road, Cleckheaton""",-1.71855,53.72468,https://mapping.kirklees.gov.uk/connect/analyst/mobile/#/main?mapcfg=Kirklees%20Brownfield%20Land%20Register,0.6,not owned by a public authority,,permissioned,,,,,,15,,,20/12/2017,13/12/2019,,,
,,,,,,,,,,,,,,,,,,,http://opendatacommunities.org/id/metropolitan-district-council/kirklees,,BLR_086,"""Hardy And Hanson Ltd Summit Works, Longlands Road, Dewsbury, WF13 4AB""",-1.64719,53.70257,https://mapping.kirklees.gov.uk/connect/analyst/mobile/#/main?mapcfg=Kirklees%20Brownfield%20Land%20Register,0.23,not owned by a public authority,,permissioned,,,,,,8,,,20/12/2017,13/12/2019,,,
,,,,,,,,,,,,,,,,,,,http://opendatacommunities.org/id/metropolitan-district-council/kirklees,,BLR_087,"""Site of former Atlas Works, Halifax Road, Liversedge, WF15 8HG""",-1.73568,53.71653,https://mapping.kirklees.gov.uk/connect/analyst/mobile/#/main?mapcfg=Kirklees%20Brownfield%20Land%20Register,0.25,not owned by a public authority,,permissioned,,,,,,10,,,20/12/2017,13/12/2019,,,
,,,,,,,,,,,,,,,,,,,http://opendatacommunities.org/id/metropolitan-district-council/kirklees,,BLR_088,"""Former Valley Works, Union Street, Heckmondwike""",-1.68047,53.70677,https://mapping.kirklees.gov.uk/connect/analyst/mobile/#/main?mapcfg=Kirklees%20Brownfield%20Land%20Register,0.85,not owned by a public authority,,permissioned,,,,,,29,,,20/12/2017,13/12/2019,,,
,,,,,,,,,,,,,,,,,,,http://opendatacommunities.org/id/metropolitan-district-council/kirklees,,BLR_089,"""Land at, Serpentine Road, Cleckheaton, BD19 3NA""",-1.71494,53.72586,https://mapping.kirklees.gov.uk/connect/analyst/mobile/#/main?mapcfg=Kirklees%20Brownfield%20Land%20Register,1.38,not owned by a public authority,,permissioned,,,,,,50,,,20/12/2017,13/12/2019,,,
,,,,,,,,,,,,,,,,,,,http://opendatacommunities.org/id/metropolitan-district-council/kirklees,,BLR_090,"""Calder Mould Services, Headlands Road, Liversedge, WF15 7NT""",-1.69624,53.70651,https://mapping.kirklees.gov.uk/connect/analyst/mobile/#/main?mapcfg=Kirklees%20Brownfield%20Land%20Register,1.2,not owned by a public authority,,permissioned,,,,,,37,,,20/12/2017,13/12/2019,,,
,,,,,,,,,,,,,,,,,,,http://opendatacommunities.org/id/metropolitan-district-council/kirklees,,BLR_091,"""Land south west of Wards Hill, Batley""",-1.63132,53.71268,https://mapping.kirklees.gov.uk/connect/analyst/mobile/#/main?mapcfg=Kirklees%20Brownfield%20Land%20Register,0.55,owned by a public authority,,not permissioned,,,,,,19,,,20/12/2017,13/12/2019,,,
,,,,,,,,,,,,,,,,,,,http://opendatacommunities.org/id/metropolitan-district-council/kirklees,,BLR_092,"""Land to the east of, Hightown Road, Cleckheaton""",-1.71521,53.72128,https://mapping.kirklees.gov.uk/connect/analyst/mobile/#/main?mapcfg=Kirklees%20Brownfield%20Land%20Register,1.33,not owned by a public authority,,permissioned,,,,,,44,,,20/12/2017,13/12/2019,,,
,,,,,,,,,,,,,,,,,,,http://opendatacommunities.org/id/metropolitan-district-council/kirklees,,BLR_093,"""Former Woodwell House, Mayman Lane, Mount Pleasant, Batley""",-1.64112,53.71352,https://mapping.kirklees.gov.uk/connect/analyst/mobile/#/main?mapcfg=Kirklees%20Brownfield%20Land%20Register,0.56,owned by a public authority,,not permissioned,,,,,,19,,,20/12/2017,13/12/2019,,,
,,,,,,,,,,,,,,,,,,,http://opendatacommunities.org/id/metropolitan-district-council/kirklees,,BLR_094,"""Land adjacent, Halifax Road, Hightown, Liversedge""",-1.70157,53.71031,https://mapping.kirklees.gov.uk/connect/analyst/mobile/#/main?mapcfg=Kirklees%20Brownfield%20Land%20Register,0.36,not owned by a public authority,,not permissioned,,,,,,12,,Part of a larger site that includes some greenfield land.,20/12/2017,13/12/2019,,,
,,,,,,,,,,,,,,,,,,,http://opendatacommunities.org/id/metropolitan-district-council/kirklees,,BLR_095,"""Former Parkham Foods Site, 395, Halifax Road, Liversedge, WF15 8DU""",-1.71934,53.71179,https://mapping.kirklees.gov.uk/connect/analyst/mobile/#/main?mapcfg=Kirklees%20Brownfield%20Land%20Register,0.66,not owned by a public authority,,permissioned,,,,,,14,,,20/12/2017,13/12/2019,,,
,,,,,,,,,,,,,,,,,,,http://opendatacommunities.org/id/metropolitan-district-council/kirklees,,BLR_096,"""Land Adjacent, Highmoor Lane, Hartshead""",-1.74275,53.71782,https://mapping.kirklees.gov.uk/connect/analyst/mobile/#/main?mapcfg=Kirklees%20Brownfield%20Land%20Register,1.62,owned by a public authority,,not permissioned,,,,,,56,,,20/12/2017,13/12/2019,,,
,,,,,,,,,,,,,,,,,,,http://opendatacommunities.org/id/metropolitan-district-council/kirklees,,BLR_097,"""Highgrove Beds Ltd, Spen Lane, Gomersal, Cleckheaton""",-1.69437,53.72944,https://mapping.kirklees.gov.uk/connect/analyst/mobile/#/main?mapcfg=Kirklees%20Brownfield%20Land%20Register,1.45,not owned by a public authority,,not permissioned,,,,,,45,,,20/12/2017,13/12/2019,,,
,,,,,,,,,,,,,,,,,,,http://opendatacommunities.org/id/metropolitan-district-council/kirklees,,BLR_098,"""Oakroyd Hall, West Yorkshire Fire And Rescue Service Headquarters, Bradford Road, Birkenshaw, BD11 2DY""",-1.69509,53.74866,https://mapping.kirklees.gov.uk/connect/analyst/mobile/#/main?mapcfg=Kirklees%20Brownfield%20Land%20Register,0.46,owned by a public authority,,permissioned,,,,,,30,,Part of a larger site that includes some greenfield land.,20/12/2018,13/12/2019,,,
,,,,,,,,,,,,,,,,,,,http://opendatacommunities.org/id/metropolitan-district-council/kirklees,,BLR_099,"""Vale Works, 25, Morley Lane, Milnsbridge, Huddersfield, HD3 4NS""",-1.82732,53.63915,https://mapping.kirklees.gov.uk/connect/analyst/mobile/#/main?mapcfg=Kirklees%20Brownfield%20Land%20Register,0.14,not owned by a public authority,,permissioned,,,,,,18,,,18/12/2018,13/12/2019,,,
,,,,,,,,,,,,,,,,,,,http://opendatacommunities.org/id/metropolitan-district-council/kirklees,,BLR_100,"""Land at, Ossett Lane, Earlsheaton, Dewsbury, WF12 8LY """,-1.61197,53.68622,https://mapping.kirklees.gov.uk/connect/analyst/mobile/#/main?mapcfg=Kirklees%20Brownfield%20Land%20Register,0.25,not owned by a public authority,,permissioned,,,,,,10,,,18/12/2018,13/12/2019,,,
,,,,,,,,,,,,,,,,,,,http://opendatacommunities.org/id/metropolitan-district-council/kirklees,,BLR_101,"""The Old Tannery, 224, Spen Lane, Gomersal, BD19 4PJ """,-1.69923,53.72804,https://mapping.kirklees.gov.uk/connect/analyst/mobile/#/main?mapcfg=Kirklees%20Brownfield%20Land%20Register,0.15,not owned by a public authority,,permissioned,,,,,,5,,Previously developed site in green belt. Any development would need to comply with NPPF Paragraphs 143-145.,18/12/2018,13/12/2019,,,
,,,,,,,,,,,,,,,,,,,http://opendatacommunities.org/id/metropolitan-district-council/kirklees,,BLR_102,"“Warwick Mills, Warwick Road, Batley, WF17 6BS""",-1.6306,53.70494,https://mapping.kirklees.gov.uk/connect/analyst/mobile/#/main?mapcfg=Kirklees%20Brownfield%20Land%20Register,0.17,not owned by a public authority,,permissioned,,,,,,18,,,18/12/2018,13/12/2019,,,
,,,,,,,,,,,,,,,,,,,http://opendatacommunities.org/id/metropolitan-district-council/kirklees,,BLR_103,"""Denby Dale Nursery School, Wakefield Road, Denby Dale, Huddersfield, HD8 8RX """,-1.65372,53.57384,https://mapping.kirklees.gov.uk/connect/analyst/mobile/#/main?mapcfg=Kirklees%20Brownfield%20Land%20Register,0.17,owned by a public authority,,pending decision,,,,,,6,,,18/12/2018,13/12/2019,,,
,,,,,,,,,,,,,,,,,,,http://opendatacommunities.org/id/metropolitan-district-council/kirklees,,BLR_104,"""Pennine Garden Centre site, Huddersfield Road near Shelley""",-1.68356,53.5968,https://mapping.kirklees.gov.uk/connect/analyst/mobile/#/main?mapcfg=Kirklees%20Brownfield%20Land%20Register,1.5,not owned by a public authority,,Not Permissioned,,,,,,52,,Previously developed site in green belt. Any development would need to comply with NPPF Paragraphs 143-145.,18/12/2018,13/12/2019,,,
,,,,,,,,,,,,,,,,,,,http://opendatacommunities.org/id/metropolitan-district-council/kirklees,,BLR_105,"""Puma Distribution Unit, Grange Road, Batley""",-1.61638,53.70993,https://mapping.kirklees.gov.uk/connect/analyst/mobile/#/main?mapcfg=Kirklees%20Brownfield%20Land%20Register,2.18,not owned by a public authority,,Not Permissioned,,,,,,76,,The site is located within an area designated in the emerging Local Plan as a Priority Employment Area (B&S1).  Development of the site for housing would need to comply with Policy PLP 8 of the emerging Local Plan. The site has had a recent planning application for employment use. Not longer considered an available site.,18/12/2018,13/12/2019,,,
,,,,,,,,,,,,,,,,,,,http://opendatacommunities.org/id/metropolitan-district-council/kirklees,,BLR_106,"""Land off, Fernside Avenue, Almondbury, Huddersfield, HD5 8PH""",-1.741071,53.642256,https://mapping.kirklees.gov.uk/connect/analyst/mobile/#/main?mapcfg=Kirklees%20Brownfield%20Land%20Register,0.35,Owned by a public authority,,permissioned,,,,,,10,,,13/12/2019,13/12/2019,,,
,,,,,,,,,,,,,,,,,,,http://opendatacommunities.org/id/metropolitan-district-council/kirklees,,BLR_107,"""2, Nelson Street, Birstall, Batley, WF17 9EP""",-1.658517,53.732152,https://mapping.kirklees.gov.uk/connect/analyst/mobile/#/main?mapcfg=Kirklees%20Brownfield%20Land%20Register,0.06,not owned by a public authority,,permissioned,,,,,,7,,,13/12/2019,13/12/2019,,,
,,,,,,,,,,,,,,,,,,,http://opendatacommunities.org/id/metropolitan-district-council/kirklees,,BLR_108,"""1, Commercial Street, Batley, WF17 5HN""",-1.629371,53.712635,https://mapping.kirklees.gov.uk/connect/analyst/mobile/#/main?mapcfg=Kirklees%20Brownfield%20Land%20Register,0.03,not owned by a public authority,,permissioned,,,,,,13,,,13/12/2019,13/12/2019,,,
,,,,,,,,,,,,,,,,,,,http://opendatacommunities.org/id/metropolitan-district-council/kirklees,,BLR_109,"""6, Bar Street, Batley, WF17 5PG""",-1.62768,53.711233,https://mapping.kirklees.gov.uk/connect/analyst/mobile/#/main?mapcfg=Kirklees%20Brownfield%20Land%20Register,0.03,not owned by a public authority,,permissioned,,,,,,7,,,13/12/2019,13/12/2019,,,
,,,,,,,,,,,,,,,,,,,http://opendatacommunities.org/id/metropolitan-district-council/kirklees,,BLR_110,"""316, Middle Road, Earlsheaton, Dewsbury, WF12 8BT""",-1.617301,53.686377,https://mapping.kirklees.gov.uk/connect/analyst/mobile/#/main?mapcfg=Kirklees%20Brownfield%20Land%20Register,0.08,not owned by a public authority,,permissioned,,,,,,7,,,13/12/2019,13/12/2019,,,
,,,,,,,,,,,,,,,,,,,http://opendatacommunities.org/id/metropolitan-district-council/kirklees,,BLR_111,"""Land Off, Croft Street, Birkenshaw""",-1.692097,53.752157,https://mapping.kirklees.gov.uk/connect/analyst/mobile/#/main?mapcfg=Kirklees%20Brownfield%20Land%20Register,0.8,Owned by a public authority,,permissioned,,,,,,34,,,13/12/2019,13/12/2019,,,
,,,,,,,,,,,,,,,,,,,http://opendatacommunities.org/id/metropolitan-district-council/kirklees,,BLR_112,"""Oak Mill, Cliff Hollins Lane, East Bierley, BD12 7ER""",-1.732121,53.747113,https://mapping.kirklees.gov.uk/connect/analyst/mobile/#/main?mapcfg=Kirklees%20Brownfield%20Land%20Register,0.72,not owned by a public authority,,permissioned,,,,,,19,,,13/12/2019,13/12/2019,,,
,,,,,,,,,,,,,,,,,,,http://opendatacommunities.org/id/metropolitan-district-council/kirklees,,BLR_113,"""Washpit Mills, Choppards Lane, Cartworth Moor, Holmfirth, HD9 2RD""",-1.785943,53.556652,https://mapping.kirklees.gov.uk/connect/analyst/mobile/#/main?mapcfg=Kirklees%20Brownfield%20Land%20Register,3.46,not owned by a public authority,,permissioned,,,,,,51,,,13/12/2019,13/12/2019,,,
,,,,,,,,,,,,,,,,,,,http://opendatacommunities.org/id/metropolitan-district-council/kirklees,,BLR_114,"""Holme House Care Home, Oxford Road, Gomersal, Cleckheaton, BD19 4LA""",-1.691145,53.739465,https://mapping.kirklees.gov.uk/connect/analyst/mobile/#/main?mapcfg=Kirklees%20Brownfield%20Land%20Register,0.41,not owned by a public authority,,permissioned,,,,,,8,,,13/12/2019,13/12/2019,,,
,,,,,,,,,,,,,,,,,,,http://opendatacommunities.org/id/metropolitan-district-council/kirklees,,BLR_115,"""Land at Walkley Terrace and Brunswick Street, Heckmondwike""",-1.669226,53.704024,https://mapping.kirklees.gov.uk/connect/analyst/mobile/#/main?mapcfg=Kirklees%20Brownfield%20Land%20Register,2.5,not owned by a public authority,,permissioned,,,,,,74,,,13/12/2019,13/12/2019,,,
,,,,,,,,,,,,,,,,,,,http://opendatacommunities.org/id/metropolitan-district-council/kirklees,,BLR_116,"""Greenside Mill, Savile Road, Skelmanthorpe, Huddersfield, HD8 9EE""",-1.648265,53.59454,https://mapping.kirklees.gov.uk/connect/analyst/mobile/#/main?mapcfg=Kirklees%20Brownfield%20Land%20Register,1.8,not owned by a public authority,,permissioned,,,,,,55,,,13/12/2019,13/12/2019,,,
,,,,,,,,,,,,,,,,,,,http://opendatacommunities.org/id/metropolitan-district-council/kirklees,,BLR_117,"""Lidl, Station Road, Mirfield, WF14 8LL""",-1.693744,53.673017,https://mapping.kirklees.gov.uk/connect/analyst/mobile/#/main?mapcfg=Kirklees%20Brownfield%20Land%20Register,0.7,not owned by a public authority,,permissioned,,,,,,70,,,13/12/2019,13/12/2019,,,
,,,,,,,,,,,,,,,,,,,http://opendatacommunities.org/id/metropolitan-district-council/kirklees,,BLR_118,"""Old Packhorse Inn, Highmoor Lane, Hartshead Moor, Cleckheaton, BD19 6LW""",-1.741257,53.717554,https://mapping.kirklees.gov.uk/connect/analyst/mobile/#/main?mapcfg=Kirklees%20Brownfield%20Land%20Register,0.13,not owned by a public authority,,permissioned,,,,,,5,,,13/12/2019,13/12/2019,,,
