address,address-text,deliverable,end-date,entry-date,hazardous-substances,hectares,latitude,longitude,maximum-net-dwellings,minimum-net-dwellings,notes,organisation,ownership-status,planning-permission-date,planning-permission-history,planning-permission-status,planning-permission-type,site,OrganisationURI,OrganisationLabel,SiteReference,SiteNameAddress,GeoX,GeoY,SiteplanURL,Hectares,OwnershipStatus,HazardousSubstances,PlanningStatus,PermissionType,PermissionDate,PlanningHistory,MinNetDwellings,NetDwellingsRangeFrom,NetDwellingsRangeTo,Deliverable,Notes,FirstAddedDate,LastUpdatedDate,EndDate,site-plan-url,start-date
,,,,,,,,,,,,,,,,,,,http://opendatacommunities.org/id/metropolitan-district-council/sefton,Sefton Metropolitan Borough Council,B71,"Site 4, Club, Depot & 501-509, Hawthorne Road, Bootle",334509.16636164,396521.4361748,,4.88,Not owned by a public authority,,Permissioned,,,,100,,0,,Planning application subject to resolution to approve subject to further details. Suitable for mixed use scheme with 100 plus dwellings. The mixed use part of the scheme would be subject to the NPPF town centre sequential and impact tests.,20171017,20191101,,,
,,,,,,,,,,,,,,,,,,,http://opendatacommunities.org/id/metropolitan-district-council/sefton,Sefton Metropolitan Borough Council,F142,"Mushroom Farm, 8-10, Cable Street, Formby",330145.62443004,407715.45192113,,1.03,Not owned by a public authority,,Permissioned,,,,5,,0,,Nearly built out but last part is long term stalled. Left over area of land capable of 5 dwellings.,20171017,20191101,,,
,,,,,,,,,,,,,,,,,,,http://opendatacommunities.org/id/metropolitan-district-council/sefton,Sefton Metropolitan Borough Council,L238,"Site of Sefton Works, Field Lane, Netherton",333173.82924595,398119.41875705,,0.85,Not owned by a public authority,Y,Permissioned,,,,20,,0,,Large site with permission (DC/2014/00886). Development is currently stalled. And half built. Capacity for at least 20 more dwellings.,20171017,20191101,,,
,,,,,,,,,,,,,,,,,,,http://opendatacommunities.org/id/metropolitan-district-council/sefton,Sefton Metropolitan Borough Council,B0096,"Former Service Station, 146, Park Lane, Netherton",335981.04993423,398620.52531679,,0.10,Not owned by a public authority,,Permissioned,,,,5,,0,,The figure of 10 is for flats and was approved in the recent planning application (DC/2016/02117).,20171017,20191101,,,
,,,,,,,,,,,,,,,,,,,http://opendatacommunities.org/id/metropolitan-district-council/sefton,Sefton Metropolitan Borough Council,B1218,"Former Johnsons Cleaners, Mildmay Road, Bootle",333911.17681516,396427.29312297,,1.81,Not owned by a public authority,,Permissioned,,,,100,,0,,Former Johnsons site. Has permission and suitable for development. Has scope for mixed use with limited retail subject to NPPF sequential and impact tests. Minimum figure assumes a high number of apartments.,20171017,20191101,,,
,,,,,,,,,,,,,,,,,,,http://opendatacommunities.org/id/metropolitan-district-council/sefton,Sefton Metropolitan Borough Council,S0120,"51-53, Alexandra Road, Southport",334632.54545596,417729.90531366,,0.53,Not owned by a public authority,,Permissioned,,,,5,,0,,Approved for a care home. Partial brownfield. DC/2016/02175.,20171017,20191101,,,
,,,,,,,,,,,,,,,,,,,http://opendatacommunities.org/id/metropolitan-district-council/sefton,Sefton Metropolitan Borough Council,C0110,"39a, St Johns Road, Crosby & Hightown",331755.83539272,398433.27891551,,0.33,Not owned by a public authority,,Permissioned,,,,10,,0,,DC/2014/01354 - granted permission for 11 dwellings. Brownfield land by the railway. Former commercial uses.,20171017,20191101,,,
,,,,,,,,,,,,,,,,,,,http://opendatacommunities.org/id/metropolitan-district-council/sefton,Sefton Metropolitan Borough Council,F0129,"Former Dairy, 5, Marsh Brows, Formby",329194.9441499,406933.7156908,,0.11,Not owned by a public authority,,Permissioned,,,,5,,0,,,20181220,20191101,,,
,,,,,,,,,,,,,,,,,,,http://opendatacommunities.org/id/metropolitan-district-council/sefton,Sefton Metropolitan Borough Council,B0128,"2, Well Lane, Bootle",334648.40070846,395365.37709327,,0.23,Not owned by a public authority,,Permissioned,,,,10,,0,,DC/2018/00357,20171017,20191101,,,
,,,,,,,,,,,,,,,,,,,http://opendatacommunities.org/id/metropolitan-district-council/sefton,Sefton Metropolitan Borough Council,S0189,"141b, Hart Street, Southport",335591.14923982,416497.36812376,,0.17,Not owned by a public authority,,Permissioned,,,,8,,0,,Has permission (DC/2018/00040),20181220,20191101,,,
,,,,,,,,,,,,,,,,,,,http://opendatacommunities.org/id/metropolitan-district-council/sefton,Sefton Metropolitan Borough Council,C0145,"CHURCH HALL 17, MERSEY ROAD, Crosby & Hightown",331445.44182251,399359.38382074,,0.10,Not owned by a public authority,,Permissioned,,,,5,,0,,Approved for 5 homes (DC/2015/00167). Former church hall.,20171017,20191101,,,
,,,,,,,,,,,,,,,,,,,http://opendatacommunities.org/id/metropolitan-district-council/sefton,Sefton Metropolitan Borough Council,F0172,"AMBULANCE STATION, CHURCH ROAD, Formby",330146.30052505,407263.17138509,,0.12,Owned by a public authority,,Not permissioned,,,,10,,0,,DC/2014/01573 - 10 apartments. Figure of 10 is based on apartments. Permission expired.,20171017,20191101,,,
,,,,,,,,,,,,,,,,,,,http://opendatacommunities.org/id/metropolitan-district-council/sefton,Sefton Metropolitan Borough Council,B0148,"Site of fmr Mersey House, St James Drive, Bootle",333842.49545619,395620.77398667,,0.36,Not owned by a public authority,,Not permissioned,,,,15,,0,,DC/2019/01830 - full application submitted for 28  affordable homes.,20181220,20191101,,,
,,,,,,,,,,,,,,,,,,,http://opendatacommunities.org/id/metropolitan-district-council/sefton,Sefton Metropolitan Borough Council,S0247,"18-20, Granville Road, Southport",331713.8515416,415477.7699807,,0.47,Not owned by a public authority,,Permissioned,,,,8,,0,,Various permissions - Partial brownfield. The site is in a Conservation Area and as such design standards apply. Minimum figure based on there being a number of apartments.,20171017,20191101,,,
,,,,,,,,,,,,,,,,,,,http://opendatacommunities.org/id/metropolitan-district-council/sefton,Sefton Metropolitan Borough Council,B0154,"Land adj to St Monicas Parochial, Stewart Avenue, Bootle",335145.38825645,395751.32661637,,0.12,Not owned by a public authority,,Not permissioned,,,,10,,0,,DC/2015/01679- permission for 13 flats. (minimum density assumes apartments).Now expired.,20171017,20191101,,,
,,,,,,,,,,,,,,,,,,,http://opendatacommunities.org/id/metropolitan-district-council/sefton,Sefton Metropolitan Borough Council,M0045,"Oak Lea Racing Stables, Southport Road, Maghull & Aintree",336631.36263845,405058.1625623,,1.06,Not owned by a public authority,,Permissioned,,,,5,,0,,Racing stables. Replacement buildings for brownfield in the Green Belt. Permission for 5 dwellings.,20171017,20191101,,,
,,,,,,,,,,,,,,,,,,,http://opendatacommunities.org/id/metropolitan-district-council/sefton,Sefton Metropolitan Borough Council,S0258,"Former Phillip's Factory, Balmoral Drive, Southport",337153.61305366,419386.40114666,,5.99,Not owned by a public authority,,Not permissioned,,,,158,,0,,Large former factory site. Local Plan allocation MN2.3.,20171017,20191101,,,
,,,,,,,,,,,,,,,,,,,http://opendatacommunities.org/id/metropolitan-district-council/sefton,Sefton Metropolitan Borough Council,S0262,"Land West of Lynton Road, Lynton Road, Southport",332090.27980617,413980.07869037,,1.50,Owned by a public authority,,No permissioned,,,,20,,0,,,20191101,20191101,,,
,,,,,,,,,,,,,,,,,,,http://opendatacommunities.org/id/metropolitan-district-council/sefton,Sefton Metropolitan Borough Council,M0050,"Land South of Spencers Lane, Spencers Lane, Maghull & Aintree",339017.92855441,399084.74243602,,0.60,Not owned by a public authority,,Not permissioned,,,,15,,0,,Backs onto motorway. Local Plan allocation MN2.33. Minimum number of dwellinsg figure is 15 to reflect the Local Plan Appendix 1.,20171017,20191101,,,
,,,,,,,,,,,,,,,,,,,http://opendatacommunities.org/id/metropolitan-district-council/sefton,Sefton Metropolitan Borough Council,B0159,"Land at Pendle Drive, Pendle Drive, Bootle",334176.93162457,399423.37550331,,1.45,Owned by a public authority,,Not permissioned,,,,29,,0,,Local Plan allocation (MN2.38) suitable for development. Mostly brownfield but with some of the site is greenfield.,20171017,20191101,,,
,,,,,,,,,,,,,,,,,,,http://opendatacommunities.org/id/metropolitan-district-council/sefton,Sefton Metropolitan Borough Council,B0160,"Land at Former Bootle High School, Brown's Lane, Bootle",336081.46653338,399517.98842065,,1.75,Owned by a public authority,,Not permissioned,,,,63,,0,,Local Plan allocation. Council owned brownfield site.,20171017,20191101,,,
,,,,,,,,,,,,,,,,,,,http://opendatacommunities.org/id/metropolitan-district-council/sefton,Sefton Metropolitan Borough Council,L0028,"Former St Wilfrid’s School, Orrell Road, Bootle",334148.96437732,397368.91358692,,6.64,Mixed ownership,Yes,Not permissioned,,,,73,,0,,Partial brownfield. Local Plan allocation MN2.42. Brownfield area likely to be suitable for approximately 70 plus units.,20171017,20191101,,,
,,,,,,,,,,,,,,,,,,,http://opendatacommunities.org/id/metropolitan-district-council/sefton,Sefton Metropolitan Borough Council,B0163,"Former People’s site, Linacre Lane, Bootle",334782.52311739,396339.19833984,,2.94,Owned by a public authority,Y,Not permissioned,,,,110,,0,,Has contamination issues that impact upon viability. Council owned Local Plan site.,20171017,20191101,,,
,,,,,,,,,,,,,,,,,,,http://opendatacommunities.org/id/metropolitan-district-council/sefton,Sefton Metropolitan Borough Council,B0164,"Former St Mary’s school, Irlam Road, Bootle",333839.37882309,395220.59853571,,1.68,Not owned by a public authority,,Mixed ownership,,,,5,,0,,The built footprint could be included as previously developed. Known to be Safe interest in developing the site. The rest of the site was previously developed but became playing field.,20191101,20191101,,,
,,,,,,,,,,,,,,,,,,,http://opendatacommunities.org/id/metropolitan-district-council/sefton,Sefton Metropolitan Borough Council,L0029,"Kirkstone Hotel, Moss Lane, Netherton",334547.92639388,398099.73439164,,0.13,Not owned by a public authority,,Permissioned,,,,14,,0,,Former pub. DC/2014/01024 - for 14 two bedroom apartments. Figure of 14 is based on the existing permissionand apartments.,20171017,20191101,,,
,,,,,,,,,,,,,,,,,,,http://opendatacommunities.org/id/metropolitan-district-council/sefton,Sefton Metropolitan Borough Council,B0166,"Land at, Capricorn Way, Bootle",333827.59663078,395571.23816616,,0.41,Not owned by a public authority,,Not permissioned,,,,15,,0,,application in DC/2019/01830.,20181220,20191101,,,
,,,,,,,,,,,,,,,,,,,http://opendatacommunities.org/id/metropolitan-district-council/sefton,Sefton Metropolitan Borough Council,L0031,"Former Litherland Methodist Church, Wilsons Lane, Netherton",333788.07805292,397614.82319603,,0.17,Not owned by a public authority,,Permissioned,,,,7,,0,,DC/2016/01227 - approval for 7 dwellings.,20171017,20191101,,,
,,,,,,,,,,,,,,,,,,,http://opendatacommunities.org/id/metropolitan-district-council/sefton,Sefton Metropolitan Borough Council,S0271,"Land to the rear of 91-97B, Eastbank Street, Southport",333769.25457843,416939.10167885,,0.15,Not owned by a public authority,,Not permissioned,,,,10,,0,,Expired permission.,20171017,20191101,,,
,,,,,,,,,,,,,,,,,,,http://opendatacommunities.org/id/metropolitan-district-council/sefton,Sefton Metropolitan Borough Council,B0179,"Land at, Albert Schweitzer Avenue, Netherton",335853.5812896,399545.12065413,,0.13,Not owned by a public authority,,Permissioned,,,,8,,0,,Has planning permission for 8 new units DC/2018/01425,20191101,20191101,,,
,,,,,,,,,,,,,,,,,,,http://opendatacommunities.org/id/metropolitan-district-council/sefton,Sefton Metropolitan Borough Council,B0188,"Bootle Gasworks, Litherland Road, Bootle",334433.93017909,396141.1950177,,6.26,Owned by a public authority,Yes,Not permissioned,,,,187,,0,,The site is a allocated in the Local Plan as a Regeneration Opportunity Site. This could make a very good housing site that would be suitable with the surroundings. The site is heavily contaminated and the site will have to be considered as a whole.,20171017,20191101,,,
,,,,,,,,,,,,,,,,,,,http://opendatacommunities.org/id/metropolitan-district-council/sefton,Sefton Metropolitan Borough Council,C0179,"Heron House, Crosby Road North, Crosby & Hightown",332208.98395084,398085.14856679,,0.13,Not owned by a public authority,,Permissioned,,,,24,,0,,Permissioned site. Numbers indicative for flats.,20181220,20191101,,,
,,,,,,,,,,,,,,,,,,,http://opendatacommunities.org/id/metropolitan-district-council/sefton,Sefton Metropolitan Borough Council,F0214,"Mayflower Industrial Estate (C3 pt), Liverpool Road, Formby",330290.16035115,406356.7608424,,0.32,Not owned by a public authority,,Permissioned,,,,30,,0,,"Has permission for a care home and 22 apartments for the over 55s, (DC/2016/00230). Also permission for 32 apartments for the over 55s, (DC/2017/00387).",20171017,20191101,,,
,,,,,,,,,,,,,,,,,,,http://opendatacommunities.org/id/metropolitan-district-council/sefton,Sefton Metropolitan Borough Council,M0077,"101, Liverpool Road, Maghull & Aintree",337735.27737916,403641.42809832,,0.15,Not owned by a public authority,,Permissioned,,,,12,,0,,Permission DC/2016/02394 for 12 apartments. Figure of 12 reflects apartments.,20171017,20191101,,,
,,,,,,,,,,,,,,,,,,,http://opendatacommunities.org/id/metropolitan-district-council/sefton,Sefton Metropolitan Borough Council,S0294,"55A, Banastre Road, Southport",333505.12404605,416071.99988416,,0.18,Not owned by a public authority,,Permissioned,,,,6,,0,,DC/2016/01472 - approval for 7 dwellings.,20171017,20191101,,,
,,,,,,,,,,,,,,,,,,,http://opendatacommunities.org/id/metropolitan-district-council/sefton,Sefton Metropolitan Borough Council,M0079,"Brooklands Farm, Brewery Lane, Maghull & Aintree",338171.12779908,399575.07208062,,0.41,Not owned by a public authority,,Permissioned,,,,11,,0,,Green Belt brownfield site with permission for 11 dwellings. DC/2016/01922.,20171017,20191101,,,
,,,,,,,,,,,,,,,,,,,http://opendatacommunities.org/id/metropolitan-district-council/sefton,Sefton Metropolitan Borough Council,B0214,"Z Blocks Site A, Buckley Hill Lane, Netherton",334991.88170887,400260.42590013,,1.60,Owned by a public authority,,Not permissioned,,,,50,,0,,Part of Local Plan allocation (MN2.36). Undeveloped and with no permission.,20171017,20191101,,,
,,,,,,,,,,,,,,,,,,,http://opendatacommunities.org/id/metropolitan-district-council/sefton,Sefton Metropolitan Borough Council,S0296,"Land at 61-67A, Aughton Road, Southport",333307.49817652,416172.31117035,,0.08,Not owned by a public authority,,Permissioned,,,,5,,0,,,20181220,20191101,,,
,,,,,,,,,,,,,,,,,,,http://opendatacommunities.org/id/metropolitan-district-council/sefton,Sefton Metropolitan Borough Council,S0297,"Former Kew Park and Ride, Crowland Street, Southport",336132.68485294,416316.27995971,,2.51,Owned by a public authority,,Not permissioned,,,,65,,0,,Part of Local Plan allocation MN2.5. Former and now disused park and ride site. Should be built in conjunction with wider allocation.,20181220,20191101,,,
,,,,,,,,,,,,,,,,,,,http://opendatacommunities.org/id/metropolitan-district-council/sefton,Sefton Metropolitan Borough Council,F0226,"Mayflower Industrial Estate (C2 pt), Liverpool Road, Formby",330290.65505481,406340.91537812,,0.47,Not owned by a public authority,,Permissioned,,,,0,,0,,Has permission for a C2 care home.,20181220,20191101,,,
,,,,,,,,,,,,,,,,,,,http://opendatacommunities.org/id/metropolitan-district-council/sefton,Sefton Metropolitan Borough Council,B0165,"503 - 509, Hawthorne Road, Bootle",334509.16636164,396521.4361748,,2.62,Not owned by a public authority,Y,Permissioned,,,,119,,0,,Potential for some contamination. Next to Canal where issues may need to be addressed. Planning permission for mixed use residential and retail.,20181220,20191101,,,
