address,address-text,deliverable,end-date,entry-date,hazardous-substances,hectares,latitude,longitude,maximum-net-dwellings,minimum-net-dwellings,notes,organisation,ownership-status,planning-permission-date,planning-permission-history,planning-permission-status,planning-permission-type,site,OrganisationURI,OrganisationLabel,SiteReference,SiteNameAddress,GeoX,GeoY,SiteplanURL,Hectares,OwnershipStatus,HazardousSubstances,PlanningStatus,PermissionType,PermissionDate,PlanningHistory,MinNetDwellings,NetDwellingsRangeFrom,NetDwellingsRangeTo,Deliverable,Notes,FirstAddedDate,LastUpdatedDate,EndDate,site-plan-url,start-date
,,,,,,,,,,,,,,,,,,,http://opendatacommunities.org/id/unitary-authority/milton-keynes,Milton Keynes Council,BR4,"""Maybrook House, 224 Queensway, Bletchley, Milton Keynes, MK2 2SZ""",487572,233753,https://mapping.milton-keynes.gov.uk/mymiltonkeynes.aspx,0.15,Not owned by a public authority,,Permissioned,,,,21,,,,,"""2016-06-30""","""2018-09-30""",,,
,,,,,,,,,,,,,,,,,,,http://opendatacommunities.org/id/unitary-authority/milton-keynes,Milton Keynes Council,BR12,"""Land North And West of Wavendon Business Park, Ortensia Drive, Wavendon Gate, Milton Keynes, MK17 8LX""",490685,237285,https://mapping.milton-keynes.gov.uk/mymiltonkeynes.aspx,5.57,Not owned by a public authority,,Permissioned,,,,134,,,,,"""2016-06-30""","""2018-09-30""",,,
,,,,,,,,,,,,,,,,,,,http://opendatacommunities.org/id/unitary-authority/milton-keynes,Milton Keynes Council,BR14,"""The Agora Centre, Church Street, Wolverton, MK12 5LG""",481759,241082,https://mapping.milton-keynes.gov.uk/mymiltonkeynes.aspx,1.2,Not owned by a public authority,,Permissioned,,,,100,,,,,"""2016-06-30""","""2018-09-30""",,,
,,,,,,,,,,,,,,,,,,,http://opendatacommunities.org/id/unitary-authority/milton-keynes,Milton Keynes Council,BR16,"""Frosts Landscape Construction, Wain Close, Newport Road, Wavendon, Milton Keynes, MK17 8UZ""",491965,236836,https://mapping.milton-keynes.gov.uk/mymiltonkeynes.aspx,3.17,Not owned by a public authority,,Permissioned,,,,53,,,,Outline planning permission,"""2016-06-30""","""2018-09-30""",,,
,,,,,,,,,,,,,,,,,,,http://opendatacommunities.org/id/unitary-authority/milton-keynes,Milton Keynes Council,BR21,"""82-84 Newport Road, New Bradwell, Milton Keynes, MK13 0AA""",483154,241653,https://mapping.milton-keynes.gov.uk/mymiltonkeynes.aspx,0.73,Not owned by a public authority,,Permissioned,,,,37,,,,Lapsed outline planning permission,"""2016-06-30""","""2018-09-30""",,,
,,,,,,,,,,,,,,,,,,,http://opendatacommunities.org/id/unitary-authority/milton-keynes,Milton Keynes Council,BR23,"""Little Brickhill Service Station, Watling Street, Little Brickhill, MK17 9NB""",491123,232368,https://mapping.milton-keynes.gov.uk/mymiltonkeynes.aspx,0.25,Not owned by a public authority,,Permissioned,,,,5,,,,,"""2016-06-30""","""2018-09-30""",,,
,,,,,,,,,,,,,,,,,,,http://opendatacommunities.org/id/unitary-authority/milton-keynes,Milton Keynes Council,BR24,"""Rear of Little Brickhill Service Station, Watling Street, Little Brickhill, MK17 9NB""",491108,232344,https://mapping.milton-keynes.gov.uk/mymiltonkeynes.aspx,0.36,Not owned by a public authority,,Permissioned,,,,6,,,,,"""2016-06-30""","""2018-09-30""",,,
,,,,,,,,,,,,,,,,,,,http://opendatacommunities.org/id/unitary-authority/milton-keynes,Milton Keynes Council,BR26,"""Broughton Manor Business Park, Newport Road, Broughton, Milton Keynes MK16 0HF""",489919,239656,https://mapping.milton-keynes.gov.uk/mymiltonkeynes.aspx,1.59,Not owned by a public authority,,Permissioned,,,,62,,,,,"""2016-06-30""","""2018-09-30""",,,
,,,,,,,,,,,,,,,,,,,http://opendatacommunities.org/id/unitary-authority/milton-keynes,Milton Keynes Council,BR28,"""B&M Homestore Site, 103 Watling Street, Bletchley, MK1 1BN""",487891,234292,https://mapping.milton-keynes.gov.uk/mymiltonkeynes.aspx,0.67,Not owned by a public authority,,Not Permissioned,,,,28,,,,Call for sites,"""2016-06-30""","""2018-09-30""",,,
,,,,,,,,,,,,,,,,,,,http://opendatacommunities.org/id/unitary-authority/milton-keynes,Milton Keynes Council,BR29,"""Bramley Grange, Windermere Drive, Bletchley, Milton Keynes, MK2 3QJ""",487680,231969,https://mapping.milton-keynes.gov.uk/mymiltonkeynes.aspx,0.37,Not owned by a public authority,,Not Permissioned,,,,18,,,,SHLAA,"""2016-06-30""","""2018-09-30""",,,
,,,,,,,,,,,,,,,,,,,http://opendatacommunities.org/id/unitary-authority/milton-keynes,Milton Keynes Council,BR30,"""Railcare Maintenance Depot, Stratford Road, Wolverton, MK12 5NT""",481403,241316,https://mapping.milton-keynes.gov.uk/mymiltonkeynes.aspx,15.8,Not owned by a public authority,,Permissioned,,,,375,,,,Call for sites,"""2016-06-30""","""2018-09-30""",,,
,,,,,,,,,,,,,,,,,,,http://opendatacommunities.org/id/unitary-authority/milton-keynes,Milton Keynes Council,BR31,"""Warren Yard, Wolverton Mill, Milton Keynes, MK12 5NW""",479995,240787,https://mapping.milton-keynes.gov.uk/mymiltonkeynes.aspx,1.97,Not owned by a public authority,,Not Permissioned,,,,78,,,,Pre-app/CS submission,"""2016-06-30""","""2018-09-30""",,,
,,,,,,,,,,,,,,,,,,,http://opendatacommunities.org/id/unitary-authority/milton-keynes,Milton Keynes Council,BR33,"""Former Wyevale Garden Centre, Secklow Gate, Central Milton Keynes, Milton Keynes, MK9 3BZ""",485665,238707,https://mapping.milton-keynes.gov.uk/mymiltonkeynes.aspx,0.65,Owned by a public authority,,Not Permissioned,,,,328,,,,Development brief,"""2016-06-30""","""2018-09-30""",,,
,,,,,,,,,,,,,,,,,,,http://opendatacommunities.org/id/unitary-authority/milton-keynes,Milton Keynes Council,BR34,"""Milton Keynes Music Service, Simpson Road, Simpson, Milton Keynes MK6 3AF""",488246,236082,https://mapping.milton-keynes.gov.uk/mymiltonkeynes.aspx,0.6,Owned by a public authority,,Not Permissioned,,,,18,,,,Land categorisation,"""2016-06-30""","""2018-09-30""",,,
,,,,,,,,,,,,,,,,,,,http://opendatacommunities.org/id/unitary-authority/milton-keynes,Milton Keynes Council,BR37,"""Land East of John Lewis Car Park, Marlborough Gate, Central Milton Keynes, Milton Keynes""",485853,239363,https://mapping.milton-keynes.gov.uk/mymiltonkeynes.aspx,0.89,Owned by a public authority,,Not Permissioned,,,,93,,,,Call for sites,"""2016-06-30""","""2018-09-30""",,,
,,,,,,,,,,,,,,,,,,,http://opendatacommunities.org/id/unitary-authority/milton-keynes,Milton Keynes Council,BR38,"""Builders Merchants, 64-66 Simpson Road (East), Bletchley, MK1 1BA""",488299,234432,https://mapping.milton-keynes.gov.uk/mymiltonkeynes.aspx,0.58,Not owned by a public authority,,Not Permissioned,,,,27,,,,Call for sites,"""2016-06-30""","""2018-09-30""",,,
,,,,,,,,,,,,,,,,,,,http://opendatacommunities.org/id/unitary-authority/milton-keynes,Milton Keynes Council,BR40,"""Berwick Drive, Bletchley, Milton Keynes, MK3 7NB""",485605,234758,https://mapping.milton-keynes.gov.uk/mymiltonkeynes.aspx,0.4,Owned by a public authority,,Not Permissioned,,,,19,,,,Land categorisation,"""2016-06-30""","""2018-09-30""",,,
,,,,,,,,,,,,,,,,,,,http://opendatacommunities.org/id/unitary-authority/milton-keynes,Milton Keynes Council,BR41,"""Land off St Georges Way, Orchard House, Green Lane, Wolverton, MK12 5EZ""",481928,240943,https://mapping.milton-keynes.gov.uk/mymiltonkeynes.aspx,0.29,Owned by a public authority,,Not Permissioned,,,,29,,,,Land categorisation,"""2016-06-30""","""2018-09-30""",,,
,,,,,,,,,,,,,,,,,,,http://opendatacommunities.org/id/unitary-authority/milton-keynes,Milton Keynes Council,BR43,"""Police Station Houses, High Street, Newport Pagnell, MK16 8EH""",487250,243832,https://mapping.milton-keynes.gov.uk/mymiltonkeynes.aspx,0.47,Not owned by a public authority,,Not Permissioned,,,,15,,,,Allocation,"""2016-06-30""","""2018-09-30""",,,
,,,,,,,,,,,,,,,,,,,http://opendatacommunities.org/id/unitary-authority/milton-keynes,Milton Keynes Council,BR44,"""Garages East of Rowle Close, Ormonde, Stantonbury, Milton Keynes, MK14 6DH""",485063,241129,https://mapping.milton-keynes.gov.uk/mymiltonkeynes.aspx,0.53,Not owned by a public authority,,Not Permissioned,,,,19,,,,,"""2016-06-30""","""2018-09-30""",,,
,,,,,,,,,,,,,,,,,,,http://opendatacommunities.org/id/unitary-authority/milton-keynes,Milton Keynes Council,BR45,"""Garages West of Rowle Close, Ormonde, Stantonbury, Milton Keynes, MK14 6DH""",484933,241094,https://mapping.milton-keynes.gov.uk/mymiltonkeynes.aspx,0.56,Not owned by a public authority,,Not Permissioned,,,,20,,,,,"""2016-06-30""","""2018-09-30""",,,
,,,,,,,,,,,,,,,,,,,http://opendatacommunities.org/id/unitary-authority/milton-keynes,Milton Keynes Council,BR46,"""Smiths Yard, Water Lane, Sherington, Newport Pagnell, MK16 9NS""",488381,246307,https://mapping.milton-keynes.gov.uk/mymiltonkeynes.aspx,0.86,Not owned by a public authority,,Permissioned,,,,9,,,,,"""2016-06-30""","""2018-09-30""",,,
,,,,,,,,,,,,,,,,,,,http://opendatacommunities.org/id/unitary-authority/milton-keynes,Milton Keynes Council,BR47,"""Former Enigma Tavern Public House, Princes Way, Bletchley, MK2 2EN""",487039,233898,https://mapping.milton-keynes.gov.uk/mymiltonkeynes.aspx,0.41,Not owned by a public authority,,Pending Decision,,,,16,,,,,"""2016-06-30""","""2018-09-30""",,,
,,,,,,,,,,,,,,,,,,,http://opendatacommunities.org/id/unitary-authority/milton-keynes,Milton Keynes Council,BR50,"""Former Aldi Site, South Terrace, Bletchley, MK2 2UQ""",487050,233821,https://mapping.milton-keynes.gov.uk/mymiltonkeynes.aspx,0.3,Not owned by a public authority,,Pending Decision,,,,12,,,,,"""2016-06-30""","""2018-09-30""",,,
,,,,,,,,,,,,,,,,,,,http://opendatacommunities.org/id/unitary-authority/milton-keynes,Milton Keynes Council,BR51,"""98-106 Queensway, Bletchley""",487215,233624,https://mapping.milton-keynes.gov.uk/mymiltonkeynes.aspx,0.06,Not owned by a public authority,,Permissioned,,,,10,,,,,"""2017-12-31""","""2018-09-30""",,,
,,,,,,,,,,,,,,,,,,,http://opendatacommunities.org/id/unitary-authority/milton-keynes,Milton Keynes Council,BR52,"""46 Newport Road, Woolstone, Milton Keynes, MK15 0AA""",487422,238688,https://mapping.milton-keynes.gov.uk/mymiltonkeynes.aspx,0.09,Not owned by a public authority,,Permissioned,,,,9,,,,,"""2017-12-31""","""2018-09-30""",,,
,,,,,,,,,,,,,,,,,,,http://opendatacommunities.org/id/unitary-authority/milton-keynes,Milton Keynes Council,BR53,"""Rectory Farm, Woburn Sands Road, Bow Brickhill, Milton Keynes, MK17 9JY""",490698,234707,https://mapping.milton-keynes.gov.uk/mymiltonkeynes.aspx,0.12,Not owned by a public authority,,Permissioned,,,,5,,,,,"""2017-12-31""","""2018-09-30""",,,
,,,,,,,,,,,,,,,,,,,http://opendatacommunities.org/id/unitary-authority/milton-keynes,Milton Keynes Council,BR55,"""44 Church Street, Wolverton, Milton Keynes, MK12 5JW""",481650,241122,https://mapping.milton-keynes.gov.uk/mymiltonkeynes.aspx,0.05,Not owned by a public authority,,Permissioned,,,,5,,,,,"""2017-12-31""","""2018-09-30""",,,
,,,,,,,,,,,,,,,,,,,http://opendatacommunities.org/id/unitary-authority/milton-keynes,Milton Keynes Council,BR56,"""Site at Clickers Yard, Yardley Road, Olney""",488783,251935,https://mapping.milton-keynes.gov.uk/mymiltonkeynes.aspx,0.05,Not owned by a public authority,,Permissioned,,,,8,,,,,"""2017-12-31""","""2018-09-30""",,,
,,,,,,,,,,,,,,,,,,,http://opendatacommunities.org/id/unitary-authority/milton-keynes,Milton Keynes Council,BR57,"""Tollgate Cottage, Broughton Grounds Lane, Brooklands, Milton Keynes, MK16 0HU""",489899,239815,https://mapping.milton-keynes.gov.uk/mymiltonkeynes.aspx,0.38,Not owned by a public authority,,Permissioned,,,,8,,,,,"""2017-12-31""","""2018-09-30""",,,
,,,,,,,,,,,,,,,,,,,http://opendatacommunities.org/id/unitary-authority/milton-keynes,Milton Keynes Council,BR59,"""134 Dunthorne Way, Grange Farm, Milton Keynes""",481959,236589,https://mapping.milton-keynes.gov.uk/mymiltonkeynes.aspx,0.3,Not owned by a public authority,,Permissioned,,,,10,,,,,"""2017-12-31""","""2018-09-30""",,,
,,,,,,,,,,,,,,,,,,,http://opendatacommunities.org/id/unitary-authority/milton-keynes,Milton Keynes Council,BR60,"""Skew Bridge Cottage, Drayton Road, Bletchley, Milton Keynes, MK3 5JU""",487304,231236,https://mapping.milton-keynes.gov.uk/mymiltonkeynes.aspx,0.39,Not owned by a public authority,,Permissioned,,,,10,,,,,"""2017-12-31""","""2018-09-30""",,,
,,,,,,,,,,,,,,,,,,,http://opendatacommunities.org/id/unitary-authority/milton-keynes,Milton Keynes Council,BR61,"""86-96 Queensway, Bletchley, Milton Keynes""",487189,233625,https://mapping.milton-keynes.gov.uk/mymiltonkeynes.aspx,0.03,Not owned by a public authority,,Permissioned,,,,10,,,,,"""2017-12-31""","""2018-09-30""",,,
,,,,,,,,,,,,,,,,,,,http://opendatacommunities.org/id/unitary-authority/milton-keynes,Milton Keynes Council,BR63,"""Land at 76 to 83 Shearmans, Fullers Slade, Milton Keynes""",480374,239570,https://mapping.milton-keynes.gov.uk/mymiltonkeynes.aspx,0.2,Not owned by a public authority,,Permissioned,,,,14,,,,,"""2017-12-31""","""2018-09-30""",,,
,,,,,,,,,,,,,,,,,,,http://opendatacommunities.org/id/unitary-authority/milton-keynes,Milton Keynes Council,BR64,"""Land at Galleon Wharf, Old Wolverton Road, Old Wolverton, Milton Keynes""",480500,241389,https://mapping.milton-keynes.gov.uk/mymiltonkeynes.aspx,0.44,Not owned by a public authority,,Permissioned,,,,14,,,,,"""2017-12-31""","""2018-09-30""",,,
,,,,,,,,,,,,,,,,,,,http://opendatacommunities.org/id/unitary-authority/milton-keynes,Milton Keynes Council,BR65,"""Site B1.1, Grafton Gate, Central Milton Keynes""",484361,238536,https://mapping.milton-keynes.gov.uk/mymiltonkeynes.aspx,0.13,Not owned by a public authority,,Permissioned,,,,24,,,,,"""2017-12-31""","""2018-09-30""",,,
,,,,,,,,,,,,,,,,,,,http://opendatacommunities.org/id/unitary-authority/milton-keynes,Milton Keynes Council,BR66,"""Towergate House, 352 Avebury Boulevard, Central Milton Keynes""",485117,238355,https://mapping.milton-keynes.gov.uk/mymiltonkeynes.aspx,0.1,Not owned by a public authority,,Permissioned,,,,32,,,,,"""2017-12-31""","""2018-09-30""",,,
,,,,,,,,,,,,,,,,,,,http://opendatacommunities.org/id/unitary-authority/milton-keynes,Milton Keynes Council,BR67,"""Grant Thornton House, 210 Silbury Boulevard, Central Milton Keynes, MK9 1LW""",484558,238514,https://mapping.milton-keynes.gov.uk/mymiltonkeynes.aspx,0.1,Not owned by a public authority,,Permissioned,,,,35,,,,,"""2017-12-31""","""2018-09-30""",,,
,,,,,,,,,,,,,,,,,,,http://opendatacommunities.org/id/unitary-authority/milton-keynes,Milton Keynes Council,BR68,"""49-51 Aylesbury Street, Bletchley, Milton Keynes, MK2 2BQ""",488157,234000,https://mapping.milton-keynes.gov.uk/mymiltonkeynes.aspx,0.05,Not owned by a public authority,,Permissioned,,,,5,,,,,"""2018-09-30""","""2018-09-30""",,,
,,,,,,,,,,,,,,,,,,,http://opendatacommunities.org/id/unitary-authority/milton-keynes,Milton Keynes Council,BR69,"""Land at Former Meacham Day Centre, Stratford Road, Wolverton, Milton Keynes""",480786,241093,https://mapping.milton-keynes.gov.uk/mymiltonkeynes.aspx,0.15,Not owned by a public authority,,Permissioned,,,,6,,,,,"""2018-09-30""","""2018-09-30""",,,
,,,,,,,,,,,,,,,,,,,http://opendatacommunities.org/id/unitary-authority/milton-keynes,Milton Keynes Council,BR70,"""8 Grove Ash, Bletchley, Milton Keynes, MK1 1BZ""",487711,235297,https://mapping.milton-keynes.gov.uk/mymiltonkeynes.aspx,0.03,Not owned by a public authority,,Permissioned,,,,8,,,,,"""2018-09-30""","""2018-09-30""",,,
,,,,,,,,,,,,,,,,,,,http://opendatacommunities.org/id/unitary-authority/milton-keynes,Milton Keynes Council,BR71,"""Land SW of Bletchley WMC, Duncombe Street, Bletchley, Milton Keynes""",486993,233521,https://mapping.milton-keynes.gov.uk/mymiltonkeynes.aspx,0.08,Not owned by a public authority,,Pending Decision,,,,12,,,,,"""2018-09-30""","""2018-09-30""",,,
,,,,,,,,,,,,,,,,,,,http://opendatacommunities.org/id/unitary-authority/milton-keynes,Milton Keynes Council,BR72,"""Grant Thornton House, 210 Silbury Boulevard, Central Milton Keynes, MK9 1LW""",484558,238514,https://mapping.milton-keynes.gov.uk/mymiltonkeynes.aspx,0.09,Not owned by a public authority,,Permissioned,,,,12,,,,,"""2018-09-30""","""2018-09-30""",,,
,,,,,,,,,,,,,,,,,,,http://opendatacommunities.org/id/unitary-authority/milton-keynes,Milton Keynes Council,BR73,"""152 Silbury Boulevard, Central Milton Keynes, MK9 1LT""",484491,238458,https://mapping.milton-keynes.gov.uk/mymiltonkeynes.aspx,0.09,Not owned by a public authority,,Permissioned,,,,14,,,,,"""2018-09-30""","""2018-09-30""",,,
,,,,,,,,,,,,,,,,,,,http://opendatacommunities.org/id/unitary-authority/milton-keynes,Milton Keynes Council,BR74,"""152 Silbury Boulevard, Central Milton Keynes, MK9 1LT""",484491,238458,https://mapping.milton-keynes.gov.uk/mymiltonkeynes.aspx,0.09,Not owned by a public authority,,Permissioned,,,,29,,,,,"""2018-09-30""","""2018-09-30""",,,
,,,,,,,,,,,,,,,,,,,http://opendatacommunities.org/id/unitary-authority/milton-keynes,Milton Keynes Council,BR75,"""Medina House 302-340 Silbury Boulevard, Central Milton Keynes, MK9 2AE""",484792,238686,https://mapping.milton-keynes.gov.uk/mymiltonkeynes.aspx,0.1,Not owned by a public authority,,Permissioned,,,,55,,,,,"""2018-09-30""","""2018-09-30""",,,
,,,,,,,,,,,,,,,,,,,http://opendatacommunities.org/id/unitary-authority/milton-keynes,Milton Keynes Council,BR76,"""Medina House 302-340 Silbury Boulevard, Central Milton Keynes, MK9 2AE""",484786,238684,https://mapping.milton-keynes.gov.uk/mymiltonkeynes.aspx,0.1,Not owned by a public authority,,Permissioned,,,,62,,,,,"""2018-09-30""","""2018-09-30""",,,
,,,,,,,,,,,,,,,,,,,http://opendatacommunities.org/id/unitary-authority/milton-keynes,Milton Keynes Council,BR77,"""Bowback House, 299 Silbury Boulevard, Central Milton Keynes, MK9 1NG""",484563,238681,https://mapping.milton-keynes.gov.uk/mymiltonkeynes.aspx,0.19,Not owned by a public authority,,Permissioned,,,,107,,,,,"""2018-09-30""","""2018-09-30""",,,
,,,,,,,,,,,,,,,,,,,http://opendatacommunities.org/id/unitary-authority/milton-keynes,Milton Keynes Council,BR78,"""Mercury House, Buckingham Road, Bletchley, Milton Keynes, MK3 5JL""",486830,233440,https://mapping.milton-keynes.gov.uk/mymiltonkeynes.aspx,1.93,Not owned by a public authority,,Permissioned,,,,131,,,,,"""2018-09-30""","""2018-09-30""",,,
,,,,,,,,,,,,,,,,,,,http://opendatacommunities.org/id/unitary-authority/milton-keynes,Milton Keynes Council,BR79,"""Atrium 19 Capital Drive, Linford Wood, Milton Keynes""",485180,240939,https://mapping.milton-keynes.gov.uk/mymiltonkeynes.aspx,1.94,Not owned by a public authority,,Permissioned,,,,182,,,,,"""2018-09-30""","""2018-09-30""",,,
,,,,,,,,,,,,,,,,,,,http://opendatacommunities.org/id/unitary-authority/milton-keynes,Milton Keynes Council,BR80,"""Fullers Slade Cavendish Site, Slade Lane, Fullers Slade, Milton Keynes""",480308,239598,https://mapping.milton-keynes.gov.uk/mymiltonkeynes.aspx,0.62,Owned by a public authority,,Not Permissioned,,,,37,,,,SHLAA,"""2018-09-30""","""2018-09-30""",,,
,,,,,,,,,,,,,,,,,,,http://opendatacommunities.org/id/unitary-authority/milton-keynes,Milton Keynes Council,BR81,"""Former Gas Works Site off High Street, Stony Stratford, Milton Keynes""",478410,240795,https://mapping.milton-keynes.gov.uk/mymiltonkeynes.aspx,0.48,Not owned by a public authority,,Not Permissioned,,,,24,,,,SHLAA,"""2018-09-30""","""2018-09-30""",,,
,,,,,,,,,,,,,,,,,,,http://opendatacommunities.org/id/unitary-authority/milton-keynes,Milton Keynes Council,BR82,"""Sherwood Drive Car Park, Sherwood Drive, Bletchley, Milton Keynes""",480536,234518,https://mapping.milton-keynes.gov.uk/mymiltonkeynes.aspx,0.29,Owned by a public authority,,Not Permissioned,,,,5,,,,SHLAA,"""2018-09-30""","""2018-09-30""",,,
,,,,,,,,,,,,,,,,,,,http://opendatacommunities.org/id/unitary-authority/milton-keynes,Milton Keynes Council,BR83,"""Rear of Central Library, Silbury Boulevard, Central Milton Keynes""",485133,239149,https://mapping.milton-keynes.gov.uk/mymiltonkeynes.aspx,0.39,Owned by a public authority,,Not Permissioned,,,,98,,,,SHLAA,"""2018-09-30""","""2018-09-30""",,,
,,,,,,,,,,,,,,,,,,,http://opendatacommunities.org/id/unitary-authority/milton-keynes,Milton Keynes Council,BR84,"""Site C4.2, South Sixth Street, Central Milton Keynes""",485159,238349,https://mapping.milton-keynes.gov.uk/mymiltonkeynes.aspx,0.37,Owned by a public authority,,Not Permissioned,,,,93,,,,SHLAA,"""2018-09-30""","""2018-09-30""",,,
,,,,,,,,,,,,,,,,,,,http://opendatacommunities.org/id/unitary-authority/milton-keynes,Milton Keynes Council,BR85,"""Site D3.4, Secklow Gate, Central Milton Keynes""",485556,238884,https://mapping.milton-keynes.gov.uk/mymiltonkeynes.aspx,1,Owned by a public authority,,Not Permissioned,,,,250,,,,SHLAA,"""2018-09-30""","""2018-09-30""",,,
,,,,,,,,,,,,,,,,,,,http://opendatacommunities.org/id/unitary-authority/milton-keynes,Milton Keynes Council,BR86,"""Food Centre, Lower Twelfth Street, Central Milton Keynes""",485740,239008,https://mapping.milton-keynes.gov.uk/mymiltonkeynes.aspx,2.38,Not owned by a public authority,,Not Permissioned,,,,298,,,,SHLAA,"""2018-09-30""","""2018-09-30""",,,
