address,address-text,deliverable,end-date,entry-date,hazardous-substances,hectares,latitude,longitude,maximum-net-dwellings,minimum-net-dwellings,notes,organisation,ownership-status,planning-permission-date,planning-permission-history,planning-permission-status,planning-permission-type,site,OrganisationURI,OrganisationLabel,SiteReference,SiteNameAddress,GeoX,GeoY,SiteplanURL,Hectares,OwnershipStatus,HazardousSubstances,PlanningStatus,PermissionType,PermissionDate,PlanningHistory,MinNetDwellings,NetDwellingsRangeFrom,NetDwellingsRangeTo,Deliverable,Notes,FirstAddedDate,LastUpdatedDate,EndDate,site-plan-url,start-date
,,,,,,,,,,,,,,,,,,,http://opendatacommunities.org/id/unitary-authority/cheshire-west-and-chester,Cheshire West and Chester Council,,"""Land to rear of 21-33 Western Avenue, Blacon""",338164,367821,http://consult.cheshirewestandchester.gov.uk/portal/cwc_ldf/land/blr?tab=files,0.216,not owned by a public authority,,not permissioned,,,,,,,,,2017-12-21,,,,
,,,,,,,,,,,,,,,,,,,http://opendatacommunities.org/id/unitary-authority/cheshire-west-and-chester,Cheshire West and Chester Council,,"""27 Blacon Point Road, Blacon, Chester. CH1 5LD""",338590,367600,http://consult.cheshirewestandchester.gov.uk/portal/cwc_ldf/land/blr?tab=files,0.173,not owned by a public authority,,permissioned,,,,,,,,11/01876/FUL  12/02648/FUL,2017-12-21,,,,
,,,,,,,,,,,,,,,,,,,http://opendatacommunities.org/id/unitary-authority/cheshire-west-and-chester,Cheshire West and Chester Council,,"""King Edward Buildings/ Bensons site and surrounding land, Christleton""",342309,366168,http://consult.cheshirewestandchester.gov.uk/portal/cwc_ldf/land/blr?tab=files,0.339,mixed ownership,,not permissioned,,,,,,,,,2017-12-21,,,,
,,,,,,,,,,,,,,,,,,,http://opendatacommunities.org/id/unitary-authority/cheshire-west-and-chester,Cheshire West and Chester Council,,"""Land at Premier House, Charterhall Drive, Chester""",341521,366754,http://consult.cheshirewestandchester.gov.uk/portal/cwc_ldf/land/blr?tab=files,2.476,not owned by a public authority,,permissioned,,,,,,,,"12/04895/FUL  14/03317/REM
14/01799/NMA",2017-12-21,,,,
,,,,,,,,,,,,,,,,,,,http://opendatacommunities.org/id/unitary-authority/cheshire-west-and-chester,Cheshire West and Chester Council,,"""125-127 Boughton, Chester, CH3 5BH""",341750,366537,http://consult.cheshirewestandchester.gov.uk/portal/cwc_ldf/land/blr?tab=files,0.218,not owned by a public authority,,permissioned,,,,,,,,,2018-12-30,,,,
,,,,,,,,,,,,,,,,,,,http://opendatacommunities.org/id/unitary-authority/cheshire-west-and-chester,Cheshire West and Chester Council,,"""The Cloud, 10 Boughton, Chester, CH3 5BH""",341311,366471,http://consult.cheshirewestandchester.gov.uk/portal/cwc_ldf/land/blr?tab=files,0.066,not owned by a public authority,,permissioned,,,,,,,,"17/04633/PDO, 18/01720/FUL",2018-12-30,,,,
,,,,,,,,,,,,,,,,,,,,,,"""GC and P Wright, Charles Street, Chester""",340944,366782,http://consult.cheshirewestandchester.gov.uk/portal/cwc_ldf/land/blr?tab=files,0.09,not owned by a public authority,,permissioned,,,,,,,,18/02223/FUL,2019-12-01,2019-12-01,,,
,,,,,,,,,,,,,,,,,,,http://opendatacommunities.org/id/unitary-authority/cheshire-west-and-chester,Cheshire West and Chester Council,,"""Linenhall car park, Stanley Street, Chester, CH1 2LR""",340216,366301,http://consult.cheshirewestandchester.gov.uk/portal/cwc_ldf/land/blr?tab=files,0.737,not owned by a public authority,,permissioned,,,,,,,,"13/03210/FUL
17/00530/NMA",2017-12-21,,,,
,,,,,,,,,,,,,,,,,,,http://opendatacommunities.org/id/unitary-authority/cheshire-west-and-chester,Cheshire West and Chester Council,,"""Land off Hoole Way/Black Diamond Street, Chester""",340980,367018,http://consult.cheshirewestandchester.gov.uk/portal/cwc_ldf/land/blr?tab=files,0.297,not owned by a public authority,,permissioned,,,,,,,,,2017-12-21,,,,
,,,,,,,,,,,,,,,,,,,http://opendatacommunities.org/id/unitary-authority/cheshire-west-and-chester,Cheshire West and Chester Council,,"Land at Trafford Street, Chester",340649,366980,http://consult.cheshirewestandchester.gov.uk/portal/cwc_ldf/land/blr?tab=files,,not owned by a public authority,,not permissioned,,,,,,,,,2017-12-21,2019-12-01,,,
,,,,,,,,,,,,,,,,,,,http://opendatacommunities.org/id/unitary-authority/cheshire-west-and-chester,Cheshire West and Chester Council,,"""Former Partco Autoparts, Trafford Street, Chester""",340650,366981,http://consult.cheshirewestandchester.gov.uk/portal/cwc_ldf/land/blr?tab=files,,not owned by a public authority,,permissioned,,,,,,,,18/00486/FUL,2018-12-30,2019-12-01,,,
,,,,,,,,,,,,,,,,,,,http://opendatacommunities.org/id/unitary-authority/cheshire-west-and-chester,Cheshire West and Chester Council,,"""St Anne Street car park, Black Diamond Street, Chester""",340900,366936,http://consult.cheshirewestandchester.gov.uk/portal/cwc_ldf/land/blr?tab=files,0.342,owned by a public authority,,not permissioned,,,,,,,,,2017-12-21,,,,
,,,,,,,,,,,,,,,,,,,http://opendatacommunities.org/id/unitary-authority/cheshire-west-and-chester,Cheshire West and Chester Council,,"""Browns Yard car park, Chester""",340980,366499,http://consult.cheshirewestandchester.gov.uk/portal/cwc_ldf/land/blr?tab=files,0.276,owned by a public authority,,not permissioned,,,,,,,,,2017-12-21,,,,
,,,,,,,,,,,,,,,,,,,http://opendatacommunities.org/id/unitary-authority/cheshire-west-and-chester,Cheshire West and Chester Council,,"""Northgate Redevelopment Site: Land Bounded By Hunter Street, Northgate Street, Watergate Street And St Martins Way Chester Cheshire""",340354,366387,http://consult.cheshirewestandchester.gov.uk/portal/cwc_ldf/land/blr?tab=files,5.675,mixed ownership,,permissioned,,,,,,,,"02/00838/FUL   07/00061/S73 10/11534/EXT
16/02282/OUT",2017-12-21,2018-12-30,,,
,,,,,,,,,,,,,,,,,,,http://opendatacommunities.org/id/unitary-authority/cheshire-west-and-chester,Cheshire West and Chester Council,,"""New Crane Street car park, Chester""",340067,366225,http://consult.cheshirewestandchester.gov.uk/portal/cwc_ldf/land/blr?tab=files,0.326,owned by a public authority,,not permissioned,,,,,,,,,2017-12-21,,,,
,,,,,,,,,,,,,,,,,,,http://opendatacommunities.org/id/unitary-authority/cheshire-west-and-chester,Cheshire West and Chester Council,,"""Former car garage, Lower Bridge Street, Chester""",340660,365925,http://consult.cheshirewestandchester.gov.uk/portal/cwc_ldf/land/blr?tab=files,0.221,not owned by a public authority,,pending decision,,,,,,,,18/04893/FUL (pending),2017-12-21,2018-12-30,,,
,,,,,,,,,,,,,,,,,,,http://opendatacommunities.org/id/unitary-authority/cheshire-west-and-chester,Cheshire West and Chester Council,,"""Garden Lane car park, Chester""",340300,366806,http://consult.cheshirewestandchester.gov.uk/portal/cwc_ldf/land/blr?tab=files,0.334,owned by a public authority,,not permissioned,,,,,,,,,2017-12-21,,,,
,,,,,,,,,,,,,,,,,,,http://opendatacommunities.org/id/unitary-authority/cheshire-west-and-chester,Cheshire West and Chester Council,,"""BT Building and Newgate House, St John's Street, Chester""",340852,366257,http://consult.cheshirewestandchester.gov.uk/portal/cwc_ldf/land/blr?tab=files,0.322,not owned by a public authority,,not permissioned,,,,,,,,,2017-12-21,,,,
,,,,,,,,,,,,,,,,,,,http://opendatacommunities.org/id/unitary-authority/cheshire-west-and-chester,Cheshire West and Chester Council,,"""Loves Garage, Garden Lane, Chester""",340244,366771,http://consult.cheshirewestandchester.gov.uk/portal/cwc_ldf/land/blr?tab=files,0.136,not owned by a public authority,,not permissioned,,,,,,,,,2017-12-21,,,,
,,,,,,,,,,,,,,,,,,,http://opendatacommunities.org/id/unitary-authority/cheshire-west-and-chester,Cheshire West and Chester Council,,"""Land at Bollands Court, Commonhall Street, Chester""",340437,366144,http://consult.cheshirewestandchester.gov.uk/portal/cwc_ldf/land/blr?tab=files,0.302,not owned by a public authority,,not permissioned,,,,,,,,,2017-12-21,2018-12-30,,,
,,,,,,,,,,,,,,,,,,,http://opendatacommunities.org/id/unitary-authority/cheshire-west-and-chester,Cheshire West and Chester Council,,"""104 Watergate Street, Chester, CH1 2LF""",340143,366210,http://consult.cheshirewestandchester.gov.uk/portal/cwc_ldf/land/blr?tab=files,0.03,not owned by a public authority,,not permissioned,,,,,,,,,2018-12-30,,,,
,,,,,,,,,,,,,,,,,,,http://opendatacommunities.org/id/unitary-authority/cheshire-west-and-chester,Cheshire West and Chester Council,,"""35 Eastgate Street, Chester, CH1 1LG""",340654,366345,http://consult.cheshirewestandchester.gov.uk/portal/cwc_ldf/land/blr?tab=files,0.017,not owned by a public authority,,permissioned,,,,,,,,17/01670/FUL,2018-12-30,,,,
,,,,,,,,,,,,,,,,,,,http://opendatacommunities.org/id/unitary-authority/cheshire-west-and-chester,Cheshire West and Chester Council,,"""14 - 20 Watergate Street, Chester (within boundary of CHC/0008/H)""",340469,366301,http://consult.cheshirewestandchester.gov.uk/portal/cwc_ldf/land/blr?tab=files,0.098,mixed ownership,,permissioned,,,,,,,,16/00580/FUL,2017-12-21,2018-12-30,,,
,,,,,,,,,,,,,,,,,,,http://opendatacommunities.org/id/unitary-authority/cheshire-west-and-chester,Cheshire West and Chester Council,,"""Clemence House St Werburgh Street Chester Cheshire CH1 2DY """,340523,366411,http://consult.cheshirewestandchester.gov.uk/portal/cwc_ldf/land/blr?tab=files,0.032,not owned by a public authority,,permissioned,,,,,,,,16/00844/FUL,2017-12-21,,,,
,,,,,,,,,,,,,,,,,,,http://opendatacommunities.org/id/unitary-authority/cheshire-west-and-chester,Cheshire West and Chester Council,,"""Car park off Hunter Street, Chester""",340264,366515,http://consult.cheshirewestandchester.gov.uk/portal/cwc_ldf/land/blr?tab=files,0.08,not owned by a public authority,,permissioned,,,,,,,,15/04014/FUL,2017-12-21,2019-12-01,,,
,,,,,,,,,,,,,,,,,,,http://opendatacommunities.org/id/unitary-authority/cheshire-west-and-chester,Cheshire West and Chester Council,,"""Land at Volunteer Street, Chester""",340670,366059,http://consult.cheshirewestandchester.gov.uk/portal/cwc_ldf/land/blr?tab=files,0.056,not owned by a public authority,,permissioned,,,,,,,,17/02631/FUL,2018-12-30,,,,
,,,,,,,,,,,,,,,,,,,,,,"""Concorde House, 6 Canal Street, Chester""",340291,366718,http://consult.cheshirewestandchester.gov.uk/portal/cwc_ldf/land/blr?tab=files,0.087,not owned by a public authority,,permissioned,,,,,,,,18/03988/PDO,2019-12-01,2019-12-01,,,
,,,,,,,,,,,,,,,,,,,http://opendatacommunities.org/id/unitary-authority/cheshire-west-and-chester,Cheshire West and Chester Council,,"""White Lane Depot, White Lane, Christleton""",343635,365547,http://consult.cheshirewestandchester.gov.uk/portal/cwc_ldf/land/blr?tab=files,0.265,not owned by a public authority,,not permissioned,,,,,,,,,2017-12-21,,,,
,,,,,,,,,,,,,,,,,,,http://opendatacommunities.org/id/unitary-authority/cheshire-west-and-chester,Cheshire West and Chester Council,,"""The Moorings, Rowton Bridge Road, G716Christleton, CH3 7AE""",344324,365129,http://consult.cheshirewestandchester.gov.uk/portal/cwc_ldf/land/blr?tab=files,0.231,not owned by a public authority,,permissioned,,,,,,,,13/00999/FUL,2017-12-21,,,,
,,,,,,,,,,,,,,,,,,,http://opendatacommunities.org/id/unitary-authority/cheshire-west-and-chester,Cheshire West and Chester Council,,"""Christleton Hall, Pepper Street, Christleton, CH3 7AB""",343813,365754,http://consult.cheshirewestandchester.gov.uk/portal/cwc_ldf/land/blr?tab=files,5.14,not owned by a public authority,,not permissioned,,,,,,,,18/03803/FUL refused 25/01/2019,2018-12-30,2019-12-01,,,
,,,,,,,,,,,,,,,,,,,http://opendatacommunities.org/id/unitary-authority/cheshire-west-and-chester,Cheshire West and Chester Council,,"""Land at 44 Church Street, Shipbrook Road, Davenham""",366427,371201,http://consult.cheshirewestandchester.gov.uk/portal/cwc_ldf/land/blr?tab=files,0.265,not owned by a public authority,,not permissioned,,,,,,,,,2017-12-21,2018-12-30,,,
,,,,,,,,,,,,,,,,,,,http://opendatacommunities.org/id/unitary-authority/cheshire-west-and-chester,Cheshire West and Chester Council,,"""Land to side and rear of The Salt Museum, London Road, Northwich""",365795,373161,http://consult.cheshirewestandchester.gov.uk/portal/cwc_ldf/land/blr?tab=files,0.259,owned by a public authority,,not permissioned,,,,,,,,,2017-12-21,,,,
,,,,,,,,,,,,,,,,,,,http://opendatacommunities.org/id/unitary-authority/cheshire-west-and-chester,Cheshire West and Chester Council,,"""Land at 618 London Road, Davenham""",366095,370213,http://consult.cheshirewestandchester.gov.uk/portal/cwc_ldf/land/blr?tab=files,0.733,not owned by a public authority,,not permissioned,,,,,,,,,2017-12-21,,,,
,,,,,,,,,,,,,,,,,,,http://opendatacommunities.org/id/unitary-authority/cheshire-west-and-chester,Cheshire West and Chester Council,,"""Former Huntington Primary School, Butterbache Road, Huntington, Chester""",342218,364450,http://consult.cheshirewestandchester.gov.uk/portal/cwc_ldf/land/blr?tab=files,0.143,owned by a public authority,,not permissioned,,,,,,,,,2018-12-30,,,,
,,,,,,,,,,,,,,,,,,,http://opendatacommunities.org/id/unitary-authority/cheshire-west-and-chester,Cheshire West and Chester Council,,"""Land at Decoy Farm, Lache Lane, Marlston cum Lache, Chester""",338051,362851,http://consult.cheshirewestandchester.gov.uk/portal/cwc_ldf/land/blr?tab=files,1.128,not owned by a public authority,,permissioned,,,,,,,,15/01429/OUT,2017-12-21,,,,
,,,,,,,,,,,,,,,,,,,http://opendatacommunities.org/id/unitary-authority/cheshire-west-and-chester,Cheshire West and Chester Council,,"""Balderton Saw Mills, Welsh Road, Dodleston, CH4 9LF""",337533,362141,http://consult.cheshirewestandchester.gov.uk/portal/cwc_ldf/land/blr?tab=files,1.67,not owned by a public authority,,not permissioned,,,,,,,,,2018-12-30,2019-12-01,,,
,,,,,,,,,,,,,,,,,,,http://opendatacommunities.org/id/unitary-authority/cheshire-west-and-chester,Cheshire West and Chester Council,,"""Lyndale Farm, Wrexham Road, Pulford, CH4 9DG""",338072,359713,http://consult.cheshirewestandchester.gov.uk/portal/cwc_ldf/land/blr?tab=files,1.35,not owned by a public authority,,permissioned,,,,,,,,17/00049/OUT|17/05230/DIS,2018-12-30,,,,
,,,,,,,,,,,,,,,,,,,http://opendatacommunities.org/id/unitary-authority/cheshire-west-and-chester,Cheshire West and Chester Council,,"""CROMWELL ROAD - Phase 3 - Land north of Cromwell Road, Ellesmere Port (HH Roberts)""",340831,376288,http://consult.cheshirewestandchester.gov.uk/portal/cwc_ldf/land/blr?tab=files,3.23,not owned by a public authority,,permissioned,,,,,,,,14/00041/OUT,2018-12-30,,,,
,,,,,,,,,,,,,,,,,,,http://opendatacommunities.org/id/unitary-authority/cheshire-west-and-chester,Cheshire West and Chester Council,,"""Wellington Road North car park, rear of 89 - 109 Cambridge Road, Ellesmere Port""",340524,376222,http://consult.cheshirewestandchester.gov.uk/portal/cwc_ldf/land/blr?tab=files,0.821,owned by a public authority,,not permissioned,,,,,,,,Site in Middle;Outer hazard zone,2017-12-21,,,,
,,,,,,,,,,,,,,,,,,,http://opendatacommunities.org/id/unitary-authority/cheshire-west-and-chester,Cheshire West and Chester Council,,"""The Knot PH, Whitby Road, Ellesmere Port""",340179,376243,http://consult.cheshirewestandchester.gov.uk/portal/cwc_ldf/land/blr?tab=files,0.242,not owned by a public authority,,not permissioned,,,,,,,,,2017-12-21,,,,
,,,,,,,,,,,,,,,,,,,http://opendatacommunities.org/id/unitary-authority/cheshire-west-and-chester,Cheshire West and Chester Council,,"""Land at Coronation Road (site of former leisure centre and office building), Stanney Lane, Ellesmere Port""",340032,375660,http://consult.cheshirewestandchester.gov.uk/portal/cwc_ldf/land/blr?tab=files,2.018,owned by a public authority,,not permissioned,,,,,,,,,2017-12-21,,,,
,,,,,,,,,,,,,,,,,,,http://opendatacommunities.org/id/unitary-authority/cheshire-west-and-chester,Cheshire West and Chester Council,,"""Land south of Cromwell  Road (former PZ Cussons), Ellesmere Port""",340891,376084,http://consult.cheshirewestandchester.gov.uk/portal/cwc_ldf/land/blr?tab=files,1.535,not owned by a public authority,,permissioned,,,,,,,,P/08/745   P/2008/102/ST/745,2017-12-21,,,,
,,,,,,,,,,,,,,,,,,,http://opendatacommunities.org/id/unitary-authority/cheshire-west-and-chester,Cheshire West and Chester Council,,"""53 Whitby Road, Ellesmere Port CH65 8AB""",340150,376238,http://consult.cheshirewestandchester.gov.uk/portal/cwc_ldf/land/blr?tab=files,0.05,not owned by a public authority,,permissioned,,,,,,,,16/02077/FUL,2017-12-21,2019-12-01,,,
,,,,,,,,,,,,,,,,,,,http://opendatacommunities.org/id/unitary-authority/cheshire-west-and-chester,Cheshire West and Chester Council,,"""Agra Fort, 3 to 7 Cambridge Road, Ellesmere Port, CH65 8AB""",340239,376341,http://consult.cheshirewestandchester.gov.uk/portal/cwc_ldf/land/blr?tab=files,0.3,not owned by a public authority,,permissioned,,,,,,,,17/02172/FUL,2018-12-30,,,,
,,,,,,,,,,,,,,,,,,,http://opendatacommunities.org/id/unitary-authority/cheshire-west-and-chester,Cheshire West and Chester Council,,"""Phoenix Social Club, Cromwell Road, Ellesmere Port, CH65 4AA",340329,376362,http://consult.cheshirewestandchester.gov.uk/portal/cwc_ldf/land/blr?tab=files,0.0162,not owned by a public authority,,permissioned,,,,,,,,17/02173/FUL,2018-12-30,2019-12-01,,,
,,,,,,,,,,,,,,,,,,,http://opendatacommunities.org/id/unitary-authority/cheshire-west-and-chester,Cheshire West and Chester Council,,"""Grace Arms, Stanney Lane, Ellesmere Port""",340130,375483,http://consult.cheshirewestandchester.gov.uk/portal/cwc_ldf/land/blr?tab=files,0.4,not owned by a public authority,,not permissioned,,,,,,,,17/04425/FUL (withdrawn),2018-12-30,2019-12-01,,,
,,,,,,,,,,,,,,,,,,,http://opendatacommunities.org/id/unitary-authority/cheshire-west-and-chester,Cheshire West and Chester Council,,"""Grosvenor Estate Yard, Middle Lane, Aldford, Chester CH3 6JA""",341981,359201,http://consult.cheshirewestandchester.gov.uk/portal/cwc_ldf/land/blr?tab=files,0.661,not owned by a public authority,,not permissioned,,,,,,,,08/01294/FUL  11/04335/EXT,2017-12-21,,,,
,,,,,,,,,,,,,,,,,,,,,,"""Land at Bridge Lane, Frodsham""",352315,378194,http://consult.cheshirewestandchester.gov.uk/portal/cwc_ldf/land/blr?tab=files,0.164,not owned by a public authority,,not permissioned,,,,,,,,,2019-12-01,2019-12-01,,,
,,,,,,,,,,,,,,,,,,,http://opendatacommunities.org/id/unitary-authority/cheshire-west-and-chester,Cheshire West and Chester Council,,"""Land off Greenfield Lane, Frodsham""",351641,378004,http://consult.cheshirewestandchester.gov.uk/portal/cwc_ldf/land/blr?tab=files,0.371,not owned by a public authority,,not permissioned,,,,,,,,Site in Outer hazard zone,2017-12-21,,,,
,,,,,,,,,,,,,,,,,,,,,,"""29 Main Street, Frodsham""",351352,377677,http://consult.cheshirewestandchester.gov.uk/portal/cwc_ldf/land/blr?tab=files,0.083,not owned by a public authority,,permissioned,,,,,,,,18/01239/OUT,2019-12-01,2019-12-01,,,
,,,,,,,,,,,,,,,,,,,http://opendatacommunities.org/id/unitary-authority/cheshire-west-and-chester,Cheshire West and Chester Council,,"""Land off Queensway, Frodsham""",351740,377614,http://consult.cheshirewestandchester.gov.uk/portal/cwc_ldf/land/blr?tab=files,0.253,owned by a public authority,,not permissioned,,,,,,,,,2018-12-30,,,,
,,,,,,,,,,,,,,,,,,,http://opendatacommunities.org/id/unitary-authority/cheshire-west-and-chester,Cheshire West and Chester Council,,"""Mersey View Club, Overton Hill, Bellemonte Road, Frodsham Cheshire WA6 6HH """,351768,376833,http://consult.cheshirewestandchester.gov.uk/portal/cwc_ldf/land/blr?tab=files,1.39,not owned by a public authority,,permissioned,,,,,,,,14/03835/OUT,2017-12-21,,,,
,,,,,,,,,,,,,,,,,,,http://opendatacommunities.org/id/unitary-authority/cheshire-west-and-chester,Cheshire West and Chester Council,,"""Land to rear of Crane Bank Garage, Chester""",339821,366410,http://consult.cheshirewestandchester.gov.uk/portal/cwc_ldf/land/blr?tab=files,0.184,not owned by a public authority,,not permissioned,,,,,,,,Site in Middle;Outer hazard zone,2017-12-21,,,,
,,,,,,,,,,,,,,,,,,,http://opendatacommunities.org/id/unitary-authority/cheshire-west-and-chester,Cheshire West and Chester Council,,"""Southern Tail development (remaining part of allocation), New Crane Street""",339830,366318,http://consult.cheshirewestandchester.gov.uk/portal/cwc_ldf/land/blr?tab=files,0.656,not owned by a public authority,,not permissioned,,,,,,,,,2017-12-21,,,,
,,,,,,,,,,,,,,,,,,,http://opendatacommunities.org/id/unitary-authority/cheshire-west-and-chester,Cheshire West and Chester Council,,"""Raymond House and Diocesan House, Raymond Street, Chester""",340076,366630,http://consult.cheshirewestandchester.gov.uk/portal/cwc_ldf/land/blr?tab=files,0.049,not owned by a public authority,,permissioned,,,,,,,,15/02650/FUL,2017-12-21,,,,
,,,,,,,,,,,,,,,,,,,http://opendatacommunities.org/id/unitary-authority/cheshire-west-and-chester,Cheshire West and Chester Council,,"""Council depot and garage court off Sutton Way, Ellesmere Port""",339390,375938,http://consult.cheshirewestandchester.gov.uk/portal/cwc_ldf/land/blr?tab=files,0.377,owned by a public authority,,not permissioned,,,,,,,,,2017-12-21,2018-12-30,,,
,,,,,,,,,,,,,,,,,,,http://opendatacommunities.org/id/unitary-authority/cheshire-west-and-chester,Cheshire West and Chester Council,,"""Former school site (The Acorns Primary and Nursery), Pooltown Road, Ellesmere Port""",338914,376352,http://consult.cheshirewestandchester.gov.uk/portal/cwc_ldf/land/blr?tab=files,0.455,owned by a public authority,,not permissioned,,,,,,,,,2017-12-21,,,,
,,,,,,,,,,,,,,,,,,,http://opendatacommunities.org/id/unitary-authority/cheshire-west-and-chester,Cheshire West and Chester Council,,"""Beechmoor Garden Centre / Shed sales, Whitchurch Road, Chester, Cheshire, CH3 5QD""",343084,365866,http://consult.cheshirewestandchester.gov.uk/portal/cwc_ldf/land/blr?tab=files,0.929,not owned by a public authority,,permissioned,,,,,,,,17/03661/FUL allowed on appeal,2017-12-21,2019-12-01,,,
,,,,,,,,,,,,,,,,,,,http://opendatacommunities.org/id/unitary-authority/cheshire-west-and-chester,Cheshire West and Chester Council,,"""Foxwood, Caldy Valley Road, Great Boughton Chester Cheshire CH3 5PR""",342924,365913,http://consult.cheshirewestandchester.gov.uk/portal/cwc_ldf/land/blr?tab=files,0.198,not owned by a public authority,,permissioned,,,,,,,,15/01278/FUL,2017-12-21,,,,
,,,,,,,,,,,,,,,,,,,http://opendatacommunities.org/id/unitary-authority/cheshire-west-and-chester,Cheshire West and Chester Council,,"""176 and 178 Chester Road, Northwich, CW8 4AL""",364487,372982,http://consult.cheshirewestandchester.gov.uk/portal/cwc_ldf/land/blr?tab=files,0.103,not owned by a public authority,,not permissioned,,,,,,,,13/02368/OUT,2017-12-21,,,,
,,,,,,,,,,,,,,,,,,,http://opendatacommunities.org/id/unitary-authority/cheshire-west-and-chester,Cheshire West and Chester Council,,"""Abbey Lodge, Abbey Lane, Hartford, CW8 1LX""",363564,371982,http://consult.cheshirewestandchester.gov.uk/portal/cwc_ldf/land/blr?tab=files,0.438,not owned by a public authority,,permissioned,,,,,,,,16/03165/FUL (allowed on appeal),2018-12-30,,,,
,,,,,,,,,,,,,,,,,,,http://opendatacommunities.org/id/unitary-authority/cheshire-west-and-chester,Cheshire West and Chester Council,,"""Land to rear of 45-51 Percy Road / 15-17 Eaton Road, Handbridge""",340827,365335,http://consult.cheshirewestandchester.gov.uk/portal/cwc_ldf/land/blr?tab=files,0.294,mixed ownership,,not permissioned,,,,,,,,,2017-12-21,,,,
,,,,,,,,,,,,,,,,,,,http://opendatacommunities.org/id/unitary-authority/cheshire-west-and-chester,Cheshire West and Chester Council,,"""Land to rear of 2 -14 Bradford Street, Handbridge, Chester""",340880,365427,http://consult.cheshirewestandchester.gov.uk/portal/cwc_ldf/land/blr?tab=files,0.141,not owned by a public authority,,permissioned,,,,,,,,08/02031/FUL 13/02232/EXT,2017-12-21,,,,
,,,,,,,,,,,,,,,,,,,http://opendatacommunities.org/id/unitary-authority/cheshire-west-and-chester,Cheshire West and Chester Council,,"""Watertower off Eaton Mews, Handbridge""",340651,365278,http://consult.cheshirewestandchester.gov.uk/portal/cwc_ldf/land/blr?tab=files,0.328,not owned by a public authority,,not permissioned,,,,,,,,,2017-12-21,,,,
,,,,,,,,,,,,,,,,,,,http://opendatacommunities.org/id/unitary-authority/cheshire-west-and-chester,Cheshire West and Chester Council,,"""The Chase - Former Horse And Jockey, Chester Road, Helsby""",349327,375936,http://consult.cheshirewestandchester.gov.uk/portal/cwc_ldf/land/blr?tab=files,0.32,not owned by a public authority,,permissioned,,,,,,,,"16/03313/FUL
14/03769/FUL
09/02434/FUL",2017-12-21,2019-12-01,,,
,,,,,,,,,,,,,,,,,,,http://opendatacommunities.org/id/unitary-authority/cheshire-west-and-chester,Cheshire West and Chester Council,,"""INEOS Compounds UK Limited, Chester Road, Helsby""",348258,374598,http://consult.cheshirewestandchester.gov.uk/portal/cwc_ldf/land/blr?tab=files,1.878,not owned by a public authority,,permissioned,,,,,,,,"13/02503/OUT 
16/05566/REM",2017-12-21,,,,
,,,,,,,,,,,,,,,,,,,http://opendatacommunities.org/id/unitary-authority/cheshire-west-and-chester,Cheshire West and Chester Council,,"""MERE'S EDGE (Phase 4) site of existing Helsby Community Sports Club, between chester Road and Hornsmill Brook, Heslby""",348334,374370,http://consult.cheshirewestandchester.gov.uk/portal/cwc_ldf/land/blr?tab=files,1.596,not owned by a public authority,,permissioned,,,,,,,,08/02901/OUM 14/04044/OUT,2017-12-21,,,,
,,,,,,,,,,,,,,,,,,,http://opendatacommunities.org/id/unitary-authority/cheshire-west-and-chester,Cheshire West and Chester Council,,"""Land off West Street, Hoole, Chester""",341087,367322,http://consult.cheshirewestandchester.gov.uk/portal/cwc_ldf/land/blr?tab=files,0.349,not owned by a public authority,,not permissioned,,,,,,,,,2018-12-30,,,,
,,,,,,,,,,,,,,,,,,,http://opendatacommunities.org/id/unitary-authority/cheshire-west-and-chester,Cheshire West and Chester Council,,"""Hoole Road Enterprise Centre, Chester""",341328,367110,http://consult.cheshirewestandchester.gov.uk/portal/cwc_ldf/land/blr?tab=files,0.706,owned by a public authority,,not permissioned,,,,,,,,,2017-12-21,,,,
,,,,,,,,,,,,,,,,,,,http://opendatacommunities.org/id/unitary-authority/cheshire-west-and-chester,Cheshire West and Chester Council,,"""Land between Lightfoot Street/ Thomas Brassery Court / railway line, Hoole, Chester""",341574,366970,http://consult.cheshirewestandchester.gov.uk/portal/cwc_ldf/land/blr?tab=files,0.404,mixed ownership,,not permissioned,,,,,,,,,2017-12-21,,,,
,,,,,,,,,,,,,,,,,,,http://opendatacommunities.org/id/unitary-authority/cheshire-west-and-chester,Cheshire West and Chester Council,,"""Former car sales garage and public house, Hoole Bridge, Hoole Road, Hoole, Chester""",341200,367182,http://consult.cheshirewestandchester.gov.uk/portal/cwc_ldf/land/blr?tab=files,0.462,mixed ownership,,not permissioned,,,,,,,,,2017-12-21,,,,
,,,,,,,,,,,,,,,,,,,http://opendatacommunities.org/id/unitary-authority/cheshire-west-and-chester,Cheshire West and Chester Council,,"""The Grange, 1 Hoole Road, Chester CH2 3NQ""",341277,367150,http://consult.cheshirewestandchester.gov.uk/portal/cwc_ldf/land/blr?tab=files,0.089,not owned by a public authority,,permissioned,,,,,,,,16/03189/FUL,2017-12-21,,,,
,,,,,,,,,,,,,,,,,,,,,,"""Pipers Private Day Nursery, Alder Grove, Chester""",342808,3676017,http://consult.cheshirewestandchester.gov.uk/portal/cwc_ldf/land/blr?tab=files,0.142,not owned by a public authority,,permissioned,,,,,,,,18/02589/OUT,2019-12-01,2019-12-01,,,
,,,,,,,,,,,,,,,,,,,http://opendatacommunities.org/id/unitary-authority/cheshire-west-and-chester,Cheshire West and Chester Council,,"""Former Delamere Forest School, Blakemere Lane, Norley, WA6 6NP""",355469,371691,http://consult.cheshirewestandchester.gov.uk/portal/cwc_ldf/land/blr?tab=files,1.04,not owned by a public authority,,permissioned,,,,,,,,,2018-12-30,2019-12-01,,,
,,,,,,,,,,,,,,,,,,,http://opendatacommunities.org/id/unitary-authority/cheshire-west-and-chester,Cheshire West and Chester Council,,"""Haulage Yard, High Street, Norley, Northwich""",356694,372385,http://consult.cheshirewestandchester.gov.uk/portal/cwc_ldf/land/blr?tab=files,0.304,not owned by a public authority,,permissioned,,,,,,,,15/01749/OUT,2017-12-21,2018-12-30,,,
,,,,,,,,,,,,,,,,,,,,,,"""Kingsley Mill, Mill Lane, Kingsley""",356329,375008,http://consult.cheshirewestandchester.gov.uk/portal/cwc_ldf/land/blr?tab=files,0.541,not owned by a public authority,,pe,,,,,,,,18/00909/FUL,2019-12-01,2019-12-01,,,
,,,,,,,,,,,,,,,,,,,http://opendatacommunities.org/id/unitary-authority/cheshire-west-and-chester,Cheshire West and Chester Council,,"""Great Western House, The Sidings, Chester St, Saltney,""",338614,364994,http://consult.cheshirewestandchester.gov.uk/portal/cwc_ldf/land/blr?tab=files,0.5,not owned by a public authority,,not permissioned,,,,,,,,,2017-12-21,,,,
,,,,,,,,,,,,,,,,,,,http://opendatacommunities.org/id/unitary-authority/cheshire-west-and-chester,Cheshire West and Chester Council,,"""Red Hill House, Hope Street, Saltney""",338775,364937,http://consult.cheshirewestandchester.gov.uk/portal/cwc_ldf/land/blr?tab=files,0.953,not owned by a public authority,,not permissioned,,,,,,,,,2017-12-21,,,,
,,,,,,,,,,,,,,,,,,,http://opendatacommunities.org/id/unitary-authority/cheshire-west-and-chester,Cheshire West and Chester Council,,"""4 Coronation Street, Chester, CH4 8BX""",338845,365018,http://consult.cheshirewestandchester.gov.uk/portal/cwc_ldf/land/blr?tab=files,0.044,not owned by a public authority,,permissioned,,,,,,,,17/02763/OUT,2018-12-30,,,,
,,,,,,,,,,,,,,,,,,,http://opendatacommunities.org/id/unitary-authority/cheshire-west-and-chester,Cheshire West and Chester Council,,"""726 Chester Road, Ellesmere Port""",337566,375492,http://consult.cheshirewestandchester.gov.uk/portal/cwc_ldf/land/blr?tab=files,0.312,not owned by a public authority,,not permissioned,,,,,,,,,2017-12-21,,,,
,,,,,,,,,,,,,,,,,,,,,,"""The Sutton, Gleaneagles Road, Great Sutton, Ellesmere Port""",337238,375491,http://consult.cheshirewestandchester.gov.uk/portal/cwc_ldf/land/blr?tab=files,0.198,not owned by a public authority,,permissioned,,,,,,17,,17/05223/FUL,2019-12-01,,,,
,,,,,,,,,,,,,,,,,,,http://opendatacommunities.org/id/unitary-authority/cheshire-west-and-chester,Cheshire West and Chester Council,,"""Romney Close garage site, Neston CH63 9RJ""",329461,377066,http://consult.cheshirewestandchester.gov.uk/portal/cwc_ldf/land/blr?tab=files,0.178,owned by a public authority,,permissioned,,,,,,,,16/03082/FUL,2017-12-21,,,,
,,,,,,,,,,,,,,,,,,,http://opendatacommunities.org/id/unitary-authority/cheshire-west-and-chester,Cheshire West and Chester Council,,"""Canal Bridge House, 47 Chapel Street, Wincham, Northwich CW9 6DA""",367478,375272,http://consult.cheshirewestandchester.gov.uk/portal/cwc_ldf/land/blr?tab=files,0.124,not owned by a public authority,,permissioned,,,,,,,,09/02524/FUL  14/02588/FUL,2017-12-21,,,,
,,,,,,,,,,,,,,,,,,,http://opendatacommunities.org/id/unitary-authority/cheshire-west-and-chester,Cheshire West and Chester Council,,"""Land north of Chapel Street, Wincham""",367383,375267,http://consult.cheshirewestandchester.gov.uk/portal/cwc_ldf/land/blr?tab=files,1.971,not owned by a public authority,,not permissioned,,,,,,,,,2017-12-21,,,,
,,,,,,,,,,,,,,,,,,,http://opendatacommunities.org/id/unitary-authority/cheshire-west-and-chester,Cheshire West and Chester Council,,"""Land at 7 Tunnel Road, Barnton, Northwich""",363538,374801,http://consult.cheshirewestandchester.gov.uk/portal/cwc_ldf/land/blr?tab=files,0.396,not owned by a public authority,,not permissioned,,,,,,,,"08-2090-FUM 11/03583/EXT ""Demolition of existing garages and workshop and erection of 13 residential units (8 apartments and 5 dwellings) """,2017-12-21,2018-12-30,,,
,,,,,,,,,,,,,,,,,,,http://opendatacommunities.org/id/unitary-authority/cheshire-west-and-chester,Cheshire West and Chester Council,,"""Land to rear of Brown Owl PH car park, Church Road, Barnton, Northwich""",363722,374933,http://consult.cheshirewestandchester.gov.uk/portal/cwc_ldf/land/blr?tab=files,0.371,not owned by a public authority,,not permissioned,,,,,,,,,2017-12-21,2018-12-30,,,
,,,,,,,,,,,,,,,,,,,http://opendatacommunities.org/id/unitary-authority/cheshire-west-and-chester,Cheshire West and Chester Council,,"""Malvern House  (adjacent to Daisy Bank), Old Road, Anderton with Marbury, Northwich. CW9 6AG""",364522,375310,http://consult.cheshirewestandchester.gov.uk/portal/cwc_ldf/land/blr?tab=files,0.635,not owned by a public authority,,permissioned,,,,,,,,15/01549/OUT,2017-12-21,,,,
,,,,,,,,,,,,,,,,,,,http://opendatacommunities.org/id/unitary-authority/cheshire-west-and-chester,Cheshire West and Chester Council,,"""Garage site off Townfield Lane, Barnton, Northwich""",363202,375601,http://consult.cheshirewestandchester.gov.uk/portal/cwc_ldf/land/blr?tab=files,0.191,not owned by a public authority,,permissioned,,,,,,,,18/00342/FUL,2018-12-30,,,,
,,,,,,,,,,,,,,,,,,,http://opendatacommunities.org/id/unitary-authority/cheshire-west-and-chester,Cheshire West and Chester Council,,"""Black Greyhound Hotel, Hall Lane, Wincham, Northwich. CW9 6DG""",368181,375819,http://consult.cheshirewestandchester.gov.uk/portal/cwc_ldf/land/blr?tab=files,0.079,not owned by a public authority,,permissioned,,,,,,,,17/03244/OUT,2018-12-30,,,,
,,,,,,,,,,,,,,,,,,,http://opendatacommunities.org/id/unitary-authority/cheshire-west-and-chester,Cheshire West and Chester Council,,"""8 to 30 Brook Street, Neston""",329242,377513,http://consult.cheshirewestandchester.gov.uk/portal/cwc_ldf/land/blr?tab=files,0.144,mixed ownership,,not permissioned,,,,,,,,,2017-12-21,,,,
,,,,,,,,,,,,,,,,,,,http://opendatacommunities.org/id/unitary-authority/cheshire-west-and-chester,Cheshire West and Chester Council,,"""Land off Netherpool Road, Ellesmere Port""",338731,377633,http://consult.cheshirewestandchester.gov.uk/portal/cwc_ldf/land/blr?tab=files,0.376,not owned by a public authority,,not permissioned,,,,,,,,,2017-12-21,,,,
,,,,,,,,,,,,,,,,,,,http://opendatacommunities.org/id/unitary-authority/cheshire-west-and-chester,Cheshire West and Chester Council,,"""Site of former Foxfields Public House, Poole Hall Road, Ellesmere Port""",338764,377909,http://consult.cheshirewestandchester.gov.uk/portal/cwc_ldf/land/blr?tab=files,0.709,owned by a public authority,,not permissioned,,,,,,,,,2017-12-21,,,,
,,,,,,,,,,,,,,,,,,,http://opendatacommunities.org/id/unitary-authority/cheshire-west-and-chester,Cheshire West and Chester Council,,"""Land off Liverpool Road (Total Fitness site), Chester",340277,367525,http://consult.cheshirewestandchester.gov.uk/portal/cwc_ldf/land/blr?tab=files,0.866,not owned by a public authority,,not permissioned,,,,,,,,,2018-12-30,,,,
,,,,,,,,,,,,,,,,,,,,,,"""White Gables, Plas Newton Lane, Chester""",341919,368872,http://consult.cheshirewestandchester.gov.uk/portal/cwc_ldf/land/blr?tab=files,0.137,not owned by a public authority,,permissioned,,,,,,13,,17/04015/FUL,2019-12-01,2019-12-01,,,
,,,,,,,,,,,,,,,,,,,http://opendatacommunities.org/id/unitary-authority/cheshire-west-and-chester,Cheshire West and Chester Council,,"""24-28 Bridge Street, Neston, CH64 9UL""",329271,377354,http://consult.cheshirewestandchester.gov.uk/portal/cwc_ldf/land/blr?tab=files,,not owned by a public authority,,permissioned,,,,,,,,,2018-12-30,2019-12-01,,,
,,,,,,,,,,,,,,,,,,,http://opendatacommunities.org/id/unitary-authority/cheshire-west-and-chester,Cheshire West and Chester Council,,"""Rossfield Park Development (Sites 2C, 3 and 4), Rossfield Road, Ellesmere Port""",339693,376721,http://consult.cheshirewestandchester.gov.uk/portal/cwc_ldf/land/blr?tab=files,5.642,not owned by a public authority,,permissioned,,,,,,,,"P/02/929 
13/01365/EXT (pending)
16/03098/CWC (pending)",2017-12-21,,,,
,,,,,,,,,,,,,,,,,,,http://opendatacommunities.org/id/unitary-authority/cheshire-west-and-chester,Cheshire West and Chester Council,,"""Land at Crescent Road, off Meadow Lane, Ellesmere Port""",340614,376693,http://consult.cheshirewestandchester.gov.uk/portal/cwc_ldf/land/blr?tab=files,0.704,owned by a public authority,,not permissioned,,,,,,,,Site in Middle;Outer hazard zone,2017-12-21,,,,
,,,,,,,,,,,,,,,,,,,http://opendatacommunities.org/id/unitary-authority/cheshire-west-and-chester,Cheshire West and Chester Council,,"""Rossfield Park Development (Site 5:Rossbank Road), Ellesmere Port (Persimmon)""",339437,377063,http://consult.cheshirewestandchester.gov.uk/portal/cwc_ldf/land/blr?tab=files,4.873,not owned by a public authority,,permissioned,,,,,,,,P/02/929  10/00636/OUT,2017-12-21,,,,
,,,,,,,,,,,,,,,,,,,http://opendatacommunities.org/id/unitary-authority/cheshire-west-and-chester,Cheshire West and Chester Council,,"""Land at Rosswood Road / Rossfield Road, Ellesmere Port""",339403,376818,http://consult.cheshirewestandchester.gov.uk/portal/cwc_ldf/land/blr?tab=files,0.653,not owned by a public authority,,not permissioned,,,,,,,,,2017-12-21,,,,
,,,,,,,,,,,,,,,,,,,http://opendatacommunities.org/id/unitary-authority/cheshire-west-and-chester,Cheshire West and Chester Council,,"""Land at Rossmore Road East / Rossfield Road North, Ellesmere Port""",339501,377310,http://consult.cheshirewestandchester.gov.uk/portal/cwc_ldf/land/blr?tab=files,1.39,not owned by a public authority,,not permissioned,,,,,,,,,2017-12-21,,,,
,,,,,,,,,,,,,,,,,,,http://opendatacommunities.org/id/unitary-authority/cheshire-west-and-chester,Cheshire West and Chester Council,,"""Land south of Meadow Lane (former Van Leer / Hansteen site), Ellesmere Port""",340678,376570,http://consult.cheshirewestandchester.gov.uk/portal/cwc_ldf/land/blr?tab=files,3.941,not owned by a public authority,,permissioned,,,,,,,,P/2009/102/WE/156  12/04513/EXT,2017-12-21,,,,
,,,,,,,,,,,,,,,,,,,http://opendatacommunities.org/id/unitary-authority/cheshire-west-and-chester,Cheshire West and Chester Council,,"""Rear of 70-88 Grace Road, New Grosvenor Road, Ellesmere Port""",339993,377017,http://consult.cheshirewestandchester.gov.uk/portal/cwc_ldf/land/blr?tab=files,0.422,not owned by a public authority,,not permissioned,,,,,,,,,2017-12-21,,,,
,,,,,,,,,,,,,,,,,,,http://opendatacommunities.org/id/unitary-authority/cheshire-west-and-chester,Cheshire West and Chester Council,,"""Mollington Grange Business Park, Parkgate Road, Mollington, Chester""",338779,369380,http://consult.cheshirewestandchester.gov.uk/portal/cwc_ldf/land/blr?tab=files,,not owned by a public authority,,permissioned,,,,,,,,,2018-12-30,2019-12-01,,,
,,,,,,,,,,,,,,,,,,,http://opendatacommunities.org/id/unitary-authority/cheshire-west-and-chester,Cheshire West and Chester Council,,"""413 Manchester Road, Lostock Gralam, Northwich""",369050,374998,http://consult.cheshirewestandchester.gov.uk/portal/cwc_ldf/land/blr?tab=files,0.528,not owned by a public authority,,not permissioned,,,,,,,,,2017-12-21,,,,
,,,,,,,,,,,,,,,,,,,http://opendatacommunities.org/id/unitary-authority/cheshire-west-and-chester,Cheshire West and Chester Council,,"""Goostrey Business Park, New Platt Lane, Allostock, Northwich CW4 8NN""",374853,370285,http://consult.cheshirewestandchester.gov.uk/portal/cwc_ldf/land/blr?tab=files,0.361,not owned by a public authority,,permissioned,,,,,,,,"16/03425/FUL
15/04269/OUT",2017-12-21,,,,
,,,,,,,,,,,,,,,,,,,http://opendatacommunities.org/id/unitary-authority/cheshire-west-and-chester,Cheshire West and Chester Council,,"""411 Manchester Road, Lostock Gralam, Northwich""",368944,374938,http://consult.cheshirewestandchester.gov.uk/portal/cwc_ldf/land/blr?tab=files,0.347,not owned by a public authority,,permissioned,,,,,,,,17/01434/FUL,2018-12-30,,,,
,,,,,,,,,,,,,,,,,,,http://opendatacommunities.org/id/unitary-authority/cheshire-west-and-chester,Cheshire West and Chester Council,,"""Eccleston Avenue (garage court), Ellesmere Port""",338456,376206,http://consult.cheshirewestandchester.gov.uk/portal/cwc_ldf/land/blr?tab=files,0.238,owned by a public authority,,not permissioned,,,,,,,,,2017-12-21,,,,
,,,,,,,,,,,,,,,,,,,http://opendatacommunities.org/id/unitary-authority/cheshire-west-and-chester,Cheshire West and Chester Council,,"""The Sutton Way PH, Sutton Way, Ellesmere Port""",338336,375869,http://consult.cheshirewestandchester.gov.uk/portal/cwc_ldf/land/blr?tab=files,0.283,not owned by a public authority,,not permissioned,,,,,,,,,2017-12-21,,,,
,,,,,,,,,,,,,,,,,,,http://opendatacommunities.org/id/unitary-authority/cheshire-west-and-chester,Cheshire West and Chester Council,,"""Sutton High School, Woodchurch Lane /Mill Lane, Ellesmere Port""",338260,376480,http://consult.cheshirewestandchester.gov.uk/portal/cwc_ldf/land/blr?tab=files,1.391,owned by a public authority,,not permissioned,,,,,,,,,2017-12-21,,,,
,,,,,,,,,,,,,,,,,,,http://opendatacommunities.org/id/unitary-authority/cheshire-west-and-chester,Cheshire West and Chester Council,,"""Land at Chester Road, Ellesmere Port, CH66 3RJ""",337319,376452,http://consult.cheshirewestandchester.gov.uk/portal/cwc_ldf/land/blr?tab=files,0.264,not owned by a public authority,,not permissioned,,,,,,,,,2017-12-21,,,,
,,,,,,,,,,,,,,,,,,,http://opendatacommunities.org/id/unitary-authority/cheshire-west-and-chester,Cheshire West and Chester Council,,"""Rivacre Business Centre, Mill Lane, Great Sutton, Ellesmere Port CH66 3TL""",338294,376322,http://consult.cheshirewestandchester.gov.uk/portal/cwc_ldf/land/blr?tab=files,1.366,owned by a public authority,,not permissioned,,,,,,,,,2017-12-21,,,,
,,,,,,,,,,,,,,,,,,,http://opendatacommunities.org/id/unitary-authority/cheshire-west-and-chester,Cheshire West and Chester Council,,"""Chester Road Garden Centre, Great Sutton, Ellesmere Port""",338236,374016,http://consult.cheshirewestandchester.gov.uk/portal/cwc_ldf/land/blr?tab=files,1.172,not owned by a public authority,,not permissioned,,,,,,,,,2017-12-21,,,,
,,,,,,,,,,,,,,,,,,,http://opendatacommunities.org/id/unitary-authority/cheshire-west-and-chester,Cheshire West and Chester Council,,"""Garage Court, Carlyle Crescent, Ellesmere Port""",338367,375616,http://consult.cheshirewestandchester.gov.uk/portal/cwc_ldf/land/blr?tab=files,0.278,not owned by a public authority,,not permissioned,,,,,,,,,2017-12-21,,,,
,,,,,,,,,,,,,,,,,,,http://opendatacommunities.org/id/unitary-authority/cheshire-west-and-chester,Cheshire West and Chester Council,,"""Land at former Haulage Yard site, Chester Road, Oakmere, Northwich""",356524,368587,http://consult.cheshirewestandchester.gov.uk/portal/cwc_ldf/land/blr?tab=files,1.14,not owned by a public authority,,permissioned,,,,,,,,10/01939/FUL,2017-12-21,2019-12-01,,,
,,,,,,,,,,,,,,,,,,,http://opendatacommunities.org/id/unitary-authority/cheshire-west-and-chester,Cheshire West and Chester Council,,"""Land at former Haulage Yard site, off Shakerley Close, Oakmere, Northwich""",356528,368596,http://consult.cheshirewestandchester.gov.uk/portal/cwc_ldf/land/blr?tab=files,1.4,not owned by a public authority,,permissioned,,,,,,,,15/03652/OUT,2017-12-21,,,,
,,,,,,,,,,,,,,,,,,,http://opendatacommunities.org/id/unitary-authority/cheshire-west-and-chester,Cheshire West and Chester Council,,"""Chester Road Nursery, Chester Road, Kelsall, CW6 0RN""",351779,368033,http://consult.cheshirewestandchester.gov.uk/portal/cwc_ldf/land/blr?tab=files,0.35,not owned by a public authority,,permissioned,,,,,,,,"13/03294/OUT, 17/00814/REM",2018-12-30,2019-12-01,,,
,,,,,,,,,,,,,,,,,,,http://opendatacommunities.org/id/unitary-authority/cheshire-west-and-chester,Cheshire West and Chester Council,,"""Ottersbank Farm Fishpool Road Delamere Northwich Cheshire CW8 2HP""",356793,367098,http://consult.cheshirewestandchester.gov.uk/portal/cwc_ldf/land/blr?tab=files,0.142,not owned by a public authority,,permissioned,,,,,,,,"13/04028/FUL     13/03068/FUL
16/00218/FUL",2017-12-21,,,,
,,,,,,,,,,,,,,,,,,,http://opendatacommunities.org/id/unitary-authority/cheshire-west-and-chester,Cheshire West and Chester Council,,"""The Gables, Chester Road, Oakmere, Northwich CW8 2HB""",356474,368654,http://consult.cheshirewestandchester.gov.uk/portal/cwc_ldf/land/blr?tab=files,0.3,not owned by a public authority,,permissioned,,,,,,,,15/04214/OUT,2017-12-21,,,,
,,,,,,,,,,,,,,,,,,,http://opendatacommunities.org/id/unitary-authority/cheshire-west-and-chester,Cheshire West and Chester Council,,"""Beeston Cattle Auction site, Whitchurch Road, Beeston, Chester Cheshire""",355286,359687,http://consult.cheshirewestandchester.gov.uk/portal/cwc_ldf/land/blr?tab=files,4.72,not owned by a public authority,,permissioned,,,,,,,,13/04149/OUT,2017-12-21,,,,
,,,,,,,,,,,,,,,,,,,http://opendatacommunities.org/id/unitary-authority/cheshire-west-and-chester,Cheshire West and Chester Council,,"""Blackham Reclamation Yard, Tattenhall Road, Newton by Tattenhall, Chester, CH3 9QQ""",349470,360301,http://consult.cheshirewestandchester.gov.uk/portal/cwc_ldf/land/blr?tab=files,1.259,not owned by a public authority,,permissioned,,,,,,,,"13/02120/OUT
16/03089/REM",2017-12-21,,,,
,,,,,,,,,,,,,,,,,,,http://opendatacommunities.org/id/unitary-authority/cheshire-west-and-chester,Cheshire West and Chester Council,,"""Land at The Oak Room, Tattenhall Road, Newton by Tattenhall, CH3 9BD""",349338,360315,http://consult.cheshirewestandchester.gov.uk/portal/cwc_ldf/land/blr?tab=files,0.785,not owned by a public authority,,permissioned,,,,,,,,12/02283/FUL,2017-12-21,,,,
,,,,,,,,,,,,,,,,,,,http://opendatacommunities.org/id/unitary-authority/cheshire-west-and-chester,Cheshire West and Chester Council,,"""The former Oak Room Public House, Tattenhall Road, Newton By Tattenhall Chester""",349363,360294,http://consult.cheshirewestandchester.gov.uk/portal/cwc_ldf/land/blr?tab=files,0.165,not owned by a public authority,,permissioned,,,,,,,,15/03391/FUL,2017-12-21,,,,
,,,,,,,,,,,,,,,,,,,,,,"""Portico House, High Street, Tattenhall""",348409,358253,http://consult.cheshirewestandchester.gov.uk/portal/cwc_ldf/land/blr?tab=files,0.009,not owned by a public authority,,permissioned,,,,,,,,18/02929/FUL,2019-12-01,2019-12-01,,,
,,,,,,,,,,,,,,,,,,,http://opendatacommunities.org/id/unitary-authority/cheshire-west-and-chester,Cheshire West and Chester Council,,"""Former The Gamekeeper PH,  (Plush Spice) Newhall Road, Upton, Chester, CH2 1TB""",341344,368946,http://consult.cheshirewestandchester.gov.uk/portal/cwc_ldf/land/blr?tab=files,0.128,not owned by a public authority,,permissioned,,,,,,,,"13/03014/OUT
16/05308/REM (pending)",2017-12-21,,,,
,,,,,,,,,,,,,,,,,,,http://opendatacommunities.org/id/unitary-authority/cheshire-west-and-chester,Cheshire West and Chester Council,,"""UPTON DENE (Phase 3): Land off Upton Grange, Liverpool Road, Chester""",339942,368774,http://consult.cheshirewestandchester.gov.uk/portal/cwc_ldf/land/blr?tab=files,3.11,not owned by a public authority,,permissioned,,,,,,,,"14/05171/OUT
17/01543/FUL",2017-12-21,2018-12-30,,,
,,,,,,,,,,,,,,,,,,,http://opendatacommunities.org/id/unitary-authority/cheshire-west-and-chester,Cheshire West and Chester Council,,"""Briar Lane garage court, Weaverham""",362007,373345,http://consult.cheshirewestandchester.gov.uk/portal/cwc_ldf/land/blr?tab=files,0.257,not owned by a public authority,,not permissioned,,,,,,,,,2017-12-21,,,,
,,,,,,,,,,,,,,,,,,,http://opendatacommunities.org/id/unitary-authority/cheshire-west-and-chester,Cheshire West and Chester Council,,"""Mere Brow, Sandy Lane, Weaverham, Northwich, CW8 3PX""",360656,374801,http://consult.cheshirewestandchester.gov.uk/portal/cwc_ldf/land/blr?tab=files,,not owned by a public authority,,permissioned,,,,,,,,"14/02510/OUT, 16/03028/FUL",2018-12-30,2019-12-01,,,
,,,,,,,,,,,,,,,,,,,,,,"""West Road Garage, 2 West Road, Weaverham""",360968,374276,http://consult.cheshirewestandchester.gov.uk/portal/cwc_ldf/land/blr?tab=files,0.072,not owned by a public authority,,permissioned,,,,,,,,17/03481/FUL,2019-12-01,2019-12-01,,,
,,,,,,,,,,,,,,,,,,,http://opendatacommunities.org/id/unitary-authority/cheshire-west-and-chester,Cheshire West and Chester Council,,"""Site of former Royal British Legion, Stanney Lane, Whitby, Ellesmere Port""",340129,375320,http://consult.cheshirewestandchester.gov.uk/portal/cwc_ldf/land/blr?tab=files,1.267,not owned by a public authority,,not permissioned,,,,,,,,,2017-12-21,2018-12-30,,,
,,,,,,,,,,,,,,,,,,,http://opendatacommunities.org/id/unitary-authority/cheshire-west-and-chester,Cheshire West and Chester Council,,"""Mealors Yard, rear of 94 Chester Road, Whitby, Ellesmere Port, CH65 6RY""",339387,375141,http://consult.cheshirewestandchester.gov.uk/portal/cwc_ldf/land/blr?tab=files,0.222,not owned by a public authority,,permissioned,,,,,,,,16/03781/OUT,2018-12-30,,,,
,,,,,,,,,,,,,,,,,,,http://opendatacommunities.org/id/unitary-authority/cheshire-west-and-chester,Cheshire West and Chester Council,,"""Land east of Winnington Avenue, Winnington""",364061,373300,http://consult.cheshirewestandchester.gov.uk/portal/cwc_ldf/land/blr?tab=files,6.016,not owned by a public authority,,not permissioned,,,,,,,,,2017-12-21,,,,
,,,,,,,,,,,,,,,,,,,http://opendatacommunities.org/id/unitary-authority/cheshire-west-and-chester,Cheshire West and Chester Council,,"""Land at Lock Street, Northwich""",365628,373901,http://consult.cheshirewestandchester.gov.uk/portal/cwc_ldf/land/blr?tab=files,0.211,multiple ownership,,not permissioned,,,,,,,,,2017-12-21,,,,
,,,,,,,,,,,,,,,,,,,http://opendatacommunities.org/id/unitary-authority/cheshire-west-and-chester,Cheshire West and Chester Council,,"""British Waterways site, Navigation Road, Northwich""",365610,373471,http://consult.cheshirewestandchester.gov.uk/portal/cwc_ldf/land/blr?tab=files,1.256,not owned by a public authority,,not permissioned,,,,,,,,,2017-12-21,,,,
,,,,,,,,,,,,,,,,,,,http://opendatacommunities.org/id/unitary-authority/cheshire-west-and-chester,Cheshire West and Chester Council,,"""Land at Weaver Shipyard, Saxons Lane, Northwich""",365230,372480,http://consult.cheshirewestandchester.gov.uk/portal/cwc_ldf/land/blr?tab=files,2.976,not owned by a public authority,,not permissioned,,,,,,,,,2017-12-21,,,,
,,,,,,,,,,,,,,,,,,,http://opendatacommunities.org/id/unitary-authority/cheshire-west-and-chester,Cheshire West and Chester Council,,"""Yoxalls Joinery, Winnington Avenue, Northwich, CW8 4EE""",364224,373929,http://consult.cheshirewestandchester.gov.uk/portal/cwc_ldf/land/blr?tab=files,0.553,not owned by a public authority,,permissioned,,,,,,,,19/01618/OUT pending,,2019-12-01,,,
,,,,,,,,,,,,,,,,,,,http://opendatacommunities.org/id/unitary-authority/cheshire-west-and-chester,Cheshire West and Chester Council,,"""TATA Works site, land at Winnington Works, Northwich""",364835,374722,http://consult.cheshirewestandchester.gov.uk/portal/cwc_ldf/land/blr?tab=files,58.548,multiple ownership,,not permissioned,,,,,,,,,2017-12-21,,,,
,,,,,,,,,,,,,,,,,,,http://opendatacommunities.org/id/unitary-authority/cheshire-west-and-chester,Cheshire West and Chester Council,,"""Land at Winnington Business Park, Winnington Avenue, Northwich""",364201,373494,http://consult.cheshirewestandchester.gov.uk/portal/cwc_ldf/land/blr?tab=files,6.153,multiple ownership,,pending decision,,,,,,,,17/01965/OUT,2017-12-21,2018-12-30,,,
,,,,,,,,,,,,,,,,,,,http://opendatacommunities.org/id/unitary-authority/cheshire-west-and-chester,Cheshire West and Chester Council,,"""Castleleigh Centre, David Street, Northwich""",365316,373172,http://consult.cheshirewestandchester.gov.uk/portal/cwc_ldf/land/blr?tab=files,0.62,owned by a public authority,,not permissioned,,,,,,,,,2017-12-21,,,,
,,,,,,,,,,,,,,,,,,,http://opendatacommunities.org/id/unitary-authority/cheshire-west-and-chester,Cheshire West and Chester Council,,"""Land to the north of Watling Street, Northwich""",365881,373927,http://consult.cheshirewestandchester.gov.uk/portal/cwc_ldf/land/blr?tab=files,2.279,multiple ownership,,not permissioned,,,,,,,,,2017-12-21,,,,
,,,,,,,,,,,,,,,,,,,,,,"""211-215 Manchester Road, Northwich""",367901,374502,http://consult.cheshirewestandchester.gov.uk/portal/cwc_ldf/land/blr?tab=files,0.142,not owned by a public authority,,permissioned,,,,,,,,18/02989/FUL,2019-12-01,2019-12-01,,,
,,,,,,,,,,,,,,,,,,,http://opendatacommunities.org/id/unitary-authority/cheshire-west-and-chester,Cheshire West and Chester Council,,"""Land at Station Road, Northwich""",366635,373990,http://consult.cheshirewestandchester.gov.uk/portal/cwc_ldf/land/blr?tab=files,1.778,not owned by a public authority,,not permissioned,,,,,,,,,2017-12-21,,,,
,,,,,,,,,,,,,,,,,,,http://opendatacommunities.org/id/unitary-authority/cheshire-west-and-chester,Cheshire West and Chester Council,,"""Land south of Chester Road, Northwich""",366853,374091,http://consult.cheshirewestandchester.gov.uk/portal/cwc_ldf/land/blr?tab=files,0.725,not owned by a public authority,,not permissioned,,,,,,,,,2017-12-21,,,,
,,,,,,,,,,,,,,,,,,,http://opendatacommunities.org/id/unitary-authority/cheshire-west-and-chester,Cheshire West and Chester Council,,"""Watling Street (Council offices), Northwich""",365875,373819,http://consult.cheshirewestandchester.gov.uk/portal/cwc_ldf/land/blr?tab=files,0.701,owned by a public authority,,not permissioned,,,,,,,,pending,2017-12-21,,,,
,,,,,,,,,,,,,,,,,,,http://opendatacommunities.org/id/unitary-authority/cheshire-west-and-chester,Cheshire West and Chester Council,,"""Weaver Shopping extension, Chester Way, Northwich""",366070,373949,http://consult.cheshirewestandchester.gov.uk/portal/cwc_ldf/land/blr?tab=files,0.722,multiple ownership,,not permissioned,,,,,,,,,2017-12-21,,,,
,,,,,,,,,,,,,,,,,,,http://opendatacommunities.org/id/unitary-authority/cheshire-west-and-chester,Cheshire West and Chester Council,,"""Land to west of Warrington Street, Northwich""",366359,374170,http://consult.cheshirewestandchester.gov.uk/portal/cwc_ldf/land/blr?tab=files,3.167,not owned by a public authority,,not permissioned,,,,,,,,,2017-12-21,,,,
,,,,,,,,,,,,,,,,,,,http://opendatacommunities.org/id/unitary-authority/cheshire-west-and-chester,Cheshire West and Chester Council,,"""Land at Leicester Street,  Northwich""",366547,374177,http://consult.cheshirewestandchester.gov.uk/portal/cwc_ldf/land/blr?tab=files,1.812,multiple ownership,,not permissioned,,,,,,,,,2017-12-21,,,,
,,,,,,,,,,,,,,,,,,,http://opendatacommunities.org/id/unitary-authority/cheshire-west-and-chester,Cheshire West and Chester Council,,"""Land west of Queen Street, Northwich""",365744,373511,http://consult.cheshirewestandchester.gov.uk/portal/cwc_ldf/land/blr?tab=files,1.122,not owned by a public authority,,not permissioned,,,,,,,,,2017-12-21,,,,
,,,,,,,,,,,,,,,,,,,http://opendatacommunities.org/id/unitary-authority/cheshire-west-and-chester,Cheshire West and Chester Council,,"""Land at Chester Way, Victoria Bridge, Northwich""",365914,373739,http://consult.cheshirewestandchester.gov.uk/portal/cwc_ldf/land/blr?tab=files,0.287,not owned by a public authority,,permissioned,,,,,,,,08-1854-FUM 10/00991/ful,2017-12-21,,,,
,,,,,,,,,,,,,,,,,,,http://opendatacommunities.org/id/unitary-authority/cheshire-west-and-chester,Cheshire West and Chester Council,,"""Dane House Chester Way Northwich Cheshire CW9 5JG  """,365921,373704,http://consult.cheshirewestandchester.gov.uk/portal/cwc_ldf/land/blr?tab=files,0.11,not owned by a public authority,,permissioned,,,,,,,,16/05245/PDO,2017-12-21,2019-12-01,,,
,,,,,,,,,,,,,,,,,,,http://opendatacommunities.org/id/unitary-authority/cheshire-west-and-chester,Cheshire West and Chester Council,,"""School Road North (former coal yard), Rudheath""",368286,372754,http://consult.cheshirewestandchester.gov.uk/portal/cwc_ldf/land/blr?tab=files,0.192,not owned by a public authority,,not permissioned,,,,,,,,,2017-12-21,,,,
,,,,,,,,,,,,,,,,,,,http://opendatacommunities.org/id/unitary-authority/cheshire-west-and-chester,Cheshire West and Chester Council,,"""Land to the rear of Farmers Arms PH, Middlewich Road, Northwich (Phase II)""",367665,373541,http://consult.cheshirewestandchester.gov.uk/portal/cwc_ldf/land/blr?tab=files,2.471,not owned by a public authority,,not permissioned,,,,,,,,,2017-12-21,,,,
,,,,,,,,,,,,,,,,,,,http://opendatacommunities.org/id/unitary-authority/cheshire-west-and-chester,Cheshire West and Chester Council,,"""Bridge View, King Street, Rudheath, Northwich, CW9 7RW""",368379,373067,http://consult.cheshirewestandchester.gov.uk/portal/cwc_ldf/land/blr?tab=files,,not owned by a public authority,,permissioned,,,,,,,,17/00472/S73,2018-12-30,2019-12-01,,,
,,,,,,,,,,,,,,,,,,,http://opendatacommunities.org/id/unitary-authority/cheshire-west-and-chester,Cheshire West and Chester Council,,"""Cane House, Waterworks Lane, Hooton, Ellesmere Port""",335020,378270,http://consult.cheshirewestandchester.gov.uk/portal/cwc_ldf/land/blr?tab=files,0.295,not owned by a public authority,,permissioned,,,,,,,,14/02291/OUT,2017-12-21,,,,
,,,,,,,,,,,,,,,,,,,http://opendatacommunities.org/id/unitary-authority/cheshire-west-and-chester,Cheshire West and Chester Council,,"""Land at Hooton Road, Willaston, Neston, CH64 1SJ""",333132,377773,http://consult.cheshirewestandchester.gov.uk/portal/cwc_ldf/land/blr?tab=files,0.253,not owned by a public authority,,not permissioned,,,,,,,,,2017-12-21,,,,
,,,,,,,,,,,,,,,,,,,http://opendatacommunities.org/id/unitary-authority/cheshire-west-and-chester,Cheshire West and Chester Council,,"""Roften Works site, Hooton Road, Hooton, Ellesmere Port""",334818,377953,http://consult.cheshirewestandchester.gov.uk/portal/cwc_ldf/land/blr?tab=files,17.6,not owned by a public authority,,permissioned,,,,,,,,,2018-12-30,2019-12-01,,,
,,,,,,,,,,,,,,,,,,,http://opendatacommunities.org/id/unitary-authority/cheshire-west-and-chester,Cheshire West and Chester Council,,"""Securicor Ltd, Wharton Road, Winsford CW7 3AP""",366165,367136,http://consult.cheshirewestandchester.gov.uk/portal/cwc_ldf/land/blr?tab=files,0.342,not owned by a public authority,,permissioned,,,,,,,,"09/02249/OUT
15/05130/OUT",2017-12-21,,,,
,,,,,,,,,,,,,,,,,,,http://opendatacommunities.org/id/unitary-authority/cheshire-west-and-chester,Cheshire West and Chester Council,,"""476 Rookery Rise, Station Road, Winsford""",366827,366008,http://consult.cheshirewestandchester.gov.uk/portal/cwc_ldf/land/blr?tab=files,0.495,not owned by a public authority,,not permissioned,,,,,,,,,2017-12-21,,,,
,,,,,,,,,,,,,,,,,,,http://opendatacommunities.org/id/unitary-authority/cheshire-west-and-chester,Cheshire West and Chester Council,,"""S Cooper and Sons Ltd, Warehouse One, Nat Lane, Winsford, CW7 3BS""",365981,366999,http://consult.cheshirewestandchester.gov.uk/portal/cwc_ldf/land/blr?tab=files,4.936,not owned by a public authority,,permissioned,,,,,,,,12/04804/OUT,2017-12-21,,,,
,,,,,,,,,,,,,,,,,,,http://opendatacommunities.org/id/unitary-authority/cheshire-west-and-chester,Cheshire West and Chester Council,,"""Wharton Road (Reposessions UK Ltd), Winsford. CW7 3BQ""",365974,366814,http://consult.cheshirewestandchester.gov.uk/portal/cwc_ldf/land/blr?tab=files,4.399,not owned by a public authority,,permissioned,,,,,,,,11/00558/OUT,2017-12-21,,,,
,,,,,,,,,,,,,,,,,,,http://opendatacommunities.org/id/unitary-authority/cheshire-west-and-chester,Cheshire West and Chester Council,,"""Land at Wharton Green, Deakins Road / Bostock Road, Winsford""",366261,367866,http://consult.cheshirewestandchester.gov.uk/portal/cwc_ldf/land/blr?tab=files,1.202,not owned by a public authority,,not permissioned,,,,,,,,,2017-12-21,,,,
,,,,,,,,,,,,,,,,,,,http://opendatacommunities.org/id/unitary-authority/cheshire-west-and-chester,Cheshire West and Chester Council,,"""Former coal yard site, Station Road, Winsford""",366978,366130,http://consult.cheshirewestandchester.gov.uk/portal/cwc_ldf/land/blr?tab=files,0.227,not owned by a public authority,,not permissioned,,,,,,,,,2017-12-21,,,,
,,,,,,,,,,,,,,,,,,,http://opendatacommunities.org/id/unitary-authority/cheshire-west-and-chester,Cheshire West and Chester Council,,"""Meadow Island, Bradford Road, Winsford""",365195,366931,http://consult.cheshirewestandchester.gov.uk/portal/cwc_ldf/land/blr?tab=files,2.436,not owned by a public authority,,not permissioned,,,,,,,,,2017-12-21,,,,
,,,,,,,,,,,,,,,,,,,http://opendatacommunities.org/id/unitary-authority/cheshire-west-and-chester,Cheshire West and Chester Council,,"""North of Middlewich Road, Winsford""",367748,366052,http://consult.cheshirewestandchester.gov.uk/portal/cwc_ldf/land/blr?tab=files,0.693,not owned by a public authority,,permissioned,,,,,,,,17/03135/OUT,2018-12-30,2019-12-01,,,
,,,,,,,,,,,,,,,,,,,http://opendatacommunities.org/id/unitary-authority/cheshire-west-and-chester,Cheshire West and Chester Council,,"""Handley Hill School, Beeston Drive, Winsford""",364032,365601,http://consult.cheshirewestandchester.gov.uk/portal/cwc_ldf/land/blr?tab=files,1.086,owned by a public authority,,not permissioned,,,,,,,,,2017-12-21,,,,
,,,,,,,,,,,,,,,,,,,http://opendatacommunities.org/id/unitary-authority/cheshire-west-and-chester,Cheshire West and Chester Council,,"""Land and buildings off Sadler Road, Winsford""",364910,366334,http://consult.cheshirewestandchester.gov.uk/portal/cwc_ldf/land/blr?tab=files,0.572,not owned by a public authority,,not permissioned,,,,,,,,,2017-12-21,,,,
,,,,,,,,,,,,,,,,,,,http://opendatacommunities.org/id/unitary-authority/cheshire-west-and-chester,Cheshire West and Chester Council,,"""Land north of former Richmond Packaging, New Road, Winsford""",365287,366592,http://consult.cheshirewestandchester.gov.uk/portal/cwc_ldf/land/blr?tab=files,0.81,not owned by a public authority,,not permissioned,,,,,,,,,2017-12-21,,,,
,,,,,,,,,,,,,,,,,,,http://opendatacommunities.org/id/unitary-authority/cheshire-west-and-chester,Cheshire West and Chester Council,,"""Car park off Church Street, Winsford""",365380,366389,http://consult.cheshirewestandchester.gov.uk/portal/cwc_ldf/land/blr?tab=files,0.432,owned by a public authority,,not permissioned,,,,,,,,,2017-12-21,,,,
,,,,,,,,,,,,,,,,,,,http://opendatacommunities.org/id/unitary-authority/cheshire-west-and-chester,Cheshire West and Chester Council,,"""Land at Manchester House Carpets, 56 High Street, Winsford""",365293,366331,http://consult.cheshirewestandchester.gov.uk/portal/cwc_ldf/land/blr?tab=files,0.129,not owned by a public authority,,not permissioned,,,,,,,,,2017-12-21,,,,
,,,,,,,,,,,,,,,,,,,http://opendatacommunities.org/id/unitary-authority/cheshire-west-and-chester,Cheshire West and Chester Council,,"""Greedy Pig site, New Road, Winsford""",365473,366426,http://consult.cheshirewestandchester.gov.uk/portal/cwc_ldf/land/blr?tab=files,,not owned by a public authority,,not permissioned,,,,,,,,,2018-12-30,2019-12-01,,,
,,,,,,,,,,,,,,,,,,,http://opendatacommunities.org/id/unitary-authority/cheshire-west-and-chester,Cheshire West and Chester Council,,"""Pimletts and adjacent car park, Church Street / High Street, Winsford""",365322,366346,http://consult.cheshirewestandchester.gov.uk/portal/cwc_ldf/land/blr?tab=files,0.185,not owned by a public authority,,not permissioned,,,,,,,,,2017-12-21,,,,
,,,,,,,,,,,,,,,,,,,http://opendatacommunities.org/id/unitary-authority/cheshire-west-and-chester,Cheshire West and Chester Council,,"""Sadler Road (Former Winsford Clio Centre), Winsford""",364835,366358,http://consult.cheshirewestandchester.gov.uk/portal/cwc_ldf/land/blr?tab=files,0.124,not owned by a public authority,,not permissioned,,,,,,,,09/00635/OUM  12/03149/EXT,2017-12-21,,,,
,,,,,,,,,,,,,,,,,,,http://opendatacommunities.org/id/unitary-authority/cheshire-west-and-chester,Cheshire West and Chester Council,,"""Meadow Home Park Mill Lane Whitegate Winsford Cheshire """,364958,368821,http://consult.cheshirewestandchester.gov.uk/portal/cwc_ldf/land/blr?tab=files,0.47,not owned by a public authority,,permissioned,,,,,,,,15/04548/FUL,2017-12-21,2019-12-01,,,
,,,,,,,,,,,,,,,,,,,http://opendatacommunities.org/id/unitary-authority/cheshire-west-and-chester,Cheshire West and Chester Council,,"""Land at Grange Yard, Grange Lane, Winsford, CW7 2BP""",364505,366343,http://consult.cheshirewestandchester.gov.uk/portal/cwc_ldf/land/blr?tab=files,0.488,not owned by a public authority,,pending decision,,,,,,,,17/00619/OUT (pending),2018-12-30,,,,
,,,,,,,,,,,,,,,,,,,,,,"""148 High Street, Winsford""",365041,366308,http://consult.cheshirewestandchester.gov.uk/portal/cwc_ldf/land/blr?tab=files,0.012,not owned by a public authority,,permissioned,,,,,,,,18/01601/FUL,2019-12-01,2019-12-01,,,
,,,,,,,,,,,,,,,,,,,http://opendatacommunities.org/id/unitary-authority/cheshire-west-and-chester,Cheshire West and Chester Council,,"""Winsford Shopping Centre, Dene's Drive, Winsford""",364776,366202,http://consult.cheshirewestandchester.gov.uk/portal/cwc_ldf/land/blr?tab=files,3.152,not owned by a public authority,,not permissioned,,,,,,,,,2017-12-21,,,,
,,,,,,,,,,,,,,,,,,,http://opendatacommunities.org/id/unitary-authority/cheshire-west-and-chester,Cheshire West and Chester Council,,"""Car park off Dene Street, Winsford""",364588,366208,http://consult.cheshirewestandchester.gov.uk/portal/cwc_ldf/land/blr?tab=files,0.789,owned by a public authority,,not permissioned,,,,,,,,,2017-12-21,,,,
,,,,,,,,,,,,,,,,,,,http://opendatacommunities.org/id/unitary-authority/cheshire-west-and-chester,Cheshire West and Chester Council,,"""Site of former Civic Hall, High Street, Winsford""",364656,366278,http://consult.cheshirewestandchester.gov.uk/portal/cwc_ldf/land/blr?tab=files,0.252,owned by a public authority,,not permissioned,,,,,,,,,2017-12-21,,,,
,,,,,,,,,,,,,,,,,,,http://opendatacommunities.org/id/unitary-authority/cheshire-west-and-chester,Cheshire West and Chester Council,,"""Winsford Library and Dingle Recreation Centre, High Street, Winsford""",364789,366286,http://consult.cheshirewestandchester.gov.uk/portal/cwc_ldf/land/blr?tab=files,0.263,owned by a public authority,,not permissioned,,,,,,,,,2017-12-21,,,,
,,,,,,,,,,,,,,,,,,,http://opendatacommunities.org/id/unitary-authority/cheshire-west-and-chester,Cheshire West and Chester Council,,"""Land at High Street / Dingle Lane, Winsford""",364907,366238,http://consult.cheshirewestandchester.gov.uk/portal/cwc_ldf/land/blr?tab=files,0.266,not owned by a public authority,,not permissioned,,,,,,,,,2017-12-21,,,,
,,,,,,,,,,,,,,,,,,,http://opendatacommunities.org/id/unitary-authority/cheshire-west-and-chester,Cheshire West and Chester Council,,"""Land to rear of Weaver Street, off Winnington Street, Winsford""",365324,366154,http://consult.cheshirewestandchester.gov.uk/portal/cwc_ldf/land/blr?tab=files,0.363,not owned by a public authority,,not permissioned,,,,,,,,,2017-12-21,,,,
,,,,,,,,,,,,,,,,,,,http://opendatacommunities.org/id/unitary-authority/cheshire-west-and-chester,Cheshire West and Chester Council,,"""The Hollies, Darnhall School Lane, Winsford CW7 1LH""",364328,364507,http://consult.cheshirewestandchester.gov.uk/portal/cwc_ldf/land/blr?tab=files,0.167,not owned by a public authority,,permissioned,,,,,,,,08-0824-FUM,2017-12-21,,,,
,,,,,,,,,,,,,,,,,,,http://opendatacommunities.org/id/unitary-authority/cheshire-west-and-chester,Cheshire West and Chester Council,,"""Former Drill Hall, Dingle Lane, Winsford CW7 1AB""",365002,366028,http://consult.cheshirewestandchester.gov.uk/portal/cwc_ldf/land/blr?tab=files,0.226,not owned by a public authority,,permissioned,,,,,,,,15/03878/FUL,2017-12-21,,,,
