address,address-text,deliverable,end-date,entry-date,hazardous-substances,hectares,latitude,longitude,maximum-net-dwellings,minimum-net-dwellings,notes,organisation,ownership-status,planning-permission-date,planning-permission-history,planning-permission-status,planning-permission-type,site,OrganisationURI,OrganisationLabel,SiteReference,SiteNameAddress,GeoX,GeoY,SiteplanURL,Hectares,OwnershipStatus,HazardousSubstances,PlanningStatus,PermissionType,PermissionDate,PlanningHistory,MinNetDwellings,NetDwellingsRangeFrom,NetDwellingsRangeTo,Deliverable,Notes,FirstAddedDate,LastUpdatedDate,EndDate,site-plan-url,start-date
,,,,,,,,,,,,,,,,,,,http://opendatacommunities.org/id/district-council/tendring,Tendring District Council,15/00578/FUL,"Sandles Inn, 26 Rosemary Road, Clacton On Sea, Essex CO15 1NZ",617687.21,214835.84,https://idox.tendringdc.gov.uk/online-applications/applicationDetails.do?activeTab=map&keyVal=NN3PR3QB0GD00,0.16,Not owned by a public authority,,pending decision,,,,23,,,,,2018-01-15,2018-01-15,,,
,,,,,,,,,,,,,,,,,,,http://opendatacommunities.org/id/district-council/tendring,Tendring District Council,15/00615/FUL,"20 - 20B Market Street, Harwich CO12 3DX",626028.76,232681.79,https://idox.tendringdc.gov.uk/online-applications/applicationDetails.do?activeTab=map&keyVal=NN9NLWQB0GS00,0.02,Not owned by a public authority,,Permissioned,,,,3,,,,,2018-01-15,2018-01-15,,,
,,,,,,,,,,,,,,,,,,,http://opendatacommunities.org/id/district-council/tendring,Tendring District Council,17/01038/FUL,"27-31 High Street, Walton On The Naze, Essex CO14 8BN",625264.25,221730.33,https://idox.tendringdc.gov.uk/online-applications/applicationDetails.do?activeTab=map&keyVal=ORY6F4QB0EL00,0.07,Not owned by a public authority,,Permissioned,,,,8,,,,,2018-01-15,2018-01-15,,,
,,,,,,,,,,,,,,,,,,,http://opendatacommunities.org/id/district-council/tendring,Tendring District Council,17/01048/FUL,"274 Harwich Road, Little Clacton, Clacton On Sea, Essex CO16 9PY",617540.76,220588.87,https://idox.tendringdc.gov.uk/online-applications/applicationDetails.do?activeTab=map&keyVal=OS5W9RQB0KO00,0.46,Not owned by a public authority,,Permissioned,,,,7,,,,,2018-01-15,2018-01-15,,,
,,,,,,,,,,,,,,,,,,,http://opendatacommunities.org/id/district-council/tendring,Tendring District Council,16/01358/FUL,"7 Sea Pink Way, Jaywick, Essex CO15 2HQ",615111.03,212949.37,https://idox.tendringdc.gov.uk/online-applications/applicationDetails.do?activeTab=map&keyVal=OCS432QB0GS00,0.02,Not owned by a public authority,,Permissioned,,,,7,,,,,2018-01-15,2018-01-15,,,
,,,,,,,,,,,,,,,,,,,http://opendatacommunities.org/id/district-council/tendring,Tendring District Council,11/01124/FUL,723 Main Road Harwich Essex,623133.69,230733.14,https://idox.tendringdc.gov.uk/online-applications/applicationDetails.do?activeTab=map&keyVal=LRYT6ZQB07Y00,0.1,Not owned by a public authority,,Not Permissioned,,,,9,,,,Permission granted - expired 17.01.2015. Demolition completed.,2018-01-15,2018-01-15,,,
,,,,,,,,,,,,,,,,,,,http://opendatacommunities.org/id/district-council/tendring,Tendring District Council,15/01575/FUL,"Land Site of Former Ramsey Primary School, Wix Road, Ramsey, Essex",620731.94,230293.33,https://idox.tendringdc.gov.uk/online-applications/applicationDetails.do?activeTab=map&keyVal=NW7EX1QB0GS00,0.62,Not owned by a public authority,,Permissioned,,,,8,,,,,2018-01-15,2018-01-15,,,
,,,,,,,,,,,,,,,,,,,http://opendatacommunities.org/id/district-council/tendring,Tendring District Council,17/01479/FUL,"2 High Street, Manningtree, Essex CO11 1AD",610573.05,231840.07,https://idox.tendringdc.gov.uk/online-applications/applicationDetails.do?activeTab=map&keyVal=OVUUROQB0LD00,0.04,Not owned by a public authority,,Permissioned,,,,7,,,,,2018-01-15,2018-01-15,,,
,,,,,,,,,,,,,,,,,,,http://opendatacommunities.org/id/district-council/tendring,Tendring District Council,14/00693/FUL,"70-84A Connaught Avenue, Frinton",623705.71,219911.08,https://idox.tendringdc.gov.uk/online-applications/applicationDetails.do?activeTab=map&keyVal=N6A5IUQB0G400,0.1,Not owned by a public authority,,Permissioned,,,,8,,,,,2018-01-15,2018-01-15,,,
,,,,,,,,,,,,,,,,,,,http://opendatacommunities.org/id/district-council/tendring,Tendring District Council,15/01791/FUL,"79 Stour Road, Harwich",625761.82,232035.35,https://idox.tendringdc.gov.uk/online-applications/applicationDetails.do?activeTab=map&keyVal=NYF3JHQB01U00,0.05,Not owned by a public authority,,Permissioned,,,,8,,,,,2018-01-15,2018-01-15,,,
,,,,,,,,,,,,,,,,,,,http://opendatacommunities.org/id/district-council/tendring,Tendring District Council,16/01397/DETAIL,"Forbourn Motors, High Street, Thorpe-le-Soken",617784.64,222498.4,https://idox.tendringdc.gov.uk/online-applications/applicationDetails.do?activeTab=map&keyVal=OD2VICQB0K100,0.22,Not owned by a public authority,,Permissioned,,,,8,,,,,2018-01-15,2018-01-15,,,
,,,,,,,,,,,,,,,,,,,http://opendatacommunities.org/id/district-council/tendring,Tendring District Council,15/01634/FUL,"The Abbey, High Street, Mistley",611732.46,231805.15,https://idox.tendringdc.gov.uk/online-applications/applicationDetails.do?activeTab=map&keyVal=NWVIXSQB0JH00,0.21,Not owned by a public authority,,Permissioned,,,,2,,,,,2018-01-15,2018-01-15,,,
,,,,,,,,,,,,,,,,,,,http://opendatacommunities.org/id/district-council/tendring,Tendring District Council,16/00562/FUL,"The Carlton, Rosemary Road, Clacton On Sea, Essex",617522.15,214804.74,https://idox.tendringdc.gov.uk/online-applications/applicationDetails.do?activeTab=map&keyVal=O5MF8LQB0EL00,0.07,Not owned by a public authority,,Permissioned,,,,7,,,,,2018-01-15,2018-01-15,,,
,,,,,,,,,,,,,,,,,,,http://opendatacommunities.org/id/district-council/tendring,Tendring District Council,14/01552/OUT,"Former Red Cross Centre, Manor Lane, Dovercourt, CO12 4EB",624621.79,231009.14,https://idox.tendringdc.gov.uk/online-applications/applicationDetails.do?activeTab=map&keyVal=NDQOJMQB0G400,0.25,Not owned by a public authority,,Permissioned,,,,6,,,,,2018-01-15,2018-01-15,,,
,,,,,,,,,,,,,,,,,,,http://opendatacommunities.org/id/district-council/tendring,Tendring District Council,14/01560/FUL,"Hamilton Lodge, Parsons Hill, Great Bromley",608831.98,225580.86,https://idox.tendringdc.gov.uk/online-applications/applicationDetails.do?activeTab=map&keyVal=NDSELDQB0G400,0.48,Not owned by a public authority,,Not Permissioned,,,,8,,,,,2018-01-15,2018-01-15,,,
,,,,,,,,,,,,,,,,,,,http://opendatacommunities.org/id/district-council/tendring,Tendring District Council,17/00456/FUL,"Sturricks Farm, Sturrick Lane, Great Bentley, Colchester, Essex",610684.25,222239.56,https://idox.tendringdc.gov.uk/online-applications/applicationDetails.do?activeTab=map&keyVal=ON43S4QB0KO00,0.59,Not owned by a public authority,,Permissioned,,,,8,,,,,2018-01-15,2018-01-15,,,
,,,,,,,,,,,,,,,,,,,http://opendatacommunities.org/id/district-council/tendring,Tendring District Council,16/00920/FUL,"32-37 Brooklands, Jaywick, Essex CO15 2JS",614191.76,212774.2,https://idox.tendringdc.gov.uk/online-applications/applicationDetails.do?activeTab=map&keyVal=O8T18DQB0JH00,0.05,Not owned by a public authority,,Permissioned,,,,9,,,,,2017-12-29,2017-12-29,,,
,,,,,,,,,,,,,,,,,,,http://opendatacommunities.org/id/district-council/tendring,Tendring District Council,15/00013/COUNOT,"Valley Barns, Golden Lane, Thorpe le Soken",617868.35,223451.49,https://idox.tendringdc.gov.uk/online-applications/applicationDetails.do?activeTab=map&keyVal=NHUSIXQB0GS00,0.21,Not owned by a public authority,,Permissioned,,,,6,,,,,2018-01-15,2018-01-15,,,
,,,,,,,,,,,,,,,,,,,http://opendatacommunities.org/id/district-council/tendring,Tendring District Council,17/01721/FUL,"58/58A Station Road, Alresford, Colchester, Essex",606506.99,221533.73,https://idox.tendringdc.gov.uk/online-applications/applicationDetails.do?activeTab=map&keyVal=OXK8LHQB0LD00,0.09,Not owned by a public authority,,Permissioned,,,,4,,,,,2018-01-15,2018-01-15,,,
,,,,,,,,,,,,,,,,,,,http://opendatacommunities.org/id/district-council/tendring,Tendring District Council,14/01375/FUL,"3 Marine Parade East, Clacton-on-Sea, Essex CO15 1PT",617688.49,214628.94,https://idox.tendringdc.gov.uk/online-applications/applicationDetails.do?activeTab=map&keyVal=NCANP0QB0G400,0.09,Not owned by a public authority,,Not Permissioned,,,,14,,,,Planning Permission expired,2017-12-29,2017-12-29,,,
,,,,,,,,,,,,,,,,,,,http://opendatacommunities.org/id/district-council/tendring,Tendring District Council,16/00921/FUL,"23 - 27 Brooklands, Jaywick, Essex",614119.5,212765.46,https://idox.tendringdc.gov.uk/online-applications/applicationDetails.do?activeTab=map&keyVal=O8T23GQB0JH00,0.06,Not owned by a public authority,,Permissioned,,,,11,,,,,2017-12-29,2017-12-29,,,
,,,,,,,,,,,,,,,,,,,http://opendatacommunities.org/id/district-council/tendring,Tendring District Council,16/01916/FUL,"Coppins Court, Coppins Road, Clacton On Sea, Essex",617073.49,215669.53,https://idox.tendringdc.gov.uk/online-applications/applicationDetails.do?activeTab=map&keyVal=OH3LP6QB0KO00,0.88,Owned by a public authority,,Permissioned,,,,60,,,,,2017-12-29,2017-12-29,,,
,,,,,,,,,,,,,,,,,,,http://opendatacommunities.org/id/district-council/tendring,Tendring District Council,17/01708/FUL,"Former Car Park off Ravensdale, Clacton On Sea, Essex",617723.8,216563.8,https://idox.tendringdc.gov.uk/online-applications/applicationDetails.do?activeTab=map&keyVal=OXENTEQB0KO00,0.27,Not owned by a public authority,,Permissioned,,,,9,,,,,2017-12-29,2017-12-29,,,
,,,,,,,,,,,,,,,,,,,http://opendatacommunities.org/id/district-council/tendring,Tendring District Council,16/00729/FUL,"Former Delfords Factory Site, 606 Main Road, Harwich, Essex",623699.55,231110.94,https://idox.tendringdc.gov.uk/online-applications/applicationDetails.do?activeTab=map&keyVal=O70Q8UQB0GS00,1.72,Not owned by a public authority,,Permissioned,,,,66,,,,,2017-12-29,2017-12-29,,,
,,,,,,,,,,,,,,,,,,,http://opendatacommunities.org/id/district-council/tendring,Tendring District Council,17/00571/FUL,"Former Martello Caravan Park, Kirby Road, Walton On The Naze, Essex",625091.86,221953.08,https://idox.tendringdc.gov.uk/online-applications/applicationDetails.do?activeTab=map&keyVal=ONZIAPQB01U00,0.21,Not owned by a public authority,,Permissioned,,,,16,,,,,2017-12-29,2017-12-29,,,
,,,,,,,,,,,,,,,,,,,http://opendatacommunities.org/id/district-council/tendring,Tendring District Council,06/00255/FUL,"Royal Hotel, Marine Parade East. Clacton-on-Sea CO15 1PT",617635.69,214625.03,https://idox.tendringdc.gov.uk/online-applications/applicationDetails.do?activeTab=map&keyVal=IUQ9HCQBV1000,0.36,Not owned by a public authority,,Permissioned,,,,47,,,,,2017-12-29,2017-12-29,,,
,,,,,,,,,,,,,,,,,,,http://opendatacommunities.org/id/district-council/tendring,Tendring District Council,13/01385/FUL,"Land at Thorpe Maltings & Former King Edward VII Public House, Station Road, Thorpe le soken",617835.66,221353.44,https://idox.tendringdc.gov.uk/online-applications/applicationDetails.do?activeTab=map&keyVal=MXA5NGQB09L00,1.9,Not owned by a public authority,,Not Permissioned,,,,54,,,,Planning Permission expired,2017-12-29,2017-12-29,,,
,,,,,,,,,,,,,,,,,,,http://opendatacommunities.org/id/district-council/tendring,Tendring District Council,17/01080/FUL,"The Ernest Luff Home, 2 Luff Way, Walton On The Naze, Essex CO14 8SW",623962.04,221283.63,https://idox.tendringdc.gov.uk/online-applications/applicationDetails.do?activeTab=map&keyVal=OSCUT2QB0KO00,0.27,Not owned by a public authority,,Permissioned,,,,12,,,,,2017-12-29,2017-12-29,,,
,,,,,,,,,,,,,,,,,,,http://opendatacommunities.org/id/district-council/tendring,Tendring District Council,12/00427/FUL,"Thorn Quay Warehouse, High Street, Mistley, Manningtree, Essex CO11 1HB",611790.38,231822.55,https://idox.tendringdc.gov.uk/online-applications/applicationDetails.do?activeTab=map&keyVal=M2MBDRQB07Y00,0.25,Not owned by a public authority,,Permissioned,,,,45,,,,,2017-12-29,2017-12-29,,,
,,,,,,,,,,,,,,,,,,,http://opendatacommunities.org/id/district-council/tendring,Tendring District Council,17/00435/FUL,"Sea Breeze, 32 and 34 Carnarvon Road, Clacton On Sea, Essex CO15 6QE",617686.45,215107.31,https://idox.tendringdc.gov.uk/online-applications/applicationDetails.do?activeTab=map&keyVal=OMUOE8QB0EL00,0.09,Not owned by a public authority,,Permissioned,,,,9,,,,,2017-12-29,2017-12-29,,,
,,,,,,,,,,,,,,,,,,,http://opendatacommunities.org/id/district-council/tendring,Tendring District Council,13/01213/FUL,"The Barley Kiln, Malt Store and Malt Kiln, The Quayside Maltings,High Street, Mistley",611911.35,231785.03,https://idox.tendringdc.gov.uk/online-applications/applicationDetails.do?activeTab=map&keyVal=MVDJVDQB09L00,0.19,Not owned by a public authority,,Permissioned,,,,6,,,,,2018-01-15,2018-01-15,,,
,,,,,,,,,,,,,,,,,,,http://opendatacommunities.org/id/district-council/tendring,Tendring District Council,14/00593/FUL,"Rumours Nightclub, 50 Rosemary Road, Clacton On Sea, Essex CO15 1PB",617617.86,214836.19,https://idox.tendringdc.gov.uk/online-applications/applicationDetails.do?activeTab=map&keyVal=N55H65QB09L00,0.09,Not owned by a public authority,,Permissioned,,,,16,,,,,2017-12-29,2017-12-29,,,
,,,,,,,,,,,,,,,,,,,http://opendatacommunities.org/id/district-council/tendring,Tendring District Council,16/00538/FUL,"88 - 90 Pole Barn Lane, Frinton On Sea, Essex CO13 9NG",624003.26,220437.83,https://idox.tendringdc.gov.uk/online-applications/applicationDetails.do?activeTab=map&keyVal=O5IY1RQB01U00,0.12,Not owned by a public authority,,Permissioned,,,,9,,,,,2017-12-29,2017-12-29,,,
,,,,,,,,,,,,,,,,,,,http://opendatacommunities.org/id/district-council/tendring,Tendring District Council,17/00370/OUT,"Sato UK Limited, Valley Road, Dovercourt, Harwich, Essex CO12 4RR",622643.89,230718.64,https://idox.tendringdc.gov.uk/online-applications/applicationDetails.do?activeTab=map&keyVal=NVUWN9QB0GS00,2.48,Not owned by a public authority,,Permissioned,,,,38,,,,,2017-12-29,2017-12-29,,,
,,,,,,,,,,,,,,,,,,,http://opendatacommunities.org/id/district-council/tendring,Tendring District Council,MSA1,"Land at Weeley Council Offices, Thorpe Road, Weeley CO16 9AJ",614893.75,222423.11,https://www.tendringdc.gov.uk/sites/default/files/documents/planning/planning%20policy/brownfield/SAMU1%20EDME%20Maltings%20Mistley.pdf,0.81,owned by a public authority,,Not permissioned,,,,24,,,,,2017-12-29,2017-12-29,,,
,,,,,,,,,,,,,,,,,,,http://opendatacommunities.org/id/district-council/tendring,Tendring District Council,MSA3,"Orchard Works, r/o London Road, Clacton-on-Sea, Essex CO15 3SY",617228.66,216282.58,https://idox.tendringdc.gov.uk/online-applications/applicationDetails.do?activeTab=map&keyVal=OUD50BQB0EL00,0.38,Not owned by a public authority,,Not permissioned,,,,20,,,,,2017-12-29,2017-12-29,,,
,,,,,,,,,,,,,,,,,,,http://opendatacommunities.org/id/district-council/tendring,Tendring District Council,MSA6,"Land Off Waterworks Drive, Clacton-on-Sea, Essex CO16 8AW",615772.33,216205.45,https://www.tendringdc.gov.uk/sites/default/files/documents/planning/planning%20policy/brownfield/MSA6%20Land%20off%20Waterworks%20Drive.pdf,2.3,Not owned by a public authority,,Not permissioned,,,,90,,,,,2017-12-29,2017-12-29,,,
,,,,,,,,,,,,,,,,,,,http://opendatacommunities.org/id/district-council/tendring,Tendring District Council,MSA9,"Former Town Hall Site, Public Conveniences and Depot, Mill Lane, Walton-on-Naze",625327.49,221797.3,https://www.tendringdc.gov.uk/sites/default/files/documents/planning/planning%20policy/brownfield/MSA9%20Former%20Town%20Hall%20Site%2C%20Mill%20Lane.pdf,0.06,Not owned by a public authority,,Not permissioned,,,,15,,,,,2017-12-29,2017-12-29,,,
,,,,,,,,,,,,,,,,,,,http://opendatacommunities.org/id/district-council/tendring,Tendring District Council,MSA10,"Southcliffe Trailer Park, Woodberry Way, Walton-on-the-Naze, Essex CO14 8PE",625033.04,221135.52,https://www.tendringdc.gov.uk/sites/default/files/documents/planning/planning%20policy/brownfield/MSA10%20Southcliff%20Trailer%20Park.pdf,0.8,Not owned by a public authority,,Not permissioned,,,,15,,,,,2017-12-29,2017-12-29,,,
,,,,,,,,,,,,,,,,,,,http://opendatacommunities.org/id/district-council/tendring,Tendring District Council,MSA5,"Land Adjacent to Railway Station and Sadd's Yard and St John's Yard, Skelmersdale Road, Clacton-on-Sea, Essex CO15 6BP",617712.24,215357.89,https://www.tendringdc.gov.uk/sites/default/files/documents/planning/planning%20policy/brownfield/MSA5%20Land%20Adjacent%20to%20RailwayStation%20and%20Sadds%20Yard.pdf,1.58,Not owned by a public authority,,Not permissioned,,,,60,,,,,2017-12-29,2017-12-29,,,
,,,,,,,,,,,,,,,,,,,http://opendatacommunities.org/id/district-council/tendring,Tendring District Council,MSA2,"Land off Cotswold Road, Clacton-on-Sea, Essex",617751.53,216078.94,https://www.tendringdc.gov.uk/sites/default/files/documents/planning/planning%20policy/brownfield/MSA2%20Land%20off%20Cotswold%20Road.pdf,0.68,Not owned by a public authority,,Not permissioned,,,,12,,,,,2017-12-29,2017-12-29,,,
,,,,,,,,,,,,,,,,,,,http://opendatacommunities.org/id/district-council/tendring,Tendring District Council,ALT15,"Navy Yard Wharf, Kings Quay Street, The Quay, Harwich, Essex CO12 3JJ",626136.71,232884.27,https://www.tendringdc.gov.uk/sites/default/files/documents/planning/planning%20policy/brownfield/ALT15%20Navyard%20Wharf%20Harwich.pdf,4.34,Not owned by a public authority,,Not permissioned,,,,200,,,,,2017-12-29,2017-12-29,,,
,,,,,,,,,,,,,,,,,,,http://opendatacommunities.org/id/district-council/tendring,Tendring District Council,MSA8,"Land at Harwich & Parkeston Football Club, Main Road, Harwich, Essex CO12 4AA",625126.4,231333.58,https://idox.tendringdc.gov.uk/online-applications/applicationDetails.do?activeTab=map&keyVal=H1WL0SQBY1000,1.32,Not owned by a public authority,,Not permissioned,,,,89,,,,,2017-12-29,2017-12-29,,,
,,,,,,,,,,,,,,,,,,,http://opendatacommunities.org/id/district-council/tendring,Tendring District Council,SAMU1,"EDME Maltings, Mistley",611756.65,231746.54,https://www.tendringdc.gov.uk/sites/default/files/documents/planning/planning%20policy/brownfield/SAMU1%20EDME%20Maltings%20Mistley.pdf,1.65,Not owned by a public authority,,Not permissioned,,,,150,,,,,2017-12-29,2017-12-29,,,
,,,,,,,,,,,,,,,,,,,http://opendatacommunities.org/id/district-council/tendring,Tendring District Council,MSA7,"Mayflower County Primary School, Main Road, Dovercourt, Essex CO12 4AJ",624930.49,231412.37,https://www.tendringdc.gov.uk/sites/default/files/documents/planning/planning%20policy/brownfield/MSA7%20Mayflower%20Primary%20School.pdf,0.36,Not owned by a public authority,,Not permissioned,,,,15,,,,,2017-12-29,2017-12-29,,,
,,,,,,,,,,,,,,,,,,,http://opendatacommunities.org/id/district-council/tendring,Tendring District Council,MSA11,"Station Yard and Former Avon Works, off Station Road,
Walton-on-the-Naze, Essex CO14 8DA",625081.27,221458.09,https://www.tendringdc.gov.uk/sites/default/files/documents/planning/planning%20policy/brownfield/MSA11%20Station%20Yd%20%26%20Fomer%20Avon%20Works.pdf,1.17,Not owned by a public authority,,Not permissioned,,,,40,,,,,2017-12-29,2017-12-29,,,
