address,address-text,deliverable,end-date,entry-date,hazardous-substances,hectares,latitude,longitude,maximum-net-dwellings,minimum-net-dwellings,notes,organisation,ownership-status,planning-permission-date,planning-permission-history,planning-permission-status,planning-permission-type,site,OrganisationURI,OrganisationLabel,SiteReference,SiteNameAddress,GeoX,GeoY,SiteplanURL,Hectares,OwnershipStatus,HazardousSubstances,PlanningStatus,PermissionType,PermissionDate,PlanningHistory,MinNetDwellings,NetDwellingsRangeFrom,NetDwellingsRangeTo,Deliverable,Notes,FirstAddedDate,LastUpdatedDate,EndDate,site-plan-url,start-date
,,,,,,,,,,,,,,,,,,,http://opendatacommunities.org/id/district-council/stratford,Stratford-On-Avon District Council,SDC00001,"'2-4 Redditch Road, Studley,B80 7AX''",-1.895479371,52.27477611,https://apps.stratford.gov.uk/eplanning/Map.aspx,0.08,not owned by a public authority,,permissioned,,,,5,,,,,2017-12-08,2018-12-05,,,
,,,,,,,,,,,,,,,,,,,http://opendatacommunities.org/id/district-council/stratford,Stratford-On-Avon District Council,SDC00002,"'Arden Grange, Broad Lane, Tanworth-in-Arden, B94 5DZ''",-1.848751436,52.3407505,https://apps.stratford.gov.uk/eplanning/Map.aspx,0.67,not owned by a public authority,,permissioned,,,,2,,,,,2017-12-08,2018-12-05,,,
,,,,,,,,,,,,,,,,,,,http://opendatacommunities.org/id/district-council/stratford,Stratford-On-Avon District Council,SDC00003,"'Ashby Farm, The Hollows, Long Compton, CV36 5NX''",-1.579812788,51.9825615,https://apps.stratford.gov.uk/eplanning/Map.aspx,0.4,not owned by a public authority,,permissioned,,,,6,,,,,2017-12-08,2018-12-05,,,
,,,,,,,,,,,,,,,,,,,http://opendatacommunities.org/id/district-council/stratford,Stratford-On-Avon District Council,SDC00004,"'Bridge House, 190 Alcester Road, Stratford-upon-Avon, CV37 9DR''",-1.731485073,52.19582437,https://apps.stratford.gov.uk/eplanning/Map.aspx,0.04,not owned by a public authority,,permissioned,,,,5,,,,,2017-12-08,2018-12-05,,,
,,,,,,,,,,,,,,,,,,,http://opendatacommunities.org/id/district-council/stratford,Stratford-On-Avon District Council,SDC00005,"'Cherry Trees, Swans Nest Lane, Stratford-Upon-Avon, CV37 7LS''",-1.699996015,52.18986915,https://apps.stratford.gov.uk/eplanning/Map.aspx,0.11,not owned by a public authority,,permissioned,,,,6,,,,,2017-12-08,2018-12-05,,,
,,,,,,,,,,,,,,,,,,,http://opendatacommunities.org/id/district-council/stratford,Stratford-On-Avon District Council,SDC00006,"'Convent of Our Lady, Wood Street, Southam''",-1.386253488,52.25331658,https://apps.stratford.gov.uk/eplanning/Map.aspx,0.29,not owned by a public authority,,permissioned,,,,10,,,,,2017-12-08,2018-12-05,,,
,,,,,,,,,,,,,,,,,,,http://opendatacommunities.org/id/district-council/stratford,Stratford-On-Avon District Council,SDC00007,"'Dudfields Nursery, Tavern Lane, Shottery''",-1.728482574,52.19149314,https://apps.stratford.gov.uk/eplanning/Map.aspx,0.74,not owned by a public authority,,permissioned,,,,12,,,,,2017-12-08,2018-12-05,,,
,,,,,,,,,,,,,,,,,,,http://opendatacommunities.org/id/district-council/stratford,Stratford-On-Avon District Council,SDC00008,"'Haven House Residential Home, Warwick Road, Kineton, CV35 0HN''",-1.512443034,52.15683327,https://apps.stratford.gov.uk/eplanning/Map.aspx,0.13,not owned by a public authority,,permissioned,,,,10,,,,,2017-12-08,2018-12-05,,,
,,,,,,,,,,,,,,,,,,,http://opendatacommunities.org/id/district-council/stratford,Stratford-On-Avon District Council,SDC00009,"'Hercules Farm, Henley Road, Claverdon, CV35 8LJ''",-1.717250022,52.28325011,https://apps.stratford.gov.uk/eplanning/Map.aspx,0.41,not owned by a public authority,,permissioned,,,,1,,,,,2017-12-08,2018-12-05,,,
,,,,,,,,,,,,,,,,,,,http://opendatacommunities.org/id/district-council/stratford,Stratford-On-Avon District Council,SDC00010,"'Mayfield Farm, Bear Lane, Henley-in-Arden''",-1.786209386,52.291765,https://apps.stratford.gov.uk/eplanning/Map.aspx,0.65,not owned by a public authority,,permissioned,,,,8,,,,,2017-12-08,2018-12-05,,,
,,,,,,,,,,,,,,,,,,,http://opendatacommunities.org/id/district-council/stratford,Stratford-On-Avon District Council,SDC00011,"'Redvale House, Stratford Road, Tredington, CV36 4NS''",-1.626014128,52.0892777,https://apps.stratford.gov.uk/eplanning/Map.aspx,0.41,not owned by a public authority,,permissioned,,,,3,,,,,2017-12-08,2018-12-05,,,
,,,,,,,,,,,,,,,,,,,http://opendatacommunities.org/id/district-council/stratford,Stratford-On-Avon District Council,SDC00012,"Royal Life Saving Society, River House, High Street, Broom, B50 4HN''",-1.873257683,52.17793577,https://apps.stratford.gov.uk/eplanning/Map.aspx,0.32,not owned by a public authority,,permissioned,,,,5,,,,,2017-12-08,2018-12-05,,,
,,,,,,,,,,,,,,,,,,,http://opendatacommunities.org/id/district-council/stratford,Stratford-On-Avon District Council,SDC00013,"'Stratford Court, Birmingham Road, Stratford-upon-Avon''",-1.709678037,52.19473913,https://apps.stratford.gov.uk/eplanning/Map.aspx,0.72,not owned by a public authority,,permissioned,,,,7,,,,,2017-12-08,2018-12-05,,,
,,,,,,,,,,,,,,,,,,,http://opendatacommunities.org/id/district-council/stratford,Stratford-On-Avon District Council,SDC00014,"'Suite 3 Clifford Mill, Clifford Road, Clifford Chambers, Stratford-upon-Avon, CV37 8HW''",-1.712498006,52.17249438,https://apps.stratford.gov.uk/eplanning/Map.aspx,0.03,not owned by a public authority,,permissioned,,,,5,,,,,2017-12-08,2018-12-05,,,
,,,,,,,,,,,,,,,,,,,http://opendatacommunities.org/id/district-council/stratford,Stratford-On-Avon District Council,SDC00015,"The Manor, Wormleighton, CV47 2XW''",-1.345717885,52.18055277,https://apps.stratford.gov.uk/eplanning/Map.aspx,0.56,not owned by a public authority,,permissioned,,,,1,,,,,2017-12-08,2018-12-05,,,
,,,,,,,,,,,,,,,,,,,http://opendatacommunities.org/id/district-council/stratford,Stratford-On-Avon District Council,SDC00016,"'The Old Power House, Campden Road, Shipston-on-Stour, CV36 4DD''",-1.627801579,52.06205909,https://apps.stratford.gov.uk/eplanning/Map.aspx,0.05,not owned by a public authority,,permissioned,,,,5,,,,,2017-12-08,2018-12-05,,,
,,,,,,,,,,,,,,,,,,,http://opendatacommunities.org/id/district-council/stratford,Stratford-On-Avon District Council,SDC00017,"The Wellesbourne House Partnership, 1 - 2 Wellesbourne House, Walton Road, Wellesbourne, CV35 9JB''",-1.596062012,52.19144749,https://apps.stratford.gov.uk/eplanning/Map.aspx,0.94,not owned by a public authority,,permissioned,,,,42,,,,,2017-12-08,2018-12-05,,,
,,,,,,,,,,,,,,,,,,,http://opendatacommunities.org/id/district-council/stratford,Stratford-On-Avon District Council,SDC00018,"'Waverley, Wolverton Fields, Norton Lindsey, CV35 8JN''",-1.678971041,52.26765291,https://apps.stratford.gov.uk/eplanning/Map.aspx,0.45,not owned by a public authority,,permissioned,,,,1,,,,,2017-12-08,2018-12-05,,,
,,,,,,,,,,,,,,,,,,,http://opendatacommunities.org/id/district-council/stratford,Stratford-On-Avon District Council,SDC00019,"'Napton Brickworks, Brickyard Road, Napton-on-the-Hill''",-1.334001066,52.25121694,https://apps.stratford.gov.uk/eplanning/Map.aspx,11.5,not owned by a public authority,,permissioned,,,,65,,,,,2017-12-08,2018-12-05,,,
,,,,,,,,,,,,,,,,,,,http://opendatacommunities.org/id/district-council/stratford,Stratford-On-Avon District Council,SDC00020,Former Compton Building works'',-1.379562289,52.17205977,https://apps.stratford.gov.uk/eplanning/Map.aspx,4.1,not owned by a public authority,,permissioned,,,,80,,,,,2017-12-08,2018-12-05,,,
,,,,,,,,,,,,,,,,,,,http://opendatacommunities.org/id/district-council/stratford,Stratford-On-Avon District Council,SDC00021,'Long Marston Strorage Depot Phase 3B'',-1.758597371,52.11922032,https://apps.stratford.gov.uk/eplanning/Map.aspx,0.61,not owned by a public authority,,permissioned,,,,116,,,,,2017-12-08,2018-12-05,,,
,,,,,,,,,,,,,,,,,,,http://opendatacommunities.org/id/district-council/stratford,Stratford-On-Avon District Council,SDC00022,"'Green End Farm, Willington, Cv36 5AS''",-1.611468965,52.04976976,https://apps.stratford.gov.uk/eplanning/Map.aspx,0.41,not owned by a public authority,,permissioned,,,,4,,,,,2017-12-08,2018-12-05,,,
,,,,,,,,,,,,,,,,,,,http://opendatacommunities.org/id/district-council/stratford,Stratford-On-Avon District Council,SDC00023,"'Harbury Cement Works, Bishop's Itchington''",-1.425758646,52.22638186,https://apps.stratford.gov.uk/eplanning/Map.aspx,5.26,not owned by a public authority,,permissioned,,,,195,,,,,2017-12-08,2018-12-05,,,
,,,,,,,,,,,,,,,,,,,http://opendatacommunities.org/id/district-council/stratford,Stratford-On-Avon District Council,SDC00024,"Former Harbury Cement Works, Station Road, Bishops Itchington.''",-1.425758646,52.22638186,https://apps.stratford.gov.uk/eplanning/Map.aspx,3.7,not owned by a public authority,,permissioned,,,,80,,,,,2017-12-08,2018-12-05,,,
,,,,,,,,,,,,,,,,,,,http://opendatacommunities.org/id/district-council/stratford,Stratford-On-Avon District Council,SDC00025,"'Health centre, High Street, Bidford-on-Avon, B50 4BQ''",-1.855341827,52.16462734,https://apps.stratford.gov.uk/eplanning/Map.aspx,0.22,not owned by a public authority,,permissioned,,,,9,,,,,2017-12-08,2018-12-05,,,
,,,,,,,,,,,,,,,,,,,http://opendatacommunities.org/id/district-council/stratford,Stratford-On-Avon District Council,SDC00026,"'Flogas Direct Ltd, Station Works, Binton CV37 9UA ''",-1.795596367,52.17609214,https://apps.stratford.gov.uk/eplanning/Map.aspx,1.8,not owned by a public authority,,permissioned,,,,24,,,,,2017-12-08,2018-12-05,,,
,,,,,,,,,,,,,,,,,,,http://opendatacommunities.org/id/district-council/stratford,Stratford-On-Avon District Council,SDC00027,"Summers Poultry, Cank Farm, Well Lane, Tanworth-in-Arden, B94 5AH''",-1.832644241,52.33048908,https://apps.stratford.gov.uk/eplanning/Map.aspx,2.1,not owned by a public authority,,permissioned,,,,18,,,,,2017-12-08,2018-12-05,,,
,,,,,,,,,,,,,,,,,,,http://opendatacommunities.org/id/district-council/stratford,Stratford-On-Avon District Council,SDC00028,Long Marston Airfield (Phase 1)'',-1.74902277,52.13638134,https://apps.stratford.gov.uk/eplanning/Map.aspx,45,not owned by a public authority,,permissioned,,,,400,,,,,2017-12-08,2018-12-05,,,
,,,,,,,,,,,,,,,,,,,http://opendatacommunities.org/id/district-council/stratford,Stratford-On-Avon District Council,SDC00029,"Land Adjacent To Nightingale Place, Nightingale Road, Long Itchington, CV47 9QL''",-1.390822639,52.28334103,https://apps.stratford.gov.uk/eplanning/Map.aspx,0.33,not owned by a public authority,,permissioned,,,,5,,,,,2017-12-08,2018-12-05,,,
,,,,,,,,,,,,,,,,,,,http://opendatacommunities.org/id/district-council/stratford,Stratford-On-Avon District Council,SDC00030,"'98 Station Road, Studley, B80 7JS''",-1.906643163,52.26979573,https://apps.stratford.gov.uk/eplanning/Map.aspx,0.12,not owned by a public authority,,permissioned,,,,5,,,,,2017-12-08,2018-12-05,,,
,,,,,,,,,,,,,,,,,,,http://opendatacommunities.org/id/district-council/stratford,Stratford-On-Avon District Council,SDC00031,"'Field Farm, Pennyford Lane, Wootton Wawen, B95 6EZ''",-1.77453567,52.26349547,https://apps.stratford.gov.uk/eplanning/Map.aspx,0.2,not owned by a public authority,,permissioned,,,,5,,,,,2017-12-08,2018-12-05,,,
,,,,,,,,,,,,,,,,,,,http://opendatacommunities.org/id/district-council/stratford,Stratford-On-Avon District Council,SDC00032,"'Meon Vale, Long Marston Storage Depot, Phase 4A''",-1.758597371,52.11922032,https://apps.stratford.gov.uk/eplanning/Map.aspx,98,not owned by a public authority,,permissioned,,,,149,,,,,2017-12-08,2018-12-05,,,
,,,,,,,,,,,,,,,,,,,http://opendatacommunities.org/id/district-council/stratford,Stratford-On-Avon District Council,SDC00033,"'Meon Vale, Long Marston Storage Depot, Phase 4b''",-1.758597371,52.11922032,https://apps.stratford.gov.uk/eplanning/Map.aspx,98,not owned by a public authority,,permissioned,,,,118,,,,,2017-12-08,2018-12-05,,,
,,,,,,,,,,,,,,,,,,,http://opendatacommunities.org/id/district-council/stratford,Stratford-On-Avon District Council,SDC00034,"Birmingham Road, Hill House""",-1.737709737,52.22958853,https://apps.stratford.gov.uk/eplanning/Map.aspx,0.59,not owned by a public authority,,permissioned,,,,1,,,,,2018-12-05,2018-12-05,,,
,,,,,,,,,,,,,,,,,,,http://opendatacommunities.org/id/district-council/stratford,Stratford-On-Avon District Council,SDC00035,"61 Shipston Road, Stratford-upon-Avon, CV37 7LN""",-1.699012188,52.18824836,https://apps.stratford.gov.uk/eplanning/Map.aspx,0.48,not owned by a public authority,,permissioned,,,,12,,,,,2018-12-05,2018-12-05,,,
,,,,,,,,,,,,,,,,,,,http://opendatacommunities.org/id/district-council/stratford,Stratford-On-Avon District Council,SDC00036,"Brook Cottage, Preston Bagot, B95 5EN""",-1.747207190,52.30235966,https://apps.stratford.gov.uk/eplanning/Map.aspx,0.38,not owned by a public authority,,permissioned,,,,1,,,,,2018-12-05,2018-12-05,,,
,,,,,,,,,,,,,,,,,,,http://opendatacommunities.org/id/district-council/stratford,Stratford-On-Avon District Council,SDC00037,"Livestock Transport Depot Site, Langley Road site""",-1.721355892,52.27604957,https://apps.stratford.gov.uk/eplanning/Map.aspx,1.4,not owned by a public authority,,permissioned,,,,4,,,,,2018-12-05,2018-12-05,,,
,,,,,,,,,,,,,,,,,,,http://opendatacommunities.org/id/district-council/stratford,Stratford-On-Avon District Council,SDC00038,"1 Arden Street, Stratford-Upon-Avon, Warwickshire, CV37 6PA""",-1.71239404,52.19327133,https://apps.stratford.gov.uk/eplanning/Map.aspx,0.5,not owned by a public authority,,permissioned,,,,5,,,,,2018-12-05,2018-12-05,,,
,,,,,,,,,,,,,,,,,,,http://opendatacommunities.org/id/district-council/stratford,Stratford-On-Avon District Council,SDC00039,"Apex Credit Management, Apex House, 27 Arden Street""",-1.711167005,52.19526421,https://apps.stratford.gov.uk/eplanning/Map.aspx,0.16,not owned by a public authority,,permissioned,,,,21,,,,,2018-12-05,2018-12-05,,,
,,,,,,,,,,,,,,,,,,,http://opendatacommunities.org/id/district-council/stratford,Stratford-On-Avon District Council,SDC00040,"Elizabeth Place, Conrad House And 45 Wellington Terrace, Birminghma Road""",-1.710564273,52.19571226,https://apps.stratford.gov.uk/eplanning/Map.aspx,0.2,not owned by a public authority,,permissioned,,,,27,,,,,2018-12-05,2018-12-05,,,
,,,,,,,,,,,,,,,,,,,http://opendatacommunities.org/id/district-council/stratford,Stratford-On-Avon District Council,SDC00041,"Hampton Leys, Kissing Tree Way, Alveston""",-1.711167005,52.19526421,https://apps.stratford.gov.uk/eplanning/Map.aspx,0.32,not owned by a public authority,,permissioned,,,,2,,,,,2018-12-05,2018-12-05,,,
,,,,,,,,,,,,,,,,,,,http://opendatacommunities.org/id/district-council/stratford,Stratford-On-Avon District Council,SDC00042,"Stapenhall Farm, Deppers Bridge, CV47 2SU""",-1.421136800,52.23953928,https://apps.stratford.gov.uk/eplanning/Map.aspx,0.43,not owned by a public authority,,permissioned,,,,1,,,,,2018-12-05,2018-12-05,,,
,,,,,,,,,,,,,,,,,,,http://opendatacommunities.org/id/district-council/stratford,Stratford-On-Avon District Council,SDC00043,"Burnside, Church Lane, Shottery, CV37 9HQ""",-1.731081984,52.19222728,https://apps.stratford.gov.uk/eplanning/Map.aspx,0.16,not owned by a public authority,,permissioned,,,,6,,,,,2018-12-05,2018-12-05,,,
,,,,,,,,,,,,,,,,,,,http://opendatacommunities.org/id/district-council/stratford,Stratford-On-Avon District Council,SDC00044,"Haven Pastures, Liverdge Hill, Henley-in-Arden""",-1.770318392,52.31399536,https://apps.stratford.gov.uk/eplanning/Map.aspx,1.86,not owned by a public authority,,permissioned,,,,3,,,,,2018-12-05,2018-12-05,,,
,,,,,,,,,,,,,,,,,,,http://opendatacommunities.org/id/district-council/stratford,Stratford-On-Avon District Council,SDC00045,"Longmead Cottage, Ullenhall Road,Ullenhall,B95 5NN""",-1.819178089,52.30032489,https://apps.stratford.gov.uk/eplanning/Map.aspx,0.69,not owned by a public authority,,permissioned,,,,2,,,,,2018-12-05,2018-12-05,,,
,,,,,,,,,,,,,,,,,,,http://opendatacommunities.org/id/district-council/stratford,Stratford-On-Avon District Council,SDC00046,"Gaydon Inn, Banbury Road, Gaydon, CV35 0HA",-1.466191358,52.18392008,https://apps.stratford.gov.uk/eplanning/Map.aspx,0.27,not owned by a public authority,,permissioned,,,,3,,,,,2018-12-05,2018-12-05,,,
,,,,,,,,,,,,,,,,,,,http://opendatacommunities.org/id/district-council/stratford,Stratford-On-Avon District Council,SDC00047,"Roxburgh House Nursing Home ,Warwick Road, Kineton, CV35 0HW""",-1.513468162,52.15665767,https://apps.stratford.gov.uk/eplanning/Map.aspx,0.27,not owned by a public authority,,permissioned,,,,10,,,,,2018-12-05,2018-12-05,,,
,,,,,,,,,,,,,,,,,,,http://opendatacommunities.org/id/district-council/stratford,Stratford-On-Avon District Council,SDC00048,"The Lares , Banbury Road, Ladbroke, CV47 2DA""",-1.389034567,52.22361740,https://apps.stratford.gov.uk/eplanning/Map.aspx,0.32,not owned by a public authority,,permissioned,,,,1,,,,,2018-12-05,2018-12-05,,,
,,,,,,,,,,,,,,,,,,,http://opendatacommunities.org/id/district-council/stratford,Stratford-On-Avon District Council,SDC00049,"Napton Bridge Inn, Southam Road, Napton-on-the-Hill, Southam, Cv47 8NQ",-1.332190664,52.25374204,https://apps.stratford.gov.uk/eplanning/Map.aspx,0.51,not owned by a public authority,,permissioned,,,,1,,,,,2018-12-05,2018-12-05,,,
,,,,,,,,,,,,,,,,,,,http://opendatacommunities.org/id/district-council/stratford,Stratford-On-Avon District Council,SDC00050,"Meon Vale, Long Marston Storage Depot, Phase 3a""",-1.758597371,52.11922032,https://apps.stratford.gov.uk/eplanning/Map.aspx,25.67,not owned by a public authority,,permissioned,,,,77,,,,,2018-12-05,2018-12-05,,,
,,,,,,,,,,,,,,,,,,,http://opendatacommunities.org/id/district-council/stratford,Stratford-On-Avon District Council,SDC00051,"Grovewood , Ullenhall Lane""",-1.859929921,52.31461182,https://apps.stratford.gov.uk/eplanning/Map.aspx,1.05,not owned by a public authority,,permissioned,,,,1,,,,,2018-12-05,2018-12-05,,,
,,,,,,,,,,,,,,,,,,,http://opendatacommunities.org/id/district-council/stratford,Stratford-On-Avon District Council,SDC00052,"Land To Rear Of The White Hart Public House, Stratford Road, Newbold-on-Stour""",-1.640730294,52.11609784,https://apps.stratford.gov.uk/eplanning/Map.aspx,0.37,not owned by a public authority,,permissioned,,,,3,,,,,2018-12-05,2018-12-05,,,
,,,,,,,,,,,,,,,,,,,http://opendatacommunities.org/id/district-council/stratford,Stratford-On-Avon District Council,SDC00053,"Norgren, Campden Road, Shipston-on-Stour""",-1.642814672,52.06160210,https://apps.stratford.gov.uk/eplanning/Map.aspx,52,not owned by a public authority,,permissioned,,,,111,,,,,2018-12-05,2018-12-05,,,
,,,,,,,,,,,,,,,,,,,http://opendatacommunities.org/id/district-council/stratford,Stratford-On-Avon District Council,SDC00054,"Appleton House, Church Road""",-1.685995262,52.23595356,https://apps.stratford.gov.uk/eplanning/Map.aspx,0.78,not owned by a public authority,,permissioned,,,,7,,,,,2018-12-05,2018-12-05,,,
,,,,,,,,,,,,,,,,,,,http://opendatacommunities.org/id/district-council/stratford,Stratford-On-Avon District Council,SDC00055,"Dog Kennel Close, Wellesbourne Road, Charlcote, CV35 9EW""",-1.615279342,52.20559077,https://apps.stratford.gov.uk/eplanning/Map.aspx,0.38,not owned by a public authority,,permissioned,,,,1,,,,,2018-12-05,2018-12-05,,,
,,,,,,,,,,,,,,,,,,,http://opendatacommunities.org/id/district-council/stratford,Stratford-On-Avon District Council,SDC00056,"Four Winds, Kington Lane""",-1.732793356,52.28004073,https://apps.stratford.gov.uk/eplanning/Map.aspx,0.49,not owned by a public authority,,permissioned,,,,1,,,,,2018-12-05,2018-12-05,,,
,,,,,,,,,,,,,,,,,,,http://opendatacommunities.org/id/district-council/stratford,Stratford-On-Avon District Council,SDC00057,"Stratford Upon Avon Business Park,  Banbury Road, Stratford-upon-Avon""",-1.677896042,52.17520139,https://apps.stratford.gov.uk/eplanning/Map.aspx,2.84,not owned by a public authority,,permissioned,,,,10,,,,,2018-12-05,2018-12-05,,,
,,,,,,,,,,,,,,,,,,,http://opendatacommunities.org/id/district-council/stratford,Stratford-On-Avon District Council,SDC00058,"The Meads, 79 Tiddington Road",-1.689652603,52.19635155,https://apps.stratford.gov.uk/eplanning/Map.aspx,1.41,not owned by a public authority,,permissioned,,,,1,,,,,2018-12-05,2018-12-05,,,
,,,,,,,,,,,,,,,,,,,http://opendatacommunities.org/id/district-council/stratford,Stratford-On-Avon District Council,SDC00059,"Alcester Road, Site of Former Cattle Market",-1.714318542,52.19432786,https://apps.stratford.gov.uk/eplanning/Map.aspx,1.63,not owned by a public authority,,permissioned,,,,87,,,,,2018-12-05,2018-12-05,,,
,,,,,,,,,,,,,,,,,,,http://opendatacommunities.org/id/district-council/stratford,Stratford-On-Avon District Council,SDC00060,"Oldberrow Farmhouse, Ullenhall Lane, B95 5PF",-1.84721387,52.30967842,https://apps.stratford.gov.uk/eplanning/Map.aspx,0.4,not owned by a public authority,,permissioned,,,,1,,,,,2018-12-05,2018-12-05,,,
,,,,,,,,,,,,,,,,,,,http://opendatacommunities.org/id/district-council/stratford,Stratford-On-Avon District Council,SDC00061,"Warwick County Fire Brigade, Bell Lane, Studley, B80 7LR""",-1.893679666,52.27352484,https://apps.stratford.gov.uk/eplanning/Map.aspx,0.089,not owned by a public authority,,permissioned,,,,5,,,,,2018-12-05,2018-12-05,,,
,,,,,,,,,,,,,,,,,,,http://opendatacommunities.org/id/district-council/stratford,Stratford-On-Avon District Council,SDC00062,"Chestnut Farm, Jill Lane, Sambourne""",-1.919972594,52.26508544,https://apps.stratford.gov.uk/eplanning/Map.aspx,0.35,not owned by a public authority,,permissioned,,,,3,,,,,2018-12-05,2018-12-05,,,
,,,,,,,,,,,,,,,,,,,http://opendatacommunities.org/id/district-council/stratford,Stratford-On-Avon District Council,SDC00063,"The Barff, Poolhead Lane, Tanworth-In-Arden, B94 5ED""",-1.847876663,52.34332055,https://apps.stratford.gov.uk/eplanning/Map.aspx,0.3,not owned by a public authority,,permissioned,,,,1,,,,,2018-12-05,2018-12-05,,,
,,,,,,,,,,,,,,,,,,,http://opendatacommunities.org/id/district-council/stratford,Stratford-On-Avon District Council,SDC00064,"Beoley Lodge, Alcester Road, Beoley, B98 9EP""",-1.866602718,52.32010356,https://apps.stratford.gov.uk/eplanning/Map.aspx,0.25,not owned by a public authority,,permissioned,,,,1,,,,,2018-12-05,2018-12-05,,,
,,,,,,,,,,,,,,,,,,,http://opendatacommunities.org/id/district-council/stratford,Stratford-On-Avon District Council,SDC00065,"Earlswood Court, Leafy Lane""",-1.824540483,52.36119665,https://apps.stratford.gov.uk/eplanning/Map.aspx,1.5,not owned by a public authority,,permissioned,,,,1,,,,,2018-12-05,2018-12-05,,,
,,,,,,,,,,,,,,,,,,,http://opendatacommunities.org/id/district-council/stratford,Stratford-On-Avon District Council,SDC00066,"The Firs Broad Lane Tanworth-in-Arden""",-1.839621753,52.34485605,https://apps.stratford.gov.uk/eplanning/Map.aspx,0.38,not owned by a public authority,,permissioned,,,,1,,,,,2018-12-05,2018-12-05,,,
,,,,,,,,,,,,,,,,,,,http://opendatacommunities.org/id/district-council/stratford,Stratford-On-Avon District Council,SDC00067,"Heathfield Farm Stables, Cut Throat Lane, Hockley Heath, B94 6SE""",-1.797610984,52.35425836,https://apps.stratford.gov.uk/eplanning/Map.aspx,0.29,not owned by a public authority,,permissioned,,,,3,,,,,2018-12-05,2018-12-05,,,
,,,,,,,,,,,,,,,,,,,http://opendatacommunities.org/id/district-council/stratford,Stratford-On-Avon District Council,SDC00068,"Meadow Bank, Tanworth Lane, Beoley, B98 9EH""",-1.861619606,52.32320845,https://apps.stratford.gov.uk/eplanning/Map.aspx,0.4,not owned by a public authority,,permissioned,,,,1,,,,,2018-12-05,2018-12-05,,,
,,,,,,,,,,,,,,,,,,,http://opendatacommunities.org/id/district-council/stratford,Stratford-On-Avon District Council,SDC00069,"Robin Hood Farm  Danzey Green Lane Danzey Green B94 5BG""",-1.824419787,52.32846337,https://apps.stratford.gov.uk/eplanning/Map.aspx,0.77,not owned by a public authority,,permissioned,,,,1,,,,,2018-12-05,2018-12-05,,,
,,,,,,,,,,,,,,,,,,,http://opendatacommunities.org/id/district-council/stratford,Stratford-On-Avon District Council,SDC00070,"The Bower House  Alveston Leys Alveston""",-1.660662941,52.20683568,https://apps.stratford.gov.uk/eplanning/Map.aspx,0.41,not owned by a public authority,,permissioned,,,,1,,,,,2018-12-05,2018-12-05,,,
,,,,,,,,,,,,,,,,,,,http://opendatacommunities.org/id/district-council/stratford,Stratford-On-Avon District Council,SDC00071,"Dial House, The Green, Alveston, Stratford-upon-Avon, CV37 7QU""",-1.656578933,52.20698571,https://apps.stratford.gov.uk/eplanning/Map.aspx,0.19,not owned by a public authority,,permissioned,,,,5,,,,,2018-12-05,2018-12-05,,,
,,,,,,,,,,,,,,,,,,,http://opendatacommunities.org/id/district-council/stratford,Stratford-On-Avon District Council,SDC00072,"Grove House,  The Rookery, Alveston, CV37 7QP""",-1.657570427,52.20745609,https://apps.stratford.gov.uk/eplanning/Map.aspx,0.3,not owned by a public authority,,permissioned,,,,1,,,,,2018-12-05,2018-12-05,,,
,,,,,,,,,,,,,,,,,,,http://opendatacommunities.org/id/district-council/stratford,Stratford-On-Avon District Council,SDC00073,"Hillside, Alveston Lane""",-1.665733201,52.20591512,https://apps.stratford.gov.uk/eplanning/Map.aspx,0.9,not owned by a public authority,,permissioned,,,,1,,,,,2018-12-05,2018-12-05,,,
,,,,,,,,,,,,,,,,,,,http://opendatacommunities.org/id/district-council/stratford,Stratford-On-Avon District Council,SDC00074,"Orchard Nurseries, Duck Lane, Welford-on-Avon""",-1.775021732,52.16716323,https://apps.stratford.gov.uk/eplanning/Map.aspx,3.06,not owned by a public authority,,permissioned,,,,5,,,,,2018-12-05,2018-12-05,,,
,,,,,,,,,,,,,,,,,,,http://opendatacommunities.org/id/district-council/stratford,Stratford-On-Avon District Council,SDC00075,"Tew Park, Binton Road, Welford-on-Avon, CV37 8PS",-1.782119023,52.17190551,https://apps.stratford.gov.uk/eplanning/Map.aspx,0.62,not owned by a public authority,,permissioned,,,,1,,,,,2018-12-05,2018-12-05,,,
,,,,,,,,,,,,,,,,,,,http://opendatacommunities.org/id/district-council/stratford,Stratford-On-Avon District Council,SDC00076,"The Thistles, Shipston Road, Stratford-Upon-Avon, CV37 8LZ""",-1.697902703,52.16629948,https://apps.stratford.gov.uk/eplanning/Map.aspx,0.38,not owned by a public authority,,permissioned,,,,1,,,,,2018-12-05,2018-12-05,,,
,,,,,,,,,,,,,,,,,,,http://opendatacommunities.org/id/district-council/stratford,Stratford-On-Avon District Council,SDC00076,"Henley Water Gardens, Whitley Hill""",-1.761021603,52.28607081,https://apps.stratford.gov.uk/eplanning/Map.aspx,0.61,not owned by a public authority,,permissioned,,,,4,,,,,2018-12-05,2018-12-05,,,
,,,,,,,,,,,,,,,,,,,http://opendatacommunities.org/id/district-council/stratford,Stratford-On-Avon District Council,SDC00076,"165 Aston Cantlow Road""",-1.774514514,52.46745515,https://apps.stratford.gov.uk/eplanning/Map.aspx,0.6,not owned by a public authority,,permissioned,,,,1,,,,,2018-12-05,2018-12-05,,,
