address,address-text,deliverable,end-date,entry-date,hazardous-substances,hectares,latitude,longitude,maximum-net-dwellings,minimum-net-dwellings,notes,organisation,ownership-status,planning-permission-date,planning-permission-history,planning-permission-status,planning-permission-type,site,OrganisationURI,OrganisationLabel,SiteReference,SiteNameAddress,GeoX,GeoY,SiteplanURL,Hectares,OwnershipStatus,HazardousSubstances,PlanningStatus,PermissionType,PermissionDate,PlanningHistory,MinNetDwellings,NetDwellingsRangeFrom,NetDwellingsRangeTo,Deliverable,Notes,FirstAddedDate,LastUpdatedDate,EndDate,site-plan-url,start-date
,,,,,,,,,,,,,,,,,,,,,,"440 ALLERTON ROAD, L18",340709,386536,,,,,,,,,,,,,,,,,,
,,,,,,,,,,,,,,,,,,,,,,LIVERPOOL WATERS - NORTHERN DOCKS,333466,392383,,,,,,,,,,,,,,,,,,
,,,,,,,,,,,,,,,,,,,,,,147 BRECK ROAD,336706,392416,,,,,,,,,,,,,,,,,,
,,,,,,,,,,,,,,,,,,,,,,HOLLY COTTAGE AND LAND OF WOOD LANE,344888,387493,,,,,,,,,,,,,,,,,,
,,,,,,,,,,,,,,,,,,,,,,DORSET COURT. MADEIRA DRIVE L25.,342788,388985,,,,,,,,,,,,,,,,,,
,,,,,,,,,,,,,,,,,,,,,,CATS WHISKERS P.H. HARTSBOURNE AVENUE L25,342536,388596,,,,,,,,,,,,,,,,,,
,,,,,,,,,,,,,,,,,,,,,,WAREHOUSES ON PALL MALL (NORTH) & LAND TO REAR,334067,391293,,,,,,,,,,,,,,,,,,
,,,,,,,,,,,,,,,,,,,,,,KING EDWARD TRIANGLE,333758,390949,,,,,,,,,,,,,,,,,,
,,,,,,,,,,,,,,,,,,,,,,JAMAICA STRRET AND LAND BETWEEN NORFOLK STREET AND BRICK STREET,334947,389271,,,,,,,,,,,,,,,,,,
,,,,,,,,,,,,,,,,,,,,,,PRINCES DOCK AREA,333674,390715,,,,,,,,,,,,,,,,,,
,,,,,,,,,,,,,,,,,,,,,,LAND AT JUNCTION OF ISLINGTON / ASHTON PLACE / GILDART STREET,335511,390939,,,,,,,,,,,,,,,,,,
,,,,,,,,,,,,,,,,,,,,,,ERSKINE STREET / MANFRED STREET / PROSPECT STREET,336062,390952,,,,,,,,,,,,,,,,,,
,,,,,,,,,,,,,,,,,,,,,,"STRAND HOUSE, 21 STRAND STREET",334220,390114,,,,,,,,,,,,,,,,,,
,,,,,,,,,,,,,,,,,,,,,,BUILDING AT COCKSPUR ST WEST/ PALL MALL / PRUSSIA ST / HIGHFIELD STREET,334234,390916,,,,,,,,,,,,,,,,,,
,,,,,,,,,,,,,,,,,,,,,,33 DEVON STREET,335620,390947,,,,,,,,,,,,,,,,,,
,,,,,,,,,,,,,,,,,,,,,,SOUTH EAST JUNCTION OF ISLINGTON / NORTON STREET,335306,390878,,,,,,,,,,,,,,,,,,
,,,,,,,,,,,,,,,,,,,,,,11 FONTENOY STREET L3,334679,390830,,,,,,,,,,,,,,,,,,
,,,,,,,,,,,,,,,,,,,,,,"SILKHOUSE COURT, TITHEBARN STREET L2.",334168,390664,,,,,,,,,,,,,,,,,,
,,,,,,,,,,,,,,,,,,,,,,"HUGHES HOUSE, 101-113 LONDON ROAD",335413,390777,,,,,,,,,,,,,,,,,,
,,,,,,,,,,,,,,,,,,,,,,LAND AT NORTON STREET / ISLINGTON,335219,390828,,,,,,,,,,,,,,,,,,
,,,,,,,,,,,,,,,,,,,,,,122 OLD HALL STREET,333883,391006,,,,,,,,,,,,,,,,,,
,,,,,,,,,,,,,,,,,,,,,,LAND AT CORNER OF DEVON STREET & MOSS STREET L6,335703,390953,,,,,,,,,,,,,,,,,,
,,,,,,,,,,,,,,,,,,,,,,GRASSED AREA CORNER OF PRESCOT STREET & ERSKINE STREET,336116,390933,,,,,,,,,,,,,,,,,,
,,,,,,,,,,,,,,,,,,,,,,LAND BOUNDED BY SKELHORNE ST / BOLTON ST & NEW HILBRE WALK,335074,390424,,,,,,,,,,,,,,,,,,
,,,,,,,,,,,,,,,,,,,,,,"MERSEY HOUSE, THE STRAND",334112,390252,,,,,,,,,,,,,,,,,,
,,,,,,,,,,,,,,,,,,,,,,"FORMER ODEON PICTURE HOUSE, 28 LONDON ROAD L3.",335125,390671,,,,,,,,,,,,,,,,,,
,,,,,,,,,,,,,,,,,,,,,,LAND TO NORTH EAST JUNCTION OLDHAM PLACE / BACK RENSHAW STREET,335285,390052,,,,,,,,,,,,,,,,,,
,,,,,,,,,,,,,,,,,,,,,,"NORWICH BUILDING, WATER STREET",334081,390461,,,,,,,,,,,,,,,,,,
,,,,,,,,,,,,,,,,,,,,,,KINGSWAY HOUSE,334582,390755,,,,,,,,,,,,,,,,,,
,,,,,,,,,,,,,,,,,,,,,,"DRURY HOUSE, 19 WATER STREET",334051,390360,,,,,,,,,,,,,,,,,,
,,,,,,,,,,,,,,,,,,,,,,"RALLI HOUSE, 60 OLD HALL STREET L1",334021,390769,,,,,,,,,,,,,,,,,,
,,,,,,,,,,,,,,,,,,,,,,45 & 51-79 LIME STREET L1,335047,390388,,,,,,,,,,,,,,,,,,
,,,,,,,,,,,,,,,,,,,,,,ARCHBISHOP BLANCH SCHOOL SITE,336298,390328,,,,,,,,,,,,,,,,,,
,,,,,,,,,,,,,,,,,,,,,,89-99 RENSHAW STREET,335254,389944,,,,,,,,,,,,,,,,,,
,,,,,,,,,,,,,,,,,,,,,,"VICTORIA HOUSE,  7-11 JAMES STREET",334196,390219,,,,,,,,,,,,,,,,,,
,,,,,,,,,,,,,,,,,,,,,,OLDHAM PLACE OFF ROSCOE STREET,335253,390080,,,,,,,,,,,,,,,,,,
,,,,,,,,,,,,,,,,,,,,,,"HARDMAN HOUSE AND HAIGH BUILDING, HARDMAN STREET / MARYLAND STREET",335479,389920,,,,,,,,,,,,,,,,,,
,,,,,,,,,,,,,,,,,,,,,,"SIR THOMAS HOUSE, 5 SIR THOMAS STREET",334594,390520,,,,,,,,,,,,,,,,,,
,,,,,,,,,,,,,,,,,,,,,,"NORTH HOUSE, NORTH JOHN STREET",334360,390465,,,,,,,,,,,,,,,,,,
,,,,,,,,,,,,,,,,,,,,,,RELIANCE HOUSE / 20 WATER STREET,334026,390429,,,,,,,,,,,,,,,,,,
,,,,,,,,,,,,,,,,,,,,,,77-85 DALE ST (PRINCE'S BUILDINGS),334481,390671,,,,,,,,,,,,,,,,,,
,,,,,,,,,,,,,,,,,,,,,,HONEYCOMB EDMUND STREET L3,334050,390766,,,,,,,,,,,,,,,,,,
,,,,,,,,,,,,,,,,,,,,,,10-12 JAMES ST (CROWN HOUSE),334181,390263,,,,,,,,,,,,,,,,,,
,,,,,,,,,,,,,,,,,,,,,,42-44 STANLEY STREET L1,334516,390432,,,,,,,,,,,,,,,,,,
,,,,,,,,,,,,,,,,,,,,,,"IRWELL CHAMBERS, 9 UNION STREET",333994,390671,,,,,,,,,,,,,,,,,,
,,,,,,,,,,,,,,,,,,,,,,42 CASTLE STREET,334222,390351,,,,,,,,,,,,,,,,,,
,,,,,,,,,,,,,,,,,,,,,,1-3 TEMPLE COURT,334486,390459,,,,,,,,,,,,,,,,,,
,,,,,,,,,,,,,,,,,,,,,,18 WATER ST (NEW ZEALAND HOUSE),334041,390440,,,,,,,,,,,,,,,,,,
,,,,,,,,,,,,,,,,,,,,,,194 LONDON ROAD,335665,390775,,,,,,,,,,,,,,,,,,
,,,,,,,,,,,,,,,,,,,,,,"Myrtle Court, 200 Crown Street, L8 7JX",336379,389683,,,,,,,,,,,,,,,,,,
,,,,,,,,,,,,,,,,,,,,,,7 WATER ST / 3 FENWICK ST,334151,390415,,,,,,,,,,,,,,,,,,
,,,,,,,,,,,,,,,,,,,,,,110 LONDON ROAD,335393,390680,,,,,,,,,,,,,,,,,,
,,,,,,,,,,,,,,,,,,,,,,21-23 RANELAGH ST (CORNER RANELAGH ST AND ENTRANCE TO CLAYTON SQUARE CENTRE),334910,390252,,,,,,,,,,,,,,,,,,
,,,,,,,,,,,,,,,,,,,,,,19 CASTLE STREET,334245,390432,,,,,,,,,,,,,,,,,,
,,,,,,,,,,,,,,,,,,,,,,"FORMER CORPORATION STABLES,  65-73 SMITHDOWN LANE",336334,390162,,,,,,,,,,,,,,,,,,
,,,,,,,,,,,,,,,,,,,,,,44 CASTLE STREET,334226,390340,,,,,,,,,,,,,,,,,,
,,,,,,,,,,,,,,,,,,,,,,"BIANCA HOUSE, 80 DEVON STREET (KNOWN AS 56-58 STAFFORD STREET)",335424,390920,,,,,,,,,,,,,,,,,,
,,,,,,,,,,,,,,,,,,,,,,71-73 KEMPSTON STREET,335574,390885,,,,,,,,,,,,,,,,,,
,,,,,,,,,,,,,,,,,,,,,,36-37 LEECE ST (POST OFFICE),335326,389921,,,,,,,,,,,,,,,,,,
,,,,,,,,,,,,,,,,,,,,,,13-17 TARLETON STREET L1,334670,390333,,,,,,,,,,,,,,,,,,
,,,,,,,,,,,,,,,,,,,,,,50-58 LONDON ROAD,335209,390698,,,,,,,,,,,,,,,,,,
,,,,,,,,,,,,,,,,,,,,,,9-11 CAMDEN STREET,335109,390765,,,,,,,,,,,,,,,,,,
,,,,,,,,,,,,,,,,,,,,,,24 RODNEY STREET,335375,389947,,,,,,,,,,,,,,,,,,
,,,,,,,,,,,,,,,,,,,,,,4 TEMPLE COURT,334487,390415,,,,,,,,,,,,,,,,,,
,,,,,,,,,,,,,,,,,,,,,,21 TRUEMAN ST (THRELFALL BUILDING),334624,390820,,,,,,,,,,,,,,,,,,
,,,,,,,,,,,,,,,,,,,,,,41-43 SEYMOUR TERRACE,335375,390593,,,,,,,,,,,,,,,,,,
,,,,,,,,,,,,,,,,,,,,,,SITE BETWEEN 43 COMMERCIAL ROAD & TOBACCO WHARF L5.,334428,392798,,,,,,,,,,,,,,,,,,
,,,,,,,,,,,,,,,,,,,,,,GARSTON UNDER THE BRIDGE REDEVELOPMENT AREA,340310,384009,,,,,,,,,,,,,,,,,,
,,,,,,,,,,,,,,,,,,,,,,83-89 KEMPSTON STREET L3,335625,390895,,,,,,,,,,,,,,,,,,
,,,,,,,,,,,,,,,,,,,,,,31-33 TARLETON STREET,334679,390373,,,,,,,,,,,,,,,,,,
,,,,,,,,,,,,,,,,,,,,,,14B POMONA STREET,335456,390164,,,,,,,,,,,,,,,,,,
,,,,,,,,,,,,,,,,,,,,,,43-47 STAFFORD STREET L3.,335385,390911,,,,,,,,,,,,,,,,,,
,,,,,,,,,,,,,,,,,,,,,,82 KEMPSTON STREET L3,335639,390858,,,,,,,,,,,,,,,,,,
,,,,,,,,,,,,,,,,,,,,,,MAY PLACE,335368,390172,,,,,,,,,,,,,,,,,,
,,,,,,,,,,,,,,,,,,,,,,"Former Robinson Willey Site, Mill Lane, Liverpool, L13",339445,390475,,,,,,,,,,,,,,,,,,
,,,,,,,,,,,,,,,,,,,,,,"FORMER SARAH MCARD NURSERY, SHAW STREET",335756,391215,,,,,,,,,,,,,,,,,,
,,,,,,,,,,,,,,,,,,,,,,LAND AT MALDON LODGE / WOOLTON ROAD,340317,388483,,,,,,,,,,,,,,,,,,
,,,,,,,,,,,,,,,,,,,,,,SITE OF 280 ALLERTON ROAD,340359,387180,,,,,,,,,,,,,,,,,,
,,,,,,,,,,,,,,,,,,,,,,160-164 GREENHILL ROAD,340038,386486,,,,,,,,,,,,,,,,,,
,,,,,,,,,,,,,,,,,,,,,,35 DUDLOW LANE,340136,388391,,,,,,,,,,,,,,,,,,
,,,,,,,,,,,,,,,,,,,,,,6A ROSE LANE L18.,339430,387484,,,,,,,,,,,,,,,,,,
,,,,,,,,,,,,,,,,,,,,,,22 ROSE LANE L18.,339394,387453,,,,,,,,,,,,,,,,,,
,,,,,,,,,,,,,,,,,,,,,,34A BRIDGE ROAD,339200,387469,,,,,,,,,,,,,,,,,,
,,,,,,,,,,,,,,,,,,,,,,"FORMER WHISTLERS FARM SHOP SITE, LORENZO DRIVE",338450,394384,,,,,,,,,,,,,,,,,,
,,,,,,,,,,,,,,,,,,,,,,299 UTTING AVENUE,338137,394337,,,,,,,,,,,,,,,,,,
,,,,,,,,,,,,,,,,,,,,,,"254-256 COUNTY ROAD, LIVERPOOL, L4",335834,394725,,,,,,,,,,,,,,,,,,
,,,,,,,,,,,,,,,,,,,,,,95 COUNTY ROAD,335596,394284,,,,,,,,,,,,,,,,,,
,,,,,,,,,,,,,,,,,,,,,,LAND BETWEEN 3-13 HARLECH STREET,335528,394106,,,,,,,,,,,,,,,,,,
,,,,,,,,,,,,,,,,,,,,,,74 GOODISON ROAD L4,335836,394134,,,,,,,,,,,,,,,,,,
,,,,,,,,,,,,,,,,,,,,,,11A BIRCHFIELD ROAD L4,336233,394538,,,,,,,,,,,,,,,,,,
,,,,,,,,,,,,,,,,,,,,,,193A COUNTY ROAD,335712,394629,,,,,,,,,,,,,,,,,,
,,,,,,,,,,,,,,,,,,,,,,LONG LANE / GREENHILL RD / GREENHILL NURSERY,340291,385520,,,,,,,,,,,,,,,,,,
,,,,,,,,,,,,,,,,,,,,,,"FORMER ST AUSTIN'S CHURCH, PRESBYTERY AND CHALONER HALL, AIGBURTH ROAD",339415,385350,,,,,,,,,,,,,,,,,,
,,,,,,,,,,,,,,,,,,,,,,LAND TO THE REAR OF 563-565 AIGBURTH ROAD L19,339434,385295,,,,,,,,,,,,,,,,,,
,,,,,,,,,,,,,,,,,,,,,,670 AIGBURTH ROAD,339370,385265,,,,,,,,,,,,,,,,,,
,,,,,,,,,,,,,,,,,,,,,,LAND BETWEEN 'BINBROOKE' & 22 EATON ROAD L19.,339080,384608,,,,,,,,,,,,,,,,,,
,,,,,,,,,,,,,,,,,,,,,,LAND AT END OF FLORIDA COURT L19.,339894,385613,,,,,,,,,,,,,,,,,,
,,,,,,,,,,,,,,,,,,,,,,"FORMER DOG AND GUN PUBLIC HOUSE, CROXTETH HALL LANE/CARR LANE EAST, LIVERPOOL, L12",340119,395250,,,,,,,,,,,,,,,,,,
,,,,,,,,,,,,,,,,,,,,,,"SWAINBANKS LIMITED, 50 FOX STREET",335197,391551,,,,,,,,,,,,,,,,,,
,,,,,,,,,,,,,,,,,,,,,,"LAND AT FOX STREET / ST ANNE STREET, L3",335102,391527,,,,,,,,,,,,,,,,,,
,,,,,,,,,,,,,,,,,,,,,,GREAT HOMER ST SHOPPING CENTRE (PROJECT JENNIFER),335016,392248,,,,,,,,,,,,,,,,,,
,,,,,,,,,,,,,,,,,,,,,,LAND AND BUILDINGS AT CLEGG ST / ILIAD ST / PRINCE EDWIN ST,335174,391682,,,,,,,,,,,,,,,,,,
,,,,,,,,,,,,,,,,,,,,,,NOTRE DAME SCHOOL,335527,393089,,,,,,,,,,,,,,,,,,
,,,,,,,,,,,,,,,,,,,,,,FORMER JFK HEIGHTS / EVERTON BROW / SALISBURY ST / HAIGH ST,335533,391532,,,,,,,,,,,,,,,,,,
,,,,,,,,,,,,,,,,,,,,,,"FORMER CENTRAL TIN FACTORY SITE, WILBRAHAM ST / DRYDEN ST",334919,391980,,,,,,,,,,,,,,,,,,
,,,,,,,,,,,,,,,,,,,,,,"THE STRAWBERRY TAVERN, BRECKFIELD ROAD SOUTH",336502,391969,,,,,,,,,,,,,,,,,,
,,,,,,,,,,,,,,,,,,,,,,LAND & BUILDINGS AT EDGE LANE,336948,390499,,,,,,,,,,,,,,,,,,
,,,,,,,,,,,,,,,,,,,,,,"FORMER OGDENS TOBACCO FACTORY SITE, WEST DERBY ROAD/BOUNDARY LANE, LIVERPOOL, L6",336573,391624,,,,,,,,,,,,,,,,,,
,,,,,,,,,,,,,,,,,,,,,,SITE OF FORMER MONTROSE CLUB WHITEFIELD ROAD,336578,392023,,,,,,,,,,,,,,,,,,
,,,,,,,,,,,,,,,,,,,,,,14-20 BRECKFIELD ROAD NORTH,336257,392224,,,,,,,,,,,,,,,,,,
,,,,,,,,,,,,,,,,,,,,,,OLIVIA'S BAR (FORMERLY DEVONSHIRE ARMS P.H)  ST. DOMINGO ROAD L5.,335440,393001,,,,,,,,,,,,,,,,,,
,,,,,,,,,,,,,,,,,,,,,,"OLD CAMPFIELD HOTEL, 98 HEYWORTH STREET",335713,392205,,,,,,,,,,,,,,,,,,
,,,,,,,,,,,,,,,,,,,,,,LAND ADJ TO 40 BIRCHFIELD STREET L3.,335459,391042,,,,,,,,,,,,,,,,,,
,,,,,,,,,,,,,,,,,,,,,,1-3 EVERTON ROAD,336094,391258,,,,,,,,,,,,,,,,,,
,,,,,,,,,,,,,,,,,,,,,,42 BRECKFIELD ROAD NORTH,336222,392276,,,,,,,,,,,,,,,,,,
,,,,,,,,,,,,,,,,,,,,,,56-70 CONWY DRIVE L6,336825,391713,,,,,,,,,,,,,,,,,,
,,,,,,,,,,,,,,,,,,,,,,58 BRECKFIELD ROAD NORTH L5,336204,392300,,,,,,,,,,,,,,,,,,
,,,,,,,,,,,,,,,,,,,,,,"197-199 OAKFIELD ROAD, L4",336286,392941,,,,,,,,,,,,,,,,,,
,,,,,,,,,,,,,,,,,,,,,,LAND TO THE SIDE OF 11 MARATHON CLOSE,335921,391730,,,,,,,,,,,,,,,,,,
,,,,,,,,,,,,,,,,,,,,,,"NEWHALL, LONGMOOR LANE",338821,397594,,,,,,,,,,,,,,,,,,
,,,,,,,,,,,,,,,,,,,,,,REDBRIDGE AND BANKVIEW. SHERWOODS LANE,338843,397891,,,,,,,,,,,,,,,,,,
,,,,,,,,,,,,,,,,,,,,,,LAND AT MELLING AVENUE L9.,336745,397501,,,,,,,,,,,,,,,,,,
,,,,,,,,,,,,,,,,,,,,,,352 LONGMOOR LANE,337431,397219,,,,,,,,,,,,,,,,,,
,,,,,,,,,,,,,,,,,,,,,,"GREENBANK SYNAGOGUE, GREENBANK DRIVE, L17",338313,388444,,,,,,,,,,,,,,,,,,
,,,,,,,,,,,,,,,,,,,,,,'THE WHEEL HOUSE' 10 ELMSLEY ROAD L18.,338926,387481,,,,,,,,,,,,,,,,,,
,,,,,,,,,,,,,,,,,,,,,,"BRIDGE HOUSE, 7 MOSSLEY HILL DRIVE",338156,387647,,,,,,,,,,,,,,,,,,
,,,,,,,,,,,,,,,,,,,,,,185 VALE ROAD,338286,388563,,,,,,,,,,,,,,,,,,
,,,,,,,,,,,,,,,,,,,,,,671 SMITHDOWN ROAD,339159,388392,,,,,,,,,,,,,,,,,,
,,,,,,,,,,,,,,,,,,,,,,LAND AT LOW HILL,336145,391182,,,,,,,,,,,,,,,,,,
,,,,,,,,,,,,,,,,,,,,,,209-299 PRESCOT ROAD AND 16-24 PRESCOT DRIVE,338098,391245,,,,,,,,,,,,,,,,,,
,,,,,,,,,,,,,,,,,,,,,,WORKS AT 86 COLERIDGE STREET,336925,391181,,,,,,,,,,,,,,,,,,
,,,,,,,,,,,,,,,,,,,,,,10 HOLLY ROAD L7,337623,390755,,,,,,,,,,,,,,,,,,
,,,,,,,,,,,,,,,,,,,,,,"DYSON RYCROFT MEMORIAL HALL, BETWEEN 153&155 KENSINGTON",336819,391027,,,,,,,,,,,,,,,,,,
,,,,,,,,,,,,,,,,,,,,,,2 GROVE ROAD,337643,391184,,,,,,,,,,,,,,,,,,
,,,,,,,,,,,,,,,,,,,,,,176 BOALER STREET,336943,391480,,,,,,,,,,,,,,,,,,
,,,,,,,,,,,,,,,,,,,,,,24 FREEHOLD STREET,337991,391077,,,,,,,,,,,,,,,,,,
,,,,,,,,,,,,,,,,,,,,,,8 LORNE STREET,338073,391141,,,,,,,,,,,,,,,,,,
,,,,,,,,,,,,,,,,,,,,,,181 BOALER STREET L6,336878,391499,,,,,,,,,,,,,,,,,,
,,,,,,,,,,,,,,,,,,,,,,2 PRESCOT DRIVE,337968,391263,,,,,,,,,,,,,,,,,,
,,,,,,,,,,,,,,,,,,,,,,CENTRAL DOCKS,333481,391395,,,,,,,,,,,,,,,,,,
,,,,,,,,,,,,,,,,,,,,,,ANFIELD / BRECKFIELD HMRI REGENERATION AREA,336139,392771,,,,,,,,,,,,,,,,,,
,,,,,,,,,,,,,,,,,,,,,,LIVERPOOL WATERS - CLARENCE DOCK,333444,391987,,,,,,,,,,,,,,,,,,
,,,,,,,,,,,,,,,,,,,,,,LAND AT LEEDS ST / LANYORK ROAD,333997,391141,,,,,,,,,,,,,,,,,,
,,,,,,,,,,,,,,,,,,,,,,STANLEY DOCK / NORTH DOCKS,333744,392074,,,,,,,,,,,,,,,,,,
,,,,,,,,,,,,,,,,,,,,,,160-162 BRECK ROAD,336315,392136,,,,,,,,,,,,,,,,,,
,,,,,,,,,,,,,,,,,,,,,,LAND CORNER BEVINGTON BUSH / GARDNER ROW / EDGAR STREET,334733,391337,,,,,,,,,,,,,,,,,,
,,,,,,,,,,,,,,,,,,,,,,LAND BETWEEN FREEMASON'S ROW / GLADSTONE ST & LEEDS ST,334370,391190,,,,,,,,,,,,,,,,,,
,,,,,,,,,,,,,,,,,,,,,,BOND STREET / ELDON GROVE SITE,334601,391666,,,,,,,,,,,,,,,,,,
,,,,,,,,,,,,,,,,,,,,,,"EASBY ESTATE, EASBY ROAD / LAMBETH ROAD / HARCOURT STREET",334920,393239,,,,,,,,,,,,,,,,,,
,,,,,,,,,,,,,,,,,,,,,,31A ORWELL ROAD,334720,393552,,,,,,,,,,,,,,,,,,
,,,,,,,,,,,,,,,,,,,,,,LAND AT BURRELL ST / CHRISTOPHER ST / TATE ST / TETLOW ST,335647,393635,,,,,,,,,,,,,,,,,,
,,,,,,,,,,,,,,,,,,,,,,SITE AT WESTWINSTER ROAD / FOLEY STREET,335095,393147,,,,,,,,,,,,,,,,,,
,,,,,,,,,,,,,,,,,,,,,,FORMER 152 STANLEY ROAD & SITE ADJ TO 82 LAMBETH ROAD,334774,393071,,,,,,,,,,,,,,,,,,
,,,,,,,,,,,,,,,,,,,,,,LAND AT HERIOT STREET,334660,392769,,,,,,,,,,,,,,,,,,
,,,,,,,,,,,,,,,,,,,,,,5 CARISBROOKE ROAD,335531,393964,,,,,,,,,,,,,,,,,,
,,,,,,,,,,,,,,,,,,,,,,111 MILL LANE L12.,339280,392610,,,,,,,,,,,,,,,,,,
,,,,,,,,,,,,,,,,,,,,,,"ALDER GRANGE, CENTRAL DRIVE. SANDFIELD PARK L12.",340083,392329,,,,,,,,,,,,,,,,,,
,,,,,,,,,,,,,,,,,,,,,,"FORMER KELTON CONVENT, WOODLANDS ROAD",338503,386810,,,,,,,,,,,,,,,,,,
,,,,,,,,,,,,,,,,,,,,,,"SIR THOMAS MOORE RC CHURCH, RUNDLE ROAD",338183,386528,,,,,,,,,,,,,,,,,,
,,,,,,,,,,,,,,,,,,,,,,63 AVONMORE AVENUE L18,339232,387059,,,,,,,,,,,,,,,,,,
,,,,,,,,,,,,,,,,,,,,,,LAND TO REAR OF KELTON LODGE / WOODLANDS ROAD,338418,386814,,,,,,,,,,,,,,,,,,
,,,,,,,,,,,,,,,,,,,,,,"BROUGHTON HOUSE, 37-39 ASHFIELD ROAD L17.",338065,386914,,,,,,,,,,,,,,,,,,
,,,,,,,,,,,,,,,,,,,,,,"PHASES 1, 2&3 THE BOOT ESTATE REGENERATION, NORRIS GREEN",338885,394276,,,,,,,,,,,,,,,,,,
,,,,,,,,,,,,,,,,,,,,,,NORRIS GREEN BOOT ESTATE - phase 1,339317,394255,,,,,,,,,,,,,,,,,,
,,,,,,,,,,,,,,,,,,,,,,LAND AT THE CORNER OF UTTING AVENUE / EAST LEWISHAM ROAD,338820,394630,,,,,,,,,,,,,,,,,,
,,,,,,,,,,,,,,,,,,,,,,275 LONG LANE,338821,395907,,,,,,,,,,,,,,,,,,
,,,,,,,,,,,,,,,,,,,,,,19-21 DERBY LANE,339278,391342,,,,,,,,,,,,,,,,,,
,,,,,,,,,,,,,,,,,,,,,,33 DERBY LANE,339262,391413,,,,,,,,,,,,,,,,,,
,,,,,,,,,,,,,,,,,,,,,,LAND BETWEEN SPEKELANDS & 70 OAKHILL PARK,339786,390539,,,,,,,,,,,,,,,,,,
,,,,,,,,,,,,,,,,,,,,,,LAND AT 6 DERWENT ROAD WEST,338904,391624,,,,,,,,,,,,,,,,,,
,,,,,,,,,,,,,,,,,,,,,,FORMER ALLENBY SQUARE NURSERY SCHOOL. ALLENBY SQUARE / ELMS HOUSE ROAD,339049,390831,,,,,,,,,,,,,,,,,,
,,,,,,,,,,,,,,,,,,,,,,"ST. MARGARET'S PARISH HALL, 2 BELMONT ROAD L6.",337107,392087,,,,,,,,,,,,,,,,,,
,,,,,,,,,,,,,,,,,,,,,,39 CHURCH ROAD L13,338707,391089,,,,,,,,,,,,,,,,,,
,,,,,,,,,,,,,,,,,,,,,,REAR OF 1A-1B DERBY LANE,339282,391236,,,,,,,,,,,,,,,,,,
,,,,,,,,,,,,,,,,,,,,,,LAND AT MILL LANE AT REAR OF 7-21 CUNNINGHAM ROAD L13.,339350,390764,,,,,,,,,,,,,,,,,,
,,,,,,,,,,,,,,,,,,,,,,WAVERTREE HMRI REGENERATION AREA,336854,390250,,,,,,,,,,,,,,,,,,
,,,,,,,,,,,,,,,,,,,,,,16-18 GRINFIELD STREET L7,336513,390051,,,,,,,,,,,,,,,,,,
,,,,,,,,,,,,,,,,,,,,,,"LAND ADJACENT TO WAVERTREE HOUSE, 145 LAWRENCE ROAD L15",338259,389206,,,,,,,,,,,,,,,,,,
,,,,,,,,,,,,,,,,,,,,,,REAR OF THE COMMUNITY CENTRE FREEMAN ST / FEARNSIDE ST,337382,389579,,,,,,,,,,,,,,,,,,
,,,,,,,,,,,,,,,,,,,,,,"WELLINGTON AVENUE SUNDAY SCHOOL, WELLINGTON AVENUE",338035,389086,,,,,,,,,,,,,,,,,,
,,,,,,,,,,,,,,,,,,,,,,LAND ADJ 46 SPOFFORTH ROAD L7,337570,389828,,,,,,,,,,,,,,,,,,
,,,,,,,,,,,,,,,,,,,,,,MAPLE GROVE / FERN GROVE,337230,388724,,,,,,,,,,,,,,,,,,
,,,,,,,,,,,,,,,,,,,,,,"FORMER EARLE ACTIVITIES CENTRE, FREEMAN STREET",337414,389570,,,,,,,,,,,,,,,,,,
,,,,,,,,,,,,,,,,,,,,,,1 LANGTON ROAD,337669,389155,,,,,,,,,,,,,,,,,,
,,,,,,,,,,,,,,,,,,,,,,LAND AT HARBORD STREET & OVERBURY STREET L7.,336680,390056,,,,,,,,,,,,,,,,,,
,,,,,,,,,,,,,,,,,,,,,,LAND ADJACENT TO 36 THORNYCROFT ROAD,337954,389049,,,,,,,,,,,,,,,,,,
,,,,,,,,,,,,,,,,,,,,,,84 VANDYKE STREET L8,337270,388927,,,,,,,,,,,,,,,,,,
,,,,,,,,,,,,,,,,,,,,,,"11-12 NORTH VIEW, LIVERPOOL",336482,390435,,,,,,,,,,,,,,,,,,
,,,,,,,,,,,,,,,,,,,,,,BELLERIVE COLLEGE SITE,336890,388154,,,,,,,,,,,,,,,,,,
,,,,,,,,,,,,,,,,,,,,,,"FORMER TIBER ST SCHOOL, LODGE LANE",336897,388947,,,,,,,,,,,,,,,,,,
,,,,,,,,,,,,,,,,,,,,,,2 PRINCES ROAD,335837,389150,,,,,,,,,,,,,,,,,,
,,,,,,,,,,,,,,,,,,,,,,115-117 WINDSOR STREET,335823,388666,,,,,,,,,,,,,,,,,,
,,,,,,,,,,,,,,,,,,,,,,162-172 HIGH PARK STREET,336315,388507,,,,,,,,,,,,,,,,,,
,,,,,,,,,,,,,,,,,,,,,,VACANT LAND AT KINGSLEY ROAD,336618,389002,,,,,,,,,,,,,,,,,,
,,,,,,,,,,,,,,,,,,,,,,104 LODGE LANE L8.,336947,389034,,,,,,,,,,,,,,,,,,
,,,,,,,,,,,,,,,,,,,,,,127A UPPER STANHOPE STREET,335796,389142,,,,,,,,,,,,,,,,,,
,,,,,,,,,,,,,,,,,,,,,,73 CANNING STREET L8,335904,389501,,,,,,,,,,,,,,,,,,
,,,,,,,,,,,,,,,,,,,,,,COACH HOUSE ADJACENT TO 2 CAIRNS STREET,336406,388771,,,,,,,,,,,,,,,,,,
,,,,,,,,,,,,,,,,,,,,,,"40-50 PERCY STREET AND 53-57 UPPER PARLIAMENT STREET, L8",335636,389243,,,,,,,,,,,,,,,,,,
,,,,,,,,,,,,,,,,,,,,,,1 SUNNYSIDE,336499,388289,,,,,,,,,,,,,,,,,,
,,,,,,,,,,,,,,,,,,,,,,5 PARR ST & WOLSTENHOLME SQUARE & LAND/PREMISES BETWEEN NORTH EDGE WOLS,334819,389975,,,,,,,,,,,,,,,,,,
,,,,,,,,,,,,,,,,,,,,,,LAND AT HILL ST / GRAFTON ST & BRASSEY STREET,335073,388783,,,,,,,,,,,,,,,,,,
,,,,,,,,,,,,,,,,,,,,,,LAND BOUNDED BY SEFTON STREET / PARLIAMENT STREET / STANHOPE STREET / CARYL STREET,334804,388940,,,,,,,,,,,,,,,,,,
,,,,,,,,,,,,,,,,,,,,,,"LAND BOUNDED BY PARK LANE / LIVER STREET & BECKWITH STREET L1,",334514,389756,,,,,,,,,,,,,,,,,,
,,,,,,,,,,,,,,,,,,,,,,LAND AT HURST STREET/SPARLING STREET/TABLEY STREET/WAPPING L1.,334586,389501,,,,,,,,,,,,,,,,,,
,,,,,,,,,,,,,,,,,,,,,,"LAND ADJACENT TO THE KEEL, KINGS PARADE / HALFTIDE WHARF KINGS DOCK",334482,388996,,,,,,,,,,,,,,,,,,
,,,,,,,,,,,,,,,,,,,,,,GREENLAND STREET / NEW BIRD STREET / ST JAMES STREET / ST JAMES COURT,335083,389172,,,,,,,,,,,,,,,,,,
,,,,,,,,,,,,,,,,,,,,,,"FORMER WAREHOUSE SITE, BLUNDELL STREET / KITCHEN STREET L1",334758,389375,,,,,,,,,,,,,,,,,,
,,,,,,,,,,,,,,,,,,,,,,Land at Vine Villa OFF Wood Lane,344881,387574,,,,,,,,,,,,,,,,,,
,,,,,,,,,,,,,,,,,,,,,,19 FULWOOD PARK L17,337419,386219,,,,,,,,,,,,,,,,,,
,,,,,,,,,,,,,,,,,,,,,,1 YEWTREE ROAD L18,341126,387345,,,,,,,,,,,,,,,,,,
,,,,,,,,,,,,,,,,,,,,,,55 ST DOMINGO GROVE L5.,336339,392675,,,,,,,,,,,,,,,,,,
,,,,,,,,,,,,,,,,,,,,,,LAND ADJACENT TO 123 WESTMINSTER ROAD,335256,393549,,,,,,,,,,,,,,,,,,
,,,,,,,,,,,,,,,,,,,,,,2 OLD WOOD LANE,344897,387565,,,,,,,,,,,,,,,,,,
,,,,,,,,,,,,,,,,,,,,,,"LAND ADJACENT TO NO49 BRECKSIDE PARK, L6",337544,392695,,,,,,,,,,,,,,,,,,
,,,,,,,,,,,,,,,,,,,,,,118-124 DUKE STREET & LAND AT CORNER OF DUKE ST / KENT ST / HENRY ST,334977,389773,,,,,,,,,,,,,,,,,,
,,,,,,,,,,,,,,,,,,,,,,"HERCULANEUM QUAY, ROYDEN WAY, RIVERSIDE DRIVE",335343,387346,,,,,,,,,,,,,,,,,,
,,,,,,,,,,,,,,,,,,,,,,FORMER FACTORY GRAFTON ST / PARK ST / CARYL ST,335171,388007,,,,,,,,,,,,,,,,,,
,,,,,,,,,,,,,,,,,,,,,,63 & 65 DUKE STREET / 15 WOLSTENHOLME SQUARE,334782,389925,,,,,,,,,,,,,,,,,,
,,,,,,,,,,,,,,,,,,,,,,16 FLEET STREET CONCERT STEPS. L1,334862,390068,,,,,,,,,,,,,,,,,,
,,,,,,,,,,,,,,,,,,,,,,LAND AT UPPER PITT STREET,334972,389518,,,,,,,,,,,,,,,,,,
,,,,,,,,,,,,,,,,,,,,,,FORMER 406-434 PARK ROAD,336269,387646,,,,,,,,,,,,,,,,,,
,,,,,,,,,,,,,,,,,,,,,,LAND BOUNDED BY HARLOW ST / HAYLOCK CLOSE / MILL STREET,335541,387877,,,,,,,,,,,,,,,,,,
,,,,,,,,,,,,,,,,,,,,,,FORMER 15-37 BESSEMER ST /  102-104 BERESFORD RD /  378-400 MILL STREET,335657,387791,,,,,,,,,,,,,,,,,,
,,,,,,,,,,,,,,,,,,,,,,LAND ON THE CORNER OF MILL STREET/BERESFORD ROAD AND TO THE REAR OF THE FLORENCE INSTITUTE L8,335725,387828,,,,,,,,,,,,,,,,,,
,,,,,,,,,,,,,,,,,,,,,,BUILDING AT CORNER WOOD ST/ BERRY ST/ BOLD ST,335204,389881,,,,,,,,,,,,,,,,,,
,,,,,,,,,,,,,,,,,,,,,,LAND ON THE CORNER OF WARWICK STREET AND SHAFTESBURY STREET L8,335304,388566,,,,,,,,,,,,,,,,,,
,,,,,,,,,,,,,,,,,,,,,,82-84 COCKBURN STREET,335768,387462,,,,,,,,,,,,,,,,,,
,,,,,,,,,,,,,,,,,,,,,,LAND OFF PARR STREET TO THE REAR OF 141 DUKE STREET L1.,335003,389825,,,,,,,,,,,,,,,,,,
,,,,,,,,,,,,,,,,,,,,,,LAND ADJACENT TO 113 NORTHUMBERLAND STREET,335649,388491,,,,,,,,,,,,,,,,,,
,,,,,,,,,,,,,,,,,,,,,,"3A GRANVILLE ROAD, GARSTON",340272,384833,,,,,,,,,,,,,,,,,,
,,,,,,,,,,,,,,,,,,,,,,"LAND ADJACENT TO LINNET HOUSE,LINNET LANE LIVERPOOL, L8",337004,388070,,,,,,,,,,,,,,,,,,
,,,,,,,,,,,,,,,,,,,,,,FORMER ST AUGUSTINES HOME / AIGBURTH ROAD,337133,387072,,,,,,,,,,,,,,,,,,
,,,,,,,,,,,,,,,,,,,,,,"LAND ADJACENT TO 28 AIGBURTH DRIVE AND AT REAR OF 2-18 EASTFIELD DRIVE, LIVERPOOL, L17",337498,387063,,,,,,,,,,,,,,,,,,
,,,,,,,,,,,,,,,,,,,,,,REAR OF 1 LIVINGSTON DRIVE SOUTH. L17,337353,387292,,,,,,,,,,,,,,,,,,
,,,,,,,,,,,,,,,,,,,,,,"Land at Silverdale Avenue, Hilberry Avenue, Sutton Street
Liverpool 13",338248,392118,,,,,,,,,,,,,,,,,,
,,,,,,,,,,,,,,,,,,,,,,"FORMER GARAGE PREMISES AT 94 TOWNSEND LANE, (ON CORNER OF DARMONDS GREEN AVENUE), LIVERPOOL, L6",337523,393101,,,,,,,,,,,,,,,,,,
,,,,,,,,,,,,,,,,,,,,,,78/78A HILBERRY AVENUE,338199,392167,,,,,,,,,,,,,,,,,,
,,,,,,,,,,,,,,,,,,,,,,13 TOWNSEND LANE / 1A ABBEY ROAD,337020,392841,,,,,,,,,,,,,,,,,,
,,,,,,,,,,,,,,,,,,,,,,24 LOWER BRECK ROAD L6,337549,392324,,,,,,,,,,,,,,,,,,
,,,,,,,,,,,,,,,,,,,,,,REAR OF 53 KREMLIN DRIVE L13,339123,392287,,,,,,,,,,,,,,,,,,
,,,,,,,,,,,,,,,,,,,,,,WALTON HOSPITAL SITE / RICE LANE,335806,395406,,,,,,,,,,,,,,,,,,
,,,,,,,,,,,,,,,,,,,,,,LAND AT 15 BROOK ROAD,336303,395945,,,,,,,,,,,,,,,,,,
,,,,,,,,,,,,,,,,,,,,,,45A CHAPEL AVENUE L9,336436,396387,,,,,,,,,,,,,,,,,,
,,,,,,,,,,,,,,,,,,,,,,LAND ADJACENT TO 25 PALACE ROAD,336399,396940,,,,,,,,,,,,,,,,,,
,,,,,,,,,,,,,,,,,,,,,,"FORMER WAVERTREE TRAIN STATION APPROACH, LAND AT WELLINGTON ROAD",338431,389291,,,,,,,,,,,,,,,,,,
,,,,,,,,,,,,,,,,,,,,,,"NEWSTEAD FARM, QUARRY STREET L25.",341619,387278,,,,,,,,,,,,,,,,,,
,,,,,,,,,,,,,,,,,,,,,,THE FUR & FEATHERS SOCIAL CLUB. MAB LANE L12.,341850,393215,,,,,,,,,,,,,,,,,,
,,,,,,,,,,,,,,,,,,,,,,SITE IN LAUREL ROAD ADJACENT TO No:17,337861,390905,,,,,,,,,,,,,,,,,,
,,,,,,,,,,,,,,,,,,,,,,12-30 PARLIAMENT STREET,334890,388996,,,,,,,,,,,,,,,,,,
,,,,,,,,,,,,,,,,,,,,,,LAND AT GRENVILLE STREET SOUTH / UPPER PITT STREET,334972,389557,,,,,,,,,,,,,,,,,,
,,,,,,,,,,,,,,,,,,,,,,"32-34 PARLIAMENT STREET, L8",334937,389004,,,,,,,,,,,,,,,,,,
,,,,,,,,,,,,,,,,,,,,,,"FORMER COUNCIL DEPOT SITE, LYDIA ANN STREET",334882,389768,,,,,,,,,,,,,,,,,,
,,,,,,,,,,,,,,,,,,,,,,LAND BETWEEN BRIDGEWATER STREET / SIMPSON STREET / WATKINSON STREET,334793,389288,,,,,,,,,,,,,,,,,,
,,,,,,,,,,,,,,,,,,,,,,"3-5 YORK STREET, L1",334750,389884,,,,,,,,,,,,,,,,,,
,,,,,,,,,,,,,,,,,,,,,,LAND TO SOUTH OF PARK STREET BTWN UPPER ESSEX ST / TOXTETH ST,335554,388220,,,,,,,,,,,,,,,,,,
,,,,,,,,,,,,,,,,,,,,,,349 MILL STREET/44 HARLOW STREET,335584,387931,,,,,,,,,,,,,,,,,,
,,,,,,,,,,,,,,,,,,,,,,80 RODNEY STREET,335318,389666,,,,,,,,,,,,,,,,,,
,,,,,,,,,,,,,,,,,,,,,,9-19 BOLD STREET,334967,390130,,,,,,,,,,,,,,,,,,
,,,,,,,,,,,,,,,,,,,,,,LAND BETWEEN NOS 10-30 NEW HENDERSON STREET L8,335237,388473,,,,,,,,,,,,,,,,,,
,,,,,,,,,,,,,,,,,,,,,,"BERESFORD ARMS, 158 BERESFORD ROAD",335585,387640,,,,,,,,,,,,,,,,,,
,,,,,,,,,,,,,,,,,,,,,,LAND ON THE CORNER OF WARWICK STREET & PRINCE WILLIAM STREET AND TO THE REAR OF RETAIL UNITS L8,335298,388618,,,,,,,,,,,,,,,,,,
,,,,,,,,,,,,,,,,,,,,,,31 RODNEY STREET,335405,389834,,,,,,,,,,,,,,,,,,
,,,,,,,,,,,,,,,,,,,,,,101-103 BOLD STREET,335196,389934,,,,,,,,,,,,,,,,,,
,,,,,,,,,,,,,,,,,,,,,,LAND BETWEEN NEW HENDERSON STREET & SHAFTESBURY STREET L8,335260,388528,,,,,,,,,,,,,,,,,,
,,,,,,,,,,,,,,,,,,,,,,30 SLATER STREET,334926,389927,,,,,,,,,,,,,,,,,,
,,,,,,,,,,,,,,,,,,,,,,"441 MILL STREET, L8",335799,387730,,,,,,,,,,,,,,,,,,
,,,,,,,,,,,,,,,,,,,,,,108 WOOD STREET,335194,389861,,,,,,,,,,,,,,,,,,
,,,,,,,,,,,,,,,,,,,,,,FORMER 181-185 DUKE STREET,335159,389720,,,,,,,,,,,,,,,,,,
,,,,,,,,,,,,,,,,,,,,,,44-46 BERRY STREET,335176,389750,,,,,,,,,,,,,,,,,,
,,,,,,,,,,,,,,,,,,,,,,45 RODNEY STREET,335394,389742,,,,,,,,,,,,,,,,,,
,,,,,,,,,,,,,,,,,,,,,,"437 MILL STREET, L8",335795,387740,,,,,,,,,,,,,,,,,,
,,,,,,,,,,,,,,,,,,,,,,22 BERRY STREET L1,335194,389824,,,,,,,,,,,,,,,,,,
,,,,,,,,,,,,,,,,,,,,,,51 RODNEY STREET,335377,389685,,,,,,,,,,,,,,,,,,
,,,,,,,,,,,,,,,,,,,,,,39 RODNEY STREET,335401,389779,,,,,,,,,,,,,,,,,,
,,,,,,,,,,,,,,,,,,,,,,91 ROSCOE STREET,335298,389671,,,,,,,,,,,,,,,,,,
,,,,,,,,,,,,,,,,,,,,,,72 RODNEY STREET,335334,389718,,,,,,,,,,,,,,,,,,
,,,,,,,,,,,,,,,,,,,,,,1 BAILEY STREET,335033,389588,,,,,,,,,,,,,,,,,,
,,,,,,,,,,,,,,,,,,,,,,63 ROSCOE STREET/REAR OF 50 RODNEY STREET L1,335331,389807,,,,,,,,,,,,,,,,,,
,,,,,,,,,,,,,,,,,,,,,,56 PARR STREET,334992,389824,,,,,,,,,,,,,,,,,,
,,,,,,,,,,,,,,,,,,,,,,LAND AT SOUTH EAST CORNER SPEKE HALL AVE,342642,383597,,,,,,,,,,,,,,,,,,
,,,,,,,,,,,,,,,,,,,,,,5&6 ALWAIN GREEN,344964,382792,,,,,,,,,,,,,,,,,,
,,,,,,,,,,,,,,,,,,,,,,30&31 ALWAIN GREEN,344941,382905,,,,,,,,,,,,,,,,,,
,,,,,,,,,,,,,,,,,,,,,,23 AIGBURTH ROAD AND 34 ALEXANDRA DRIVE,336906,387440,,,,,,,,,,,,,,,,,,
,,,,,,,,,,,,,,,,,,,,,,"MOREDALE CHILDRENS HOME, 18 LIVINGSTON DRIVE",337200,387261,,,,,,,,,,,,,,,,,,
,,,,,,,,,,,,,,,,,,,,,,LAND WITHIN TA CENTRE AIGBURTH ROAD,337213,387001,,,,,,,,,,,,,,,,,,
,,,,,,,,,,,,,,,,,,,,,,LAND AT BUCKLAND STREET,336555,387090,,,,,,,,,,,,,,,,,,
,,,,,,,,,,,,,,,,,,,,,,LAND TO THE SIDE OF 27 ALEXANDRA DRIVE,336922,387560,,,,,,,,,,,,,,,,,,
,,,,,,,,,,,,,,,,,,,,,,25 ANNERSLEY ROAD,337404,386482,,,,,,,,,,,,,,,,,,
,,,,,,,,,,,,,,,,,,,,,,"THE COTTAGE, 13 FULWOOD PARK",337550,386426,,,,,,,,,,,,,,,,,,
,,,,,,,,,,,,,,,,,,,,,,13a MANNERING ROAD,336958,387785,,,,,,,,,,,,,,,,,,
,,,,,,,,,,,,,,,,,,,,,,15-21 LARK LANE,337111,387507,,,,,,,,,,,,,,,,,,
,,,,,,,,,,,,,,,,,,,,,,"Land at Junction Fulwood Road
Larkfield Road and Annesley Road",337329,386505,,,,,,,,,,,,,,,,,,
,,,,,,,,,,,,,,,,,,,,,,"BANKFIELD COLLEGE, BANKFIELD ROAD",338753,392472,,,,,,,,,,,,,,,,,,
,,,,,,,,,,,,,,,,,,,,,,"439 West Derby Road, L6",337656,392220,,,,,,,,,,,,,,,,,,
,,,,,,,,,,,,,,,,,,,,,,"TRINITY METHODIST CHURCH, WEST DERBY ROAD, L6",337753,392271,,,,,,,,,,,,,,,,,,
,,,,,,,,,,,,,,,,,,,,,,90 TOWNSEND LANE,337269,392925,,,,,,,,,,,,,,,,,,
,,,,,,,,,,,,,,,,,,,,,,10 DENMAN DRIVE L6,337191,391904,,,,,,,,,,,,,,,,,,
,,,,,,,,,,,,,,,,,,,,,,1-5 DORSET ROAD L6.,337888,392345,,,,,,,,,,,,,,,,,,
,,,,,,,,,,,,,,,,,,,,,,65 KREMLIN DRIVE,339177,392315,,,,,,,,,,,,,,,,,,
,,,,,,,,,,,,,,,,,,,,,,22 JUDGES DRIVE,337282,391749,,,,,,,,,,,,,,,,,,
,,,,,,,,,,,,,,,,,,,,,,61 KREMLIN DRIVE,339159,392305,,,,,,,,,,,,,,,,,,
,,,,,,,,,,,,,,,,,,,,,,LAND ADJACENT TO 58 CURATE ROAD,337257,393186,,,,,,,,,,,,,,,,,,
,,,,,,,,,,,,,,,,,,,,,,10 WINDSOR ROAD,337993,392404,,,,,,,,,,,,,,,,,,
,,,,,,,,,,,,,,,,,,,,,,11 KREMLIN DRIVE,338942,392207,,,,,,,,,,,,,,,,,,
,,,,,,,,,,,,,,,,,,,,,,23 WALTON VALE L9,336308,396626,,,,,,,,,,,,,,,,,,
,,,,,,,,,,,,,,,,,,,,,,71 ORREL LANE,335921,396800,,,,,,,,,,,,,,,,,,
,,,,,,,,,,,,,,,,,,,,,,"LAND TO SOUTH OF ENTERPRISE WAY, WAVERTREE TECHNOLOGY PARK",338328,389928,,,,,,,,,,,,,,,,,,
,,,,,,,,,,,,,,,,,,,,,,"CHILLIES 57-61 HIGH STREET, L15",338968,389507,,,,,,,,,,,,,,,,,,
,,,,,,,,,,,,,,,,,,,,,,"THATCHED HOUSE, 68 HIGH STREET",339008,389445,,,,,,,,,,,,,,,,,,
,,,,,,,,,,,,,,,,,,,,,,"LAND TO THE REAR OF THE OAKS P.H., LINGMELL ROAD L12.",339604,393939,,,,,,,,,,,,,,,,,,
,,,,,,,,,,,,,,,,,,,,,,LAND TO THE REAR OF 107 ALMONDS GREEN,339219,393568,,,,,,,,,,,,,,,,,,
,,,,,,,,,,,,,,,,,,,,,,THE CRYING TREE GRANGE LANE,342122,388460,,,,,,,,,,,,,,,,,,
,,,,,,,,,,,,,,,,,,,,,,"SITE OF FORMER BREWERY, GATEACRE BROW",342745,387673,,,,,,,,,,,,,,,,,,
,,,,,,,,,,,,,,,,,,,,,,"GRANGE HOLLIES, 35 GRANGE LANE",342219,388369,,,,,,,,,,,,,,,,,,
,,,,,,,,,,,,,,,,,,,,,,28a-28d GATEACRE BROW,342695,387695,,,,,,,,,,,,,,,,,,
,,,,,,,,,,,,,,,,,,,,,,"15 HEADBOURNE CLOSE, L25",341899,389125,,,,,,,,,,,,,,,,,,
,,,,,,,,,,,,,,,,,,,,,,Land adjacent to 1 Winhill Liverpool L25,342255,387579,,,,,,,,,,,,,,,,,,
,,,,,,,,,,,,,,,,,,,,,,"WOOLTON LIBRARY, ALLERTON ROAD",342169,386670,,,,,,,,,,,,,,,,,,
,,,,,,,,,,,,,,,,,,,,,,HALHYN 17 MOUNT PARK,342272,387085,,,,,,,,,,,,,,,,,,
,,,,,,,,,,,,,,,,,,,,,,33 RODICK STREET,341960,386732,,,,,,,,,,,,,,,,,,
,,,,,,,,,,,,,,,,,,,,,,"49 RUSCOMBE ROAD, L14",342057,392474,,,,,,,,,,,,,,,,,,
,,,,,,,,,,,,,,,,,,,,,,"BLACK ANGUS, BARONS HEY",342005,393615,,,,,,,,,,,,,,,,,,
,,,,,,,,,,,,,,,,,,,,,,LAND TO THE SIDE OF HARBERN CLOSE,340602,393016,,,,,,,,,,,,,,,,,,
,,,,,,,,,,,,,,,,,,,,,,14 COLQUITT STREET,335104,389877,,,,,,,,,,,,,,,,,,
,,,,,,,,,,,,,,,,,,,,,,"FORMER ST BERNARDS CHURCH, 95a KINGSLEY ROAD",336614,389052,,,,,,,,,,,,,,,,,,
,,,,,,,,,,,,,,,,,,,,,,ST MALACHY'S PRIMARY SCHOOL,335319,388261,,,,,,,,,,,,,,,,,,
,,,,,,,,,,,,,,,,,,,,,,GREAT GEORGE ST DEVELOPMENT AREA,335155,389355,,,,,,,,,,,,,,,,,,
,,,,,,,,,,,,,,,,,,,,,,9-27 FREEMASONS ROW,334462,391202,,,,,,,,,,,,,,,,,,
,,,,,,,,,,,,,,,,,,,,,,"SUMMERS ROAD, BRUNSWICK BUSINESS PARK L3.",334862,388046,,,,,,,,,,,,,,,,,,
,,,,,,,,,,,,,,,,,,,,,,WAREHOUSE AT 2-22 NEW BIRD ST / JORDAN STREET,335008,389197,,,,,,,,,,,,,,,,,,
,,,,,,,,,,,,,,,,,,,,,,18-24 SEEL STREET,334769,390010,,,,,,,,,,,,,,,,,,
,,,,,,,,,,,,,,,,,,,,,,LAND BETWEEN SEFTON STREET AND CARYL STREET,335062,388001,,,,,,,,,,,,,,,,,,
,,,,,,,,,,,,,,,,,,,,,,LAND AT HILL STREET,335141,388819,,,,,,,,,,,,,,,,,,
,,,,,,,,,,,,,,,,,,,,,,ROSE PLACE,335069,391445,,,,,,,,,,,,,,,,,,
,,,,,,,,,,,,,,,,,,,,,,56 NORFOLK STREET,334912,389316,,,,,,,,,,,,,,,,,,
,,,,,,,,,,,,,,,,,,,,,,LAND AT MONARCHS QUAY,334441,389140,,,,,,,,,,,,,,,,,,
,,,,,,,,,,,,,,,,,,,,,,"BUILDINGS, CLEGG STREET",335153,391725,,,,,,,,,,,,,,,,,,
,,,,,,,,,,,,,,,,,,,,,,LAND BOUNDED BY / LEMON STREET / HERIOT STREET / GREAT MERSEY STREET,334702,392834,,,,,,,,,,,,,,,,,,
,,,,,,,,,,,,,,,,,,,,,,LAND AND BUILDING AT JUNCTION OF NORFOLK ST / WATKINSON STREET,334711,389196,,,,,,,,,,,,,,,,,,
,,,,,,,,,,,,,,,,,,,,,,8-10 STANLEY ST,334427,390543,,,,,,,,,,,,,,,,,,
,,,,,,,,,,,,,,,,,,,,,,12-14 MOSS STREET,335793,390937,,,,,,,,,,,,,,,,,,
,,,,,,,,,,,,,,,,,,,,,,"FORMER PRINCESS BINGO HALL, SELWYN STREET / BREWSTER STREET",335101,394351,,,,,,,,,,,,,,,,,,
,,,,,,,,,,,,,,,,,,,,,,"COPPERAS HILL POLICE STATION, COPPERAS HILL",335462,390616,,,,,,,,,,,,,,,,,,
,,,,,,,,,,,,,,,,,,,,,,Land at Walton Road /Woodhouse Close,335471,393365,,,,,,,,,,,,,,,,,,
,,,,,,,,,,,,,,,,,,,,,,"PARK COURT, PARK STREET",335621,388229,,,,,,,,,,,,,,,,,,
,,,,,,,,,,,,,,,,,,,,,,FORMER 321-325 SCOTLAND RD,334816,392155,,,,,,,,,,,,,,,,,,
,,,,,,,,,,,,,,,,,,,,,,"FORMER CLARENCE HOTEL, UTTING AVENUE,",337278,393913,,,,,,,,,,,,,,,,,,
,,,,,,,,,,,,,,,,,,,,,,"ST AIDEN'S CHURCH, SOUTH PARADE, SPEKE",344129,382934,,,,,,,,,,,,,,,,,,
,,,,,,,,,,,,,,,,,,,,,,LAND AT 1 LONGMOOR LANE,336555,396881,,,,,,,,,,,,,,,,,,
,,,,,,,,,,,,,,,,,,,,,,2-8 CHURCH STREET,334580,390268,,,,,,,,,,,,,,,,,,
,,,,,,,,,,,,,,,,,,,,,,"LAND BOUNDED BY HALL LANE, WARBRECK MOOR AND DANEHURST RD",336637,397063,,,,,,,,,,,,,,,,,,
,,,,,,,,,,,,,,,,,,,,,,FORMER ST FRANCIS DE SALES JUNIOR SCHOOL SITE / CARISBROOKE ROAD,335448,394125,,,,,,,,,,,,,,,,,,
,,,,,,,,,,,,,,,,,,,,,,"217-229 COUNTY ROAD, L4",335797,394728,,,,,,,,,,,,,,,,,,
,,,,,,,,,,,,,,,,,,,,,,Former site Of Riverview Heights (1921),338892,385271,,,,,,,,,,,,,,,,,,
,,,,,,,,,,,,,,,,,,,,,,LAND AT 20-28 GLAMIS ROAD,338007,392860,,,,,,,,,,,,,,,,,,
,,,,,,,,,,,,,,,,,,,,,,425 WEST DERBY ROAD,337605,392196,,,,,,,,,,,,,,,,,,
,,,,,,,,,,,,,,,,,,,,,,56 DERWENT ROAD EAST,339207,391737,,,,,,,,,,,,,,,,,,
,,,,,,,,,,,,,,,,,,,,,,"UNION HOUSE, VICTORIA STREET",334453,390491,,,,,,,,,,,,,,,,,,
,,,,,,,,,,,,,,,,,,,,,,363 PRESCOT ROAD,338866,391353,,,,,,,,,,,,,,,,,,
,,,,,,,,,,,,,,,,,,,,,,LAND TO NORTH WEST OF JUNCTION OF EPWORTH STREET / PRESCOT STREET,335828,390857,,,,,,,,,,,,,,,,,,
,,,,,,,,,,,,,,,,,,,,,,QUEENS ARMS 202 WALTON ROAD,335519,393736,,,,,,,,,,,,,,,,,,
,,,,,,,,,,,,,,,,,,,,,,147 DUKE STREET,335008,389804,,,,,,,,,,,,,,,,,,
,,,,,,,,,,,,,,,,,,,,,,4 HAMPSTEAD ROAD,337302,391461,,,,,,,,,,,,,,,,,,
,,,,,,,,,,,,,,,,,,,,,,230 ALLERTON ROAD,337024,390453,,,,,,,,,,,,,,,,,,
,,,,,,,,,,,,,,,,,,,,,,12 CLIFTON ROAD,337719,392318,,,,,,,,,,,,,,,,,,
,,,,,,,,,,,,,,,,,,,,,,116 TOWN ROW,340035,392892,,,,,,,,,,,,,,,,,,
,,,,,,,,,,,,,,,,,,,,,,396 LONGMOOR LANE,337587,397257,,,,,,,,,,,,,,,,,,
,,,,,,,,,,,,,,,,,,,,,,Vauxhall Business Centre,334220,391293,,,,,,,,,,,,,,,,,,
,,,,,,,,,,,,,,,,,,,,,,22 DEAN PATEY COURT,335209,389540,,,,,,,,,,,,,,,,,,
,,,,,,,,,,,,,,,,,,,,,,113 BRECK ROAD,336778,392488,,,,,,,,,,,,,,,,,,
,,,,,,,,,,,,,,,,,,,,,,52 KEMPSTON STREET / 21 GILDART STREET,335526,390838,,,,,,,,,,,,,,,,,,
,,,,,,,,,,,,,,,,,,,,,,THE BOB PAISLEY COURT. 91 HARTNUP STREET L5.,336067,392873,,,,,,,,,,,,,,,,,,
,,,,,,,,,,,,,,,,,,,,,,SITE AT 6 BOSWELL STREET L8,336997,389155,,,,,,,,,,,,,,,,,,
,,,,,,,,,,,,,,,,,,,,,,"THE PINEAPPLE HOTEL, 258 PARK ROAD",335932,387958,,,,,,,,,,,,,,,,,,
,,,,,,,,,,,,,,,,,,,,,,275 MENLOVE AVENUE,339889,387524,,,,,,,,,,,,,,,,,,
