address,address-text,deliverable,end-date,entry-date,hazardous-substances,hectares,latitude,longitude,maximum-net-dwellings,minimum-net-dwellings,notes,organisation,ownership-status,planning-permission-date,planning-permission-history,planning-permission-status,planning-permission-type,site,OrganisationURI,OrganisationLabel,SiteReference,SiteNameAddress,GeoX,GeoY,SiteplanURL,Hectares,OwnershipStatus,HazardousSubstances,PlanningStatus,PermissionType,PermissionDate,PlanningHistory,MinNetDwellings,NetDwellingsRangeFrom,NetDwellingsRangeTo,Deliverable,Notes,FirstAddedDate,LastUpdatedDate,EndDate,site-plan-url,start-date
,,,,,,,,,,,,,,,,,,,http://opendatacommunities.org/id/unitary-authority/redcar-and-cleveland,Redcar and Cleveland Borough Council,464,"Bridge House, Bridge Court, Normanby",-1.159834262,54.55582927,https://wca.redclev.net/resident/planning-and-building/local-plan/Local%20Plan%20Documents/Brownfield%20Land%20Register%202018%20site%20plans/464.pdf,0.17,not owned by a public authority,,permissioned,,,,12,,,,,10/11/2017,11/12/2018,,,
,,,,,,,,,,,,,,,,,,,http://opendatacommunities.org/id/unitary-authority/redcar-and-cleveland,Redcar and Cleveland Borough Council,136,"Wilton Lane, Guisborough",-1.054712451,54.53952405,https://wca.redclev.net/resident/planning-and-building/local-plan/Local%20Plan%20Documents/Brownfield%20Land%20Register%202018%20site%20plans/136.pdf,0.27,not owned by a public authority,,permissioned,,,,14,,,,Local Plan Housing Allocation,10/11/2017,11/12/2018,,,
,,,,,,,,,,,,,,,,,,,http://opendatacommunities.org/id/unitary-authority/redcar-and-cleveland,Redcar and Cleveland Borough Council,387,"Land Adjacent Ryehills School, Redcar",-1.057576039,54.6050446,https://wca.redclev.net/resident/planning-and-building/local-plan/Local%20Plan%20Documents/Brownfield%20Land%20Register%202018%20site%20plans/387.pdf,1.4,owned by a public authority,,permissioned,,,,49,,,,Local Plan Housing Allocation,10/11/2017,11/12/2018,,,
,,,,,,,,,,,,,,,,,,,http://opendatacommunities.org/id/unitary-authority/redcar-and-cleveland,Redcar and Cleveland Borough Council,360,"Former Rosecroft School, Rosecroft Lane, Loftus",-0.891034741,54.55070842,https://wca.redclev.net/resident/planning-and-building/local-plan/Local%20Plan%20Documents/Brownfield%20Land%20Register%202018%20site%20plans/360.pdf,1.38,owned by a public authority,,permissioned,,,,69,,,,Part of wider local plan allocation of  with former playing field for 100 dwellings over 3.1ha.,10/11/2017,11/12/2018,,,
,,,,,,,,,,,,,,,,,,,http://opendatacommunities.org/id/unitary-authority/redcar-and-cleveland,Redcar and Cleveland Borough Council,389,"Hummersea Hills Phase 1, Loftus",-0.886762733,54.55768836,https://wca.redclev.net/resident/planning-and-building/local-plan/Local%20Plan%20Documents/Brownfield%20Land%20Register%202018%20site%20plans/389.pdf,0.41,not owned by a public authority,,permissioned,,,,17,,,,,10/11/2017,11/12/2018,,,
,,,,,,,,,,,,,,,,,,,http://opendatacommunities.org/id/unitary-authority/redcar-and-cleveland,Redcar and Cleveland Borough Council,392,"Hummersea Hills Phase 2, Loftus",-0.889832332,54.55740199,https://wca.redclev.net/resident/planning-and-building/local-plan/Local%20Plan%20Documents/Brownfield%20Land%20Register%202018%20site%20plans/392.pdf,3.11,not owned by a public authority,,permissioned,,,,104,,,,Site excludes 1.0ha associated public open space which is part of the planning permission and is adjacent to the site.,10/11/2017,11/12/2018,,,
,,,,,,,,,,,,,,,,,,,http://opendatacommunities.org/id/unitary-authority/redcar-and-cleveland,Redcar and Cleveland Borough Council,457,"Former Abattoir Site, Boosbeck",-0.983965932,54.54463979,https://wca.redclev.net/resident/planning-and-building/local-plan/Local%20Plan%20Documents/Brownfield%20Land%20Register%202018%20site%20plans/457.pdf,0.81,not owned by a public authority,,permissioned,,,,31,,,,Local Plan Housing Allocation,10/11/2017,11/12/2018,,,
,,,,,,,,,,,,,,,,,,,http://opendatacommunities.org/id/unitary-authority/redcar-and-cleveland,Redcar and Cleveland Borough Council,456,"Former Handale Primary School, Loftus",-0.892608846,54.5542369,https://wca.redclev.net/resident/planning-and-building/local-plan/Local%20Plan%20Documents/Brownfield%20Land%20Register%202018%20site%20plans/456.pdf,0.28,owned by a public authority,,not permissioned,,,,10,,10,,Local Plan Housing Allocation,10/11/2017,11/12/2018,,,
,,,,,,,,,,,,,,,,,,,http://opendatacommunities.org/id/unitary-authority/redcar-and-cleveland,Redcar and Cleveland Borough Council,376,"Land at Park Lane, Guisborough",-1.05726839,54.53659616,https://wca.redclev.net/resident/planning-and-building/local-plan/Local%20Plan%20Documents/Brownfield%20Land%20Register%202018%20site%20plans/376.pdf,0.48,owned by a public authority,,not permissioned,,,,40,,40,,Local Plan Housing Allocation,10/11/2017,11/12/2018,,,
,,,,,,,,,,,,,,,,,,,http://opendatacommunities.org/id/unitary-authority/redcar-and-cleveland,Redcar and Cleveland Borough Council,405,"Land at Stanghow Road, Skelton",-0.972612912,54.56026274,https://wca.redclev.net/resident/planning-and-building/local-plan/Local%20Plan%20Documents/Brownfield%20Land%20Register%202018%20site%20plans/405.pdf,0.33,not owned by a public authority,,not permissioned,,,,10,,10,,Local Plan Housing Allocation,10/11/2017,11/12/2018,,,
,,,,,,,,,,,,,,,,,,,http://opendatacommunities.org/id/unitary-authority/redcar-and-cleveland,Redcar and Cleveland Borough Council,472,"Former Salvation Army Hall, Bolckow Street, Eston",-1.140836847,54.55776298,https://wca.redclev.net/resident/planning-and-building/local-plan/Local%20Plan%20Documents/Brownfield%20Land%20Register%202018%20site%20plans/472.pdf,0.18,not owned by a public authority,,permissioned,,,,6,,,,,10/11/2017,11/12/2018,,,
,,,,,,,,,,,,,,,,,,,http://opendatacommunities.org/id/unitary-authority/redcar-and-cleveland,Redcar and Cleveland Borough Council,135,"Low Grange Farm (part), South Bank",-1.165608144,54.57673748,https://wca.redclev.net/resident/planning-and-building/local-plan/Local%20Plan%20Documents/Brownfield%20Land%20Register%202018%20site%20plans/135.pdf,11.2,not owned by a public authority,,permissioned,,,,438,,,,Local Plan Housing Allocation,11/12/2018,11/12/2018,,,
,,,,,,,,,,,,,,,,,,,http://opendatacommunities.org/id/unitary-authority/redcar-and-cleveland,Redcar and Cleveland Borough Council,452,"Former Eston Park School (part), Teesville",-1.159298327,54.56610691,https://wca.redclev.net/resident/planning-and-building/local-plan/Local%20Plan%20Documents/Brownfield%20Land%20Register%202018%20site%20plans/452.pdf,1.15,owned by a public authority,,not permissioned,,,,40,,40,,,11/12/2018,11/12/2018,,,
,,,,,,,,,,,,,,,,,,,http://opendatacommunities.org/id/unitary-authority/redcar-and-cleveland,Redcar and Cleveland Borough Council,413,"Wykeham Close, Redcar",-1.07463951,54.59601855,https://wca.redclev.net/resident/planning-and-building/local-plan/Local%20Plan%20Documents/Brownfield%20Land%20Register%202018%20site%20plans/413.pdf,0.55,not owned by a public authority,,not permissioned,,,,19,,19,,,11/12/2018,11/12/2018,,,
,,,,,,,,,,,,,,,,,,,http://opendatacommunities.org/id/unitary-authority/redcar-and-cleveland,Redcar and Cleveland Borough Council,476,"Layland House, North Skelton",-0.964549358,54.55809101,https://wca.redclev.net/resident/planning-and-building/local-plan/Local%20Plan%20Documents/Brownfield%20Land%20Register%202018%20site%20plans/476.pdf,0.18,not owned by a public authority,,permissioned,,,,6,,,,,11/12/2018,11/12/2018,,,
,,,,,,,,,,,,,,,,,,,http://opendatacommunities.org/id/unitary-authority/redcar-and-cleveland,Redcar and Cleveland Borough Council,519,"1 Pearl Street, Saltburn",-0.972868379,54.5845305,https://wca.redclev.net/resident/planning-and-building/local-plan/Local%20Plan%20Documents/Brownfield%20Land%20Register%202018%20site%20plans/519.pdf,0.02,not owned by a public authority,,permissioned,,,,10,,,,,11/12/2018,11/12/2018,,,
,,,,,,,,,,,,,,,,,,,http://opendatacommunities.org/id/unitary-authority/redcar-and-cleveland,Redcar and Cleveland Borough Council,460,"Parklands Public House, Normanby",-1.164363936,54.55662454,https://wca.redclev.net/resident/planning-and-building/local-plan/Local%20Plan%20Documents/Brownfield%20Land%20Register%202018%20site%20plans/460.pdf,0.46,not owned by a public authority,,not permissioned,,,,12,,12,,,11/12/2018,11/12/2018,,,
,,,,,,,,,,,,,,,,,,,http://opendatacommunities.org/id/unitary-authority/redcar-and-cleveland,Redcar and Cleveland Borough Council,18,"Spencerbeck Farrm (part), Ormesby",-1.1680348,54.55327964,https://wca.redclev.net/resident/planning-and-building/local-plan/Local%20Plan%20Documents/Brownfield%20Land%20Register%202018%20site%20plans/018.pdf,0.96,not owned by a public authority,,permissioned,,,,20,,,,Local Plan Housing Allocation,11/12/2018,11/12/2018,,,
,,,,,,,,,,,,,,,,,,,http://opendatacommunities.org/id/unitary-authority/redcar-and-cleveland,Redcar and Cleveland Borough Council,345,"Former Olympia Gym, Redcar",-1.072135523,54.62038973,https://wca.redclev.net/resident/planning-and-building/local-plan/Local%20Plan%20Documents/Brownfield%20Land%20Register%202018%20site%20plans/345.pdf,0.09,not owned by a public authority,,permissioned,,,,10,,,,,11/12/2018,11/12/2018,,,
,,,,,,,,,,,,,,,,,,,http://opendatacommunities.org/id/unitary-authority/redcar-and-cleveland,Redcar and Cleveland Borough Council,529,"Former Royal Standard Public House, Redcar",-1.068347147,54.61809597,https://wca.redclev.net/resident/planning-and-building/local-plan/Local%20Plan%20Documents/Brownfield%20Land%20Register%202018%20site%20plans/529.pdf,0.02,not owned by a public authority,,not permissioned,,,,5,,5,,,11/12/2018,11/12/2018,,,
,,,,,,,,,,,,,,,,,,,http://opendatacommunities.org/id/unitary-authority/redcar-and-cleveland,Redcar and Cleveland Borough Council,530,"Former Cleveland Bay Public House, Eston",-1.141070456,54.55768375,https://wca.redclev.net/resident/planning-and-building/local-plan/Local%20Plan%20Documents/Brownfield%20Land%20Register%202018%20site%20plans/530.pdf,0.01,not owned by a public authority,,permissioned,,,,9,,,,,11/12/2018,11/12/2018,,,
,,,,,,,,,,,,,,,,,,,http://opendatacommunities.org/id/unitary-authority/redcar-and-cleveland,Redcar and Cleveland Borough Council,531,"Former RAFA Club, Redcar",-1.074607089,54.61998625,https://wca.redclev.net/resident/planning-and-building/local-plan/Local%20Plan%20Documents/Brownfield%20Land%20Register%202018%20site%20plans/531.pdf,0.02,not owned by a public authority,,permissioned,,,,6,,,,,11/12/2018,11/12/2018,,,
,,,,,,,,,,,,,,,,,,,http://opendatacommunities.org/id/unitary-authority/redcar-and-cleveland,Redcar and Cleveland Borough Council,528,"Land South of The Dunes, Redcar",-0.958184686,54.59882705,https://wca.redclev.net/resident/planning-and-building/local-plan/Local%20Plan%20Documents/Brownfield%20Land%20Register%202018%20site%20plans/528.pdf,0.19,owned by a public authority,,not permissioned,,,,7,,7,,,11/12/2018,11/12/2018,,,
,,,,,,,,,,,,,,,,,,,http://opendatacommunities.org/id/unitary-authority/redcar-and-cleveland,Redcar and Cleveland Borough Council,532,"Former Bulls Head Hotel, North Skelton",-0.958184686,54.55784767,https://wca.redclev.net/resident/planning-and-building/local-plan/Local%20Plan%20Documents/Brownfield%20Land%20Register%202018%20site%20plans/532.pdf,0.14,not owned by a public authority,,not permissioned,,,,8,,8,,,11/12/2018,11/12/2018,,,
