address,address-text,deliverable,end-date,entry-date,hazardous-substances,hectares,latitude,longitude,maximum-net-dwellings,minimum-net-dwellings,notes,organisation,ownership-status,planning-permission-date,planning-permission-history,planning-permission-status,planning-permission-type,site,OrganisationURI,OrganisationLabel,SiteReference,SiteNameAddress,GeoX,GeoY,SiteplanURL,Hectares,OwnershipStatus,HazardousSubstances,PlanningStatus,PermissionType,PermissionDate,PlanningHistory,MinNetDwellings,NetDwellingsRangeFrom,NetDwellingsRangeTo,Deliverable,Notes,FirstAddedDate,LastUpdatedDate,EndDate,site-plan-url,start-date
,,,,,,,,,,,,,,,,,,,http://opendatacommunities.org/id/metropolitan-district-council/trafford,Trafford Council,1501,"Simpsons Food Factory, Stretford Road, M41 9WH",378220,394479,https://mappinggm.org.uk/gmodin,0.78,Not owned by a public authority,,Permissioned,,,,58,,,,,2017-12-18,2017-12-18,,,
,,,,,,,,,,,,,,,,,,,http://opendatacommunities.org/id/metropolitan-district-council/trafford,Trafford Council,1530,"Former Mosedales Brickworks, 4 Ends Lane, Flixton",374096,393733,https://mappinggm.org.uk/gmodin,0.7,Not owned by a public authority,,Not permissioned,,,,27,,,,,2017-12-18,2017-12-18,,,
,,,,,,,,,,,,,,,,,,,http://opendatacommunities.org/id/metropolitan-district-council/trafford,Trafford Council,1552,"Higher Road Depot and Adjoining site, Urmston",376968,394716,https://mappinggm.org.uk/gmodin,0.58,owned by a public authority,,Not permissioned,,,,22,,,,,2017-12-18,2017-12-18,,,
,,,,,,,,,,,,,,,,,,,http://opendatacommunities.org/id/metropolitan-district-council/trafford,Trafford Council,1582,"Regent Road/New Street, Altrincham",376631,387655,https://mappinggm.org.uk/gmodin,0.42,owned by a public authority,,Not permissioned,,,,21,,,,,2017-12-18,2017-12-18,,,
,,,,,,,,,,,,,,,,,,,http://opendatacommunities.org/id/metropolitan-district-council/trafford,Trafford Council,1585,"Oakfield Road/Balmoral Road, Altrincham",377186,387828,https://mappinggm.org.uk/gmodin,0.85,not owned by a public authority,,Not permissioned,,,,43,,,,,2017-12-18,2017-12-18,,,
,,,,,,,,,,,,,,,,,,,http://opendatacommunities.org/id/metropolitan-district-council/trafford,Trafford Council,1586,"Mayors Road/Manors Road, Altrincham",377129,387704,https://mappinggm.org.uk/gmodin,0.35,Not owned by a public authority,,Not permissioned,,,,17,,,,,2017-12-18,2017-12-18,,,
,,,,,,,,,,,,,,,,,,,http://opendatacommunities.org/id/metropolitan-district-council/trafford,Trafford Council,1607,"Former Bakemark UK, Skerton Road, Old Trafford",381608,395951,https://mappinggm.org.uk/gmodin,2.51,Not owned by a public authority,,Not permissioned,,,,125,,,,,2017-12-18,2017-12-18,,,
,,,,,,,,,,,,,,,,,,,http://opendatacommunities.org/id/metropolitan-district-council/trafford,Trafford Council,1623,"289 Hale Road, Halebarns",379018,386213,https://mappinggm.org.uk/gmodin,0.87,Not owned by a public authority,,Not permissioned,,,,31,,,,,2017-12-18,2017-12-18,,,
,,,,,,,,,,,,,,,,,,,http://opendatacommunities.org/id/metropolitan-district-council/trafford,Trafford Council,1677,"Land South of Lostock Road Roundabout, Lostock, Stretford",377672,395700,https://mappinggm.org.uk/gmodin,0.38,Not owned by a public authority,,Not permissioned,,,,15,,,,,2017-12-18,2017-12-18,,,
,,,,,,,,,,,,,,,,,,,http://opendatacommunities.org/id/metropolitan-district-council/trafford,Trafford Council,1696,"Land at Oakfield Road (Altair) Moss Lane, Altrincham",377046,387869,https://mappinggm.org.uk/gmodin,2.5,Not owned by a public authority,,Permissioned,,,,150,,,,,2017-12-18,2017-12-18,,,
,,,,,,,,,,,,,,,,,,,http://opendatacommunities.org/id/metropolitan-district-council/trafford,Trafford Council,1713,"Moss Vale Crescent, Lostock, Stretford",377689,395539,https://mappinggm.org.uk/gmodin,0.37,Not owned by a public authority,,Not permissioned,,,,14,,,,,2017-12-18,2017-12-18,,,
,,,,,,,,,,,,,,,,,,,http://opendatacommunities.org/id/metropolitan-district-council/trafford,Trafford Council,1848-2,"Pomona Docks II, Pomona Stand, Old Trafford",381729,396646,https://mappinggm.org.uk/gmodin,1.62,Not owned by a public authority,,Permissioned,,,,546,,,,,2017-12-18,2017-12-18,,,
,,,,,,,,,,,,,,,,,,,http://opendatacommunities.org/id/metropolitan-district-council/trafford,Trafford Council,1888,"Globe Trading Estate, 88-118 Chorlton Road, Old Trafford, M15 4AL",382940,396206,https://mappinggm.org.uk/gmodin,1.72,Not owned by a public authority,,Permissioned,,,,107,,,,,2017-12-18,2017-12-18,,,
,,,,,,,,,,,,,,,,,,,http://opendatacommunities.org/id/metropolitan-district-council/trafford,Trafford Council,1988,"Land at Talbot Road, Stretford",380260,395057,https://mappinggm.org.uk/gmodin,2.91,Not owned by a public authority,,Not permissioned,,,,150,,,,,2017-12-18,2017-12-18,,,
,,,,,,,,,,,,,,,,,,,http://opendatacommunities.org/id/metropolitan-district-council/trafford,Trafford Council,2082,"Trafalgar House, Manchester Road, Altrincham",376699,388965,https://mappinggm.org.uk/gmodin,0.54,Not owned by a public authority,,Not permissioned,,,,38,,,,,2017-12-18,2017-12-18,,,
,,,,,,,,,,,,,,,,,,,http://opendatacommunities.org/id/metropolitan-district-council/trafford,Trafford Council,2084,"Mansion House, Manchester Road, Altrincham",376616,389048,https://mappinggm.org.uk/gmodin,0.43,Not owned by a public authority,,Not permissioned,,,,30,,,,,2017-12-18,2017-12-18,,,
,,,,,,,,,,,,,,,,,,,http://opendatacommunities.org/id/metropolitan-district-council/trafford,Trafford Council,2086,"Britannia Road, Industrial Estate, Sale",379153,392416,https://mappinggm.org.uk/gmodin,0.86,owned by a public authority,,Not permissioned,,,,43,,,,,2017-12-18,2017-12-18,,,
,,,,,,,,,,,,,,,,,,,http://opendatacommunities.org/id/metropolitan-district-council/trafford,Trafford Council,2252,"Lynnfield House, Milton House, Church Street, Altrincham, WA14 4DZ",376729,388427,https://mappinggm.org.uk/gmodin,0.9,Not owned by a public authority,,Permissioned,,,,80,,,,,2017-12-18,2017-12-18,,,
,,,,,,,,,,,,,,,,,,,http://opendatacommunities.org/id/metropolitan-district-council/trafford,Trafford Council,1601-4,"86 Talbot Road, Stretford",381174,395968,https://mappinggm.org.uk/gmodin,0.3,Not owned by a public authority,,Permissioned,,,,90,,,,,2017-12-18,2017-12-18,,,
,,,,,,,,,,,,,,,,,,,http://opendatacommunities.org/id/metropolitan-district-council/trafford,Trafford Council,1688,"Fomer Royal Canal Works, South of Edge Lane, Stretford, M32 8",379753,394125,https://mappinggm.org.uk/gmodin,0.76,Not owned by a public authority,,Permissioned,,,,31,,,,,2017-12-18,2017-12-18,,,
,,,,,,,,,,,,,,,,,,,http://opendatacommunities.org/id/metropolitan-district-council/trafford,Trafford Council,1974,"39 Talbot Road, Old Trafford",381501,396062,https://mappinggm.org.uk/gmodin,0.47,Not owned by a public authority,,not permissioned,,,,38,,,,,2017-12-18,2017-12-18,,,
,,,,,,,,,,,,,,,,,,,http://opendatacommunities.org/id/metropolitan-district-council/trafford,Trafford Council,2369,"Trafford Magistrates' Court, Ashton Lane, Sale, M33 7NR",378483,392218,https://mappinggm.org.uk/gmodin,1.03,Not owned by a public authority,,Not Permissioned,,,,50,,,,,2017-12-18,2017-12-18,,,
,,,,,,,,,,,,,,,,,,,http://opendatacommunities.org/id/metropolitan-district-council/trafford,Trafford Council,2370,"Chester House, 1 Boyer Street, Stretford, M16 0RE",381457,396219,https://mappinggm.org.uk/gmodin,3.28,owned by a public authority,,Not Permissioned,,,,660,,,,,2017-12-18,2017-12-18,,,
,,,,,,,,,,,,,,,,,,,http://opendatacommunities.org/id/metropolitan-district-council/trafford,Trafford Council,1503,"Stretford Memorial Hospital, 226 Seymour Grove, Stretford, M16 0DU",381876,395151,https://mappinggm.org.uk/gmodin,0.75,Not owned by a public authority,,Not Permissioned,,,,36,,,,,2017-12-18,2017-12-18,,,
,,,,,,,,,,,,,,,,,,,http://opendatacommunities.org/id/metropolitan-district-council/trafford,Trafford Council,1639,"Former Red Brook Public House, Oak Road, Partington",371187,390591,https://mappinggm.org.uk/gmodin,0.3,Not owned by a public authority,,Not Permissioned,,,,14,,,,,2017-12-18,2017-12-18,,,
,,,,,,,,,,,,,,,,,,,http://opendatacommunities.org/id/metropolitan-district-council/trafford,Trafford Council,2393,"Meadowside Adult training Centre, Torbay Road, Urmston, M41 9LF",377346,394354,https://mappinggm.org.uk/gmodin,0.48,owned by a public authority,,Not Permissioned,,,,18,,,,,2017-12-18,2017-12-18,,,
,,,,,,,,,,,,,,,,,,,http://opendatacommunities.org/id/metropolitan-district-council/trafford,Trafford Council,2394,"Former Brentwood School, Timperley, Altrincham, WA14 1SR",377256,389106,https://mappinggm.org.uk/gmodin,0.4,owned by a public authority,,Not Permissioned,,,,18,,,,,2017-12-18,2017-12-18,,,
,,,,,,,,,,,,,,,,,,,http://opendatacommunities.org/id/metropolitan-district-council/trafford,Trafford Council,1568,"Wharf Road, Altrincham",376754,389103,https://mappinggm.org.uk/gmodin,0.22,owned by a public authority,,Not permissioned,,,,11,,,,,2017-12-18,2017-12-18,,,
,,,,,,,,,,,,,,,,,,,http://opendatacommunities.org/id/metropolitan-district-council/trafford,Trafford Council,1601-1,"Site of Former MKM House, Warwick Road, Stretford, M16 0XX",381036,395994,https://mappinggm.org.uk/gmodin,0.11,Not owned by a public authority,,Permissioned,,,,89,,,,,2017-12-18,2017-12-18,,,
,,,,,,,,,,,,,,,,,,,http://opendatacommunities.org/id/metropolitan-district-council/trafford,Trafford Council,1608,"Former Boat Yard, Edge Lane, Stretford",379892,394460,https://mappinggm.org.uk/gmodin,0.21,Not owned by a public authority,,Permissioned,,,,28,,,,,2017-12-18,2017-12-18,,,
,,,,,,,,,,,,,,,,,,,http://opendatacommunities.org/id/metropolitan-district-council/trafford,Trafford Council,2144,"Clarendon House, Stamford New Road, Altrincham, WA14 1BY",376914,387915,https://mappinggm.org.uk/gmodin,0.11,Not owned by a public authority,,Permissioned,,,,60,,,,,2017-12-18,2017-12-18,,,
,,,,,,,,,,,,,,,,,,,http://opendatacommunities.org/id/metropolitan-district-council/trafford,Trafford Council,2187,"Bollin Private Hotel, 58 Manchester Road, Altrincham, WA14 4PJ",376701,388721,https://mappinggm.org.uk/gmodin,0.04,Not owned by a public authority,,Permissioned,,,,6,,,,,2017-12-18,2017-12-18,,,
,,,,,,,,,,,,,,,,,,,http://opendatacommunities.org/id/metropolitan-district-council/trafford,Trafford Council,2230,"476-480, Stretford Road, Old Trafford, M16 9AD",382614,396495,https://mappinggm.org.uk/gmodin,0.07,Not owned by a public authority,,Permissioned,,,,11,,,,,2017-12-18,2017-12-18,,,
,,,,,,,,,,,,,,,,,,,http://opendatacommunities.org/id/metropolitan-district-council/trafford,Trafford Council,2234,"Petrol Station and adj land at 499 Chester Road, Stretford",382124,396355,https://mappinggm.org.uk/gmodin,0.23,Not owned by a public authority,,Permissioned,,,,106,,,,,2017-12-18,2017-12-18,,,
,,,,,,,,,,,,,,,,,,,http://opendatacommunities.org/id/metropolitan-district-council/trafford,Trafford Council,2267,"74-84 George Street, Altrincham, WA14 1RF",376745,387824,https://mappinggm.org.uk/gmodin,0.13,Not owned by a public authority,,Permissioned,,,,27,,,,,2017-12-18,2017-12-18,,,
,,,,,,,,,,,,,,,,,,,http://opendatacommunities.org/id/metropolitan-district-council/trafford,Trafford Council,2273,"Land rear of 16-24 The Downs, Altrincham, WA14 2PU",376601,387572,https://mappinggm.org.uk/gmodin,0.21,Not owned by a public authority,,Permissioned,,,,10,,,,,2017-12-18,2017-12-18,,,
,,,,,,,,,,,,,,,,,,,http://opendatacommunities.org/id/metropolitan-district-council/trafford,Trafford Council,1601-3,"City Point, 701 Chester road, Stretford, M32 0RW",380966,396050,https://mappinggm.org.uk/gmodin,0.15,Not owned by a public authority,,Permissioned,,,,35,,,,,2017-12-18,2017-12-18,,,
,,,,,,,,,,,,,,,,,,,http://opendatacommunities.org/id/metropolitan-district-council/trafford,Trafford Council,2287,"84-86 Stamford New Road, Altrincham, WA14 1BS",376789,387749,https://mappinggm.org.uk/gmodin,0.02,Not owned by a public authority,,Permissioned,,,,6,,,,,2017-12-18,2017-12-18,,,
,,,,,,,,,,,,,,,,,,,http://opendatacommunities.org/id/metropolitan-district-council/trafford,Trafford Council,2293,"The Dome, Grafton House, Stamford New Road, Altrincham, WA14 1DQ",376752,387746,https://mappinggm.org.uk/gmodin,0.2,Not owned by a public authority,,Permissioned,,,,14,,,,,2017-12-18,2017-12-18,,,
,,,,,,,,,,,,,,,,,,,http://opendatacommunities.org/id/metropolitan-district-council/trafford,Trafford Council,2303,"101-105 George Street, Altrincham, WA14 1RN",376765,387781,https://mappinggm.org.uk/gmodin,0.03,Not owned by a public authority,,Permissioned,,,,8,,,,,2017-12-18,2017-12-18,,,
,,,,,,,,,,,,,,,,,,,http://opendatacommunities.org/id/metropolitan-district-council/trafford,Trafford Council,2324,"Garages, Wardle Close, Stretford",380164,394823,https://mappinggm.org.uk/gmodin,0.05,Not owned by a public authority,,Permissioned,,,,6,,,,,2017-12-18,2017-12-18,,,
,,,,,,,,,,,,,,,,,,,http://opendatacommunities.org/id/metropolitan-district-council/trafford,Trafford Council,2338,"60 Stamford New Road, Altrincham, WA14 1EE",376850,387816,https://mappinggm.org.uk/gmodin,0.02,Not owned by a public authority,,Permissioned,,,,9,,,,,2017-12-18,2017-12-18,,,
,,,,,,,,,,,,,,,,,,,http://opendatacommunities.org/id/metropolitan-district-council/trafford,Trafford Council,2343,"Brethrens Meeting Room, Brook Lane, Timperley",377715,388992,https://mappinggm.org.uk/gmodin,0.12,Not owned by a public authority,,Permissioned,,,,5,,,,,2017-12-18,2017-12-18,,,
,,,,,,,,,,,,,,,,,,,http://opendatacommunities.org/id/metropolitan-district-council/trafford,Trafford Council,2355,"Metropolitan House, 20 Brindley Road, Old Trafford",381803,396436,https://mappinggm.org.uk/gmodin,0.2,Not owned by a public authority,,Permissioned,,,,52,,,,,2017-12-18,2017-12-18,,,
,,,,,,,,,,,,,,,,,,,http://opendatacommunities.org/id/metropolitan-district-council/trafford,Trafford Council,2364,"Ashley House, Ashley Road, Altrincham, WA14 2DW",376639,387461,https://mappinggm.org.uk/gmodin,0.01,Not owned by a public authority,,Permissioned,,,,32,,,,,2017-12-18,2017-12-18,,,
,,,,,,,,,,,,,,,,,,,http://opendatacommunities.org/id/metropolitan-district-council/trafford,Trafford Council,1934-2,"Land off Bold Street, Old Trafford, M15 5PW",383179,396163,https://mappinggm.org.uk/gmodin,3.28,owned by a public authority,,Not permissioned,,,,144,,,,,2017-12-18,2017-12-18,,,
