address,address-text,deliverable,end-date,entry-date,hazardous-substances,hectares,latitude,longitude,maximum-net-dwellings,minimum-net-dwellings,notes,organisation,ownership-status,planning-permission-date,planning-permission-history,planning-permission-status,planning-permission-type,site,OrganisationURI,OrganisationLabel,SiteReference,SiteNameAddress,GeoX,GeoY,SiteplanURL,Hectares,OwnershipStatus,HazardousSubstances,PlanningStatus,PermissionType,PermissionDate,PlanningHistory,MinNetDwellings,NetDwellingsRangeFrom,NetDwellingsRangeTo,Deliverable,Notes,FirstAddedDate,LastUpdatedDate,EndDate,site-plan-url,start-date
,,,,,,,,,,,,,,,,,,,http://opendatacommunities.org/id/district-council/barrow-in-furness,Barrow Borough Council,BFLR/2017/0001,Former North Lonsdale Hospital,320284.28,468815.02,https://webgis1.barrowbc.gov.uk/webgis/?easting=320284.28&northing=468815.02&zoom=8&action=layer&layer=BBC:CURRENTBROWNFIELDLANDREGIST,0.39,not owned by a public authority,,permissioned,,,,32,,,,,2017-12-14,2017-12-14,,,
,,,,,,,,,,,,,,,,,,,http://opendatacommunities.org/id/district-council/barrow-in-furness,Barrow Borough Council,BFLR/2017/0002,11 Smallholding,321734.21,470219.32,https://webgis1.barrowbc.gov.uk/webgis/?easting=321734.21&northing=470219.32&zoom=8&action=layer&layer=BBC:CURRENTBROWNFIELDLANDREGIST,1.45,owned by a public authority,,permissioned,,,,30,,,,,2017-12-14,2017-12-14,,,
,,,,,,,,,,,,,,,,,,,http://opendatacommunities.org/id/district-council/barrow-in-furness,Barrow Borough Council,BFLR/2017/0004,Cemetery Cottages,319619.3,470739.52,https://webgis1.barrowbc.gov.uk/webgis/?easting=319619.3&northing=470739.52&zoom=8&action=layer&layer=BBC:CURRENTBROWNFIELDLANDREGIST,0.26,not owned by a public authority,,permissioned,,,,8,,,,,2017-12-15,2017-12-15,,,
,,,,,,,,,,,,,,,,,,,http://opendatacommunities.org/id/district-council/barrow-in-furness,Barrow Borough Council,BFLR/2017/0020,Urofoam Factory,321416.44,477869.08,https://webgis1.barrowbc.gov.uk/webgis/?easting=321416.44&northing=477869.08&zoom=8&action=layer&layer=BBC:CURRENTBROWNFIELDLANDREGIST,1.58,not owned by a public authority,,not permissioned,,,,51,,,,,2017-12-18,2017-12-19,,,
,,,,,,,,,,,,,,,,,,,http://opendatacommunities.org/id/district-council/barrow-in-furness,Barrow Borough Council,BFLR/2017/0027,Former Dalton Library,322909.3,474173.66,https://webgis1.barrowbc.gov.uk/webgis/?easting=322909.3&northing=474173.66&zoom=8&action=layer&layer=BBC:CURRENTBROWNFIELDLANDREGIST,0.03,not owned by a public authority,,permissioned,,,,7,,,,,2017-12-18,2017-12-18,,,
,,,,,,,,,,,,,,,,,,,http://opendatacommunities.org/id/district-council/barrow-in-furness,Barrow Borough Council,BFLR/2017/0022,Rock Lea,321001.36,471392.26,https://webgis1.barrowbc.gov.uk/webgis/?easting=321001.36&northing=471392.26&zoom=8&action=layer&layer=BBC:CURRENTBROWNFIELDLANDREGIST,0.42,not owned by a public authority,,permissioned,,,,10,,,,,2017-12-18,2017-12-18,,,
,,,,,,,,,,,,,,,,,,,http://opendatacommunities.org/id/district-council/barrow-in-furness,Barrow Borough Council,BFLR/2017/0024,Park View,320858.08,470100.14,https://webgis1.barrowbc.gov.uk/webgis/?easting=320858.08&northing=470100.14&zoom=8&action=layer&layer=BBC:CURRENTBROWNFIELDLANDREGIST,2.35,not owned by a public authority,,permissioned,,,,54,,,,,2017-12-18,2017-12-18,,,
,,,,,,,,,,,,,,,,,,,http://opendatacommunities.org/id/district-council/barrow-in-furness,Barrow Borough Council,BFLR/2017/0021,Presbytarian Church,320107.65,469219.53,https://webgis1.barrowbc.gov.uk/webgis/?easting=320107.65&northing=469219.53&zoom=8&action=layer&layer=BBC:CURRENTBROWNFIELDLANDREGIST,0.08,owned by a public authority,,not permissioned,,,,10,,,,,2017-12-18,2017-12-19,,,
,,,,,,,,,,,,,,,,,,,http://opendatacommunities.org/id/district-council/barrow-in-furness,Barrow Borough Council,BFLR/2017/0003,Cavendish Villas,319887.33,468406.95,https://webgis1.barrowbc.gov.uk/webgis/?easting=319886.99&northing=468406.78&zoom=8&action=layer&layer=BBC:CURRENTBROWNFIELDLANDREGIST,0.98,not owned by a public authority,,permissioned,,,,23,,,,,2017-12-14,2017-12-20,,,
,,,,,,,,,,,,,,,,,,,http://opendatacommunities.org/id/district-council/barrow-in-furness,Barrow Borough Council,BFLR/2017/0005,Buxton Street,319655.54,468332.12,https://webgis1.barrowbc.gov.uk/webgis/?easting=319655.54&northing=468332.12&zoom=8&action=layer&layer=BBC:CURRENTBROWNFIELDLANDREGIST,0.12,not owned by a public authority,,permissioned,,,,18,,,,,2017-12-15,2017-12-15,,,
,,,,,,,,,,,,,,,,,,,http://opendatacommunities.org/id/district-council/barrow-in-furness,Barrow Borough Council,BFLR/2017/0006,Bradys Yard,319299.94,470549.84,https://webgis1.barrowbc.gov.uk/webgis/?easting=319299.94&northing=470549.84&zoom=8&action=layer&layer=BBC:CURRENTBROWNFIELDLANDREGIST,2.82,not owned by a public authority,,permissioned,,,,84,,,,,2017-12-15,2017-12-15,,,
,,,,,,,,,,,,,,,,,,,http://opendatacommunities.org/id/district-council/barrow-in-furness,Barrow Borough Council,BFLR/2017/0011,Former Kwik Save,319879.14,469782.19,https://webgis1.barrowbc.gov.uk/webgis/?easting=319879.14&northing=469782.19&zoom=8&action=layer&layer=BBC:CURRENTBROWNFIELDLANDREGIST,0.5,not owned by a public authority,,not permissioned,,,,22,,,,,2017-12-15,2017-12-15,,,
,,,,,,,,,,,,,,,,,,,http://opendatacommunities.org/id/district-council/barrow-in-furness,Barrow Borough Council,BFLR/2017/0012,Marina Village,320652.16,468620.41,https://webgis1.barrowbc.gov.uk/webgis/?easting=320652.16&northing=468620.41&zoom=8&action=layer&layer=BBC:CURRENTBROWNFIELDLANDREGIST,25.28,owned by a public authority,,not permissioned,,,,650,,,,,2017-12-15,2017-12-19,,,
,,,,,,,,,,,,,,,,,,,http://opendatacommunities.org/id/district-council/barrow-in-furness,Barrow Borough Council,BFLR/2017/0014,Park Vale,317992.49,468973.55,https://webgis1.barrowbc.gov.uk/webgis/?easting=317992.49&northing=468973.55&zoom=8&action=layer&layer=BBC:CURRENTBROWNFIELDLANDREGIST,5.93,owned by a public authority,,not permissioned,,,,70,,,,,2017-12-18,2017-12-19,,,
,,,,,,,,,,,,,,,,,,,http://opendatacommunities.org/id/district-council/barrow-in-furness,Barrow Borough Council,BFLR/2017/0017,North Central Clearance Area,320355.03,469395.76,https://webgis1.barrowbc.gov.uk/webgis/?easting=320355.03&northing=469395.76&zoom=8&action=layer&layer=BBC:CURRENTBROWNFIELDLANDREGIST,1.49,owned by a public authority,,not permissioned,,,,45,,,,,2017-12-18,2017-12-19,,,
,,,,,,,,,,,,,,,,,,,http://opendatacommunities.org/id/district-council/barrow-in-furness,Barrow Borough Council,BFLR/2017/0019,Land at Crooklands,323650.84,474322.65,https://webgis1.barrowbc.gov.uk/webgis/?easting=323650.84&northing=474322.65&zoom=8&action=layer&layer=BBC:CURRENTBROWNFIELDLANDREGIST,1.44,not owned by a public authority,,not permissioned,,,,32,,,,,2017-12-18,2017-12-18,,,
,,,,,,,,,,,,,,,,,,,http://opendatacommunities.org/id/district-council/barrow-in-furness,Barrow Borough Council,BFLR/2017/0023,Bevan House,321483.67,470085.32,https://webgis1.barrowbc.gov.uk/webgis/?easting=321483.67&northing=470085.32&zoom=8&action=layer&layer=BBC:CURRENTBROWNFIELDLANDREGIST,0.29,not owned by a public authority,,permissioned,,,,18,,,,,2017-12-18,2017-12-20,,,
,,,,,,,,,,,,,,,,,,,http://opendatacommunities.org/id/district-council/barrow-in-furness,Barrow Borough Council,BFLR/2017/0025,Thorncliffe South (Former Tennis Courts),320295.8,470960.47,https://webgis1.barrowbc.gov.uk/webgis/?easting=320295.8&northing=470960.47&zoom=8&action=layer&layer=BBC:CURRENTBROWNFIELDLANDREGIST,0.84,owned by a public authority,,not permissioned,,,,18,,,,,2017-12-18,2017-12-19,,,
,,,,,,,,,,,,,,,,,,,http://opendatacommunities.org/id/district-council/barrow-in-furness,Barrow Borough Council,BFLR/2017/0026,Former 68 Abbey Road,319743.07,469484.72,https://webgis1.barrowbc.gov.uk/webgis/?easting=319743.07&northing=469484.72&zoom=8&action=layer&layer=BBC:CURRENTBROWNFIELDLANDREGIST,0.02,not owned by a public authority,,permissioned,,,,8,,,,,2017-12-18,2017-12-18,,,
,,,,,,,,,,,,,,,,,,,http://opendatacommunities.org/id/district-council/barrow-in-furness,Barrow Borough Council,BFLR/2017/0007,Beach St / Sharp St,321256.45,477381.52,https://webgis1.barrowbc.gov.uk/webgis/?easting=321256.45&northing=477381.52&zoom=8&action=layer&layer=BBC:CURRENTBROWNFIELDLANDREGIST,1.14,owned by a public authority,,not permissioned,,,,45,,,,,2017-12-15,2017-12-19,,,
,,,,,,,,,,,,,,,,,,,http://opendatacommunities.org/id/district-council/barrow-in-furness,Barrow Borough Council,BFLR/2017/0015,Old Candleworks,319405.06,471261.27,https://webgis1.barrowbc.gov.uk/webgis/?easting=319405.06&northing=471261.27&zoom=8&action=layer&layer=BBC:CURRENTBROWNFIELDLANDREGIST,1.16,not owned by a public authority,,not permissioned,,,,32,,,,,2017-12-18,2017-12-18,,,
,,,,,,,,,,,,,,,,,,,http://opendatacommunities.org/id/district-council/barrow-in-furness,Barrow Borough Council,BFLR/2017/0016,Land South of Ashley & Rock,319658.32,472273.05,https://webgis1.barrowbc.gov.uk/webgis/?easting=319658.32&northing=472273.05&zoom=8&action=layer&layer=BBC:CURRENTBROWNFIELDLANDREGIST,2.75,not owned by a public authority,,not permissioned,,,,77,,,,,2017-12-18,2017-12-19,,,
,,,,,,,,,,,,,,,,,,,http://opendatacommunities.org/id/district-council/barrow-in-furness,Barrow Borough Council,BFLR/2017/0018,Former Avon Garden Centre,318136.43,469265.32,https://webgis1.barrowbc.gov.uk/webgis/?easting=318136.43&northing=469265.32&zoom=8&action=layer&layer=BBC:CURRENTBROWNFIELDLANDREGIST,0.53,not owned by a public authority,,not permissioned,,,,30,,,,,2017-12-18,2017-12-19,,,
,,,,,,,,,,,,,,,,,,,http://opendatacommunities.org/id/district-council/barrow-in-furness,Barrow Borough Council,BFLR/2017/0013,Former Island Tavern,318010.33,469181.14,https://webgis1.barrowbc.gov.uk/webgis/?easting=318010.33&northing=469181.14&zoom=8&action=layer&layer=BBC:CURRENTBROWNFIELDLANDREGIST,0.5,owned by a public authority,,not permissioned,,,,12,,,,,2017-12-18,2017-12-19,,,
,,,,,,,,,,,,,,,,,,,http://opendatacommunities.org/id/district-council/barrow-in-furness,Barrow Borough Council,BFLR/2017/0008,Land at Channelside,318929.13,469386.36,https://webgis1.barrowbc.gov.uk/webgis/?easting=318929.13&northing=469386.36&zoom=8&action=layer&layer=BBC:CURRENTBROWNFIELDLANDREGIST,2.3,owned by a public authority,,not permissioned,,,,60,,,,,2017-12-15,2017-12-19,,,
,,,,,,,,,,,,,,,,,,,http://opendatacommunities.org/id/district-council/barrow-in-furness,Barrow Borough Council,BFLR/2017/0009,Former Golf Driving Range,319255.98,470957.58,https://webgis1.barrowbc.gov.uk/webgis/?easting=319255.98&northing=470957.58&zoom=8&action=layer&layer=BBC:CURRENTBROWNFIELDLANDREGIST,6.71,not owned by a public authority,,not permissioned,,,,100,,,,,2017-12-15,2017-12-19,,,
,,,,,,,,,,,,,,,,,,,http://opendatacommunities.org/id/district-council/barrow-in-furness,Barrow Borough Council,BFLR/2017/0010,Salthouse Mills,321708.94,468771.31,https://webgis1.barrowbc.gov.uk/webgis/?easting=321708.94&northing=468771.31&zoom=8&action=layer&layer=BBC:CURRENTBROWNFIELDLANDREGIST,9.03,not owned by a public authority,,not permissioned,,,,250,,,,,2017-12-15,2017-12-19,,,
