address,address-text,deliverable,end-date,entry-date,hazardous-substances,hectares,latitude,longitude,maximum-net-dwellings,minimum-net-dwellings,notes,organisation,ownership-status,planning-permission-date,planning-permission-history,planning-permission-status,planning-permission-type,site,OrganisationURI,OrganisationLabel,SiteReference,SiteNameAddress,GeoX,GeoY,SiteplanURL,Hectares,OwnershipStatus,HazardousSubstances,PlanningStatus,PermissionType,PermissionDate,PlanningHistory,MinNetDwellings,NetDwellingsRangeFrom,NetDwellingsRangeTo,Deliverable,Notes,FirstAddedDate,LastUpdatedDate,EndDate,site-plan-url,start-date
,,,,,,,,,,,,,,,,,,,http://opendatacommunities.org/id/unitary-authority/cornwall,Cornwall Council,BR1,Former Liskeard Enterprise Centre Liskeard PL14 4BW,-4.465671055,50.45100903,https://map.cornwall.gov.uk/website/ccmap/?zoomlevel=1&xcoord=162690&ycoord=64380&wsName=ccmap&layerName,0.39,not owned by a public authority,,not permissioned,,,,10,,15,,Site partially in a Conservation Area - permission for any relevant demolition would also be required.,12/12/2017,12/12/2017,,,
,,,,,,,,,,,,,,,,,,,http://opendatacommunities.org/id/unitary-authority/cornwall,Cornwall Council,BR2,Land to rear Old County Hall Truro TR1 3HA,-5.064683711,50.26218657,https://map.cornwall.gov.uk/website/ccmap/?zoomlevel=1&xcoord=162690&ycoord=64380&wsName=ccmap&layerName,0.58,owned by a public authority,,not permissioned,,,,20,,40,,,12/12/2017,12/12/2017,,,
,,,,,,,,,,,,,,,,,,,http://opendatacommunities.org/id/unitary-authority/cornwall,Cornwall Council,BR4,Forge Industrial Park North Roskear Camborne TR14 0AW,-5.288858897,50.22396483,https://map.cornwall.gov.uk/website/ccmap/?zoomlevel=1&xcoord=162690&ycoord=64380&wsName=ccmap&layerName,0.47,not owned by a public authority,,not permissioned,,,,25,,35,,Any proposals must be referred to the WHS team as part of Development Management consultation at both PIP and TDC stages.,12/12/2017,12/12/2017,,,
,,,,,,,,,,,,,,,,,,,http://opendatacommunities.org/id/unitary-authority/cornwall,Cornwall Council,BR5,Land at North Roskear Road Camborne TR14 8PR,-5.283996048,50.22176346,https://map.cornwall.gov.uk/website/ccmap/?zoomlevel=1&xcoord=162690&ycoord=64380&wsName=ccmap&layerName,0.5,not owned by a public authority,,not permissioned,,,,15,,30,,Site in a Conservation Area - permission for any relevant demolition would also be required. Dependent on wider site for highways access. Any proposals must be referred to the WHS team as part of Development Management consultation at both PIP and TDC stages.,12/12/2017,12/12/2017,,,
,,,,,,,,,,,,,,,,,,,http://opendatacommunities.org/id/unitary-authority/cornwall,Cornwall Council,BR7,Former Murdoch & Trevithick Centre Lower Cardrew Lane Redruth TR15 1SY,-5.224148542,50.23834752,https://map.cornwall.gov.uk/website/ccmap/?zoomlevel=1&xcoord=162690&ycoord=64380&wsName=ccmap&layerName,0.64,owned by a public authority,,not permissioned,,,,20,,30,,Dependent on wider site for highways access.,12/12/2017,12/12/2017,,,
,,,,,,,,,,,,,,,,,,,http://opendatacommunities.org/id/unitary-authority/cornwall,Cornwall Council,BR14,Site Adj To Tuckingmill Apartments Maynes Row Tuckingmill TR14 8QP,-5.279918845,50.22344405,https://map.cornwall.gov.uk/website/ccmap/?zoomlevel=1&xcoord=162690&ycoord=64380&wsName=ccmap&layerName,0.1,not owned by a public authority,,permissioned,,,,5,,,,,12/12/2017,12/12/2017,,,
,,,,,,,,,,,,,,,,,,,http://opendatacommunities.org/id/unitary-authority/cornwall,Cornwall Council,BR15,Whitsand Bay Hotel Finnygook Lane Portwrinkle Torpoint PL11 3BU,-4.306935449,50.36218714,https://map.cornwall.gov.uk/website/ccmap/?zoomlevel=1&xcoord=162690&ycoord=64380&wsName=ccmap&layerName,0.3,not owned by a public authority,,permissioned,,,,5,,,,,12/12/2017,12/12/2017,,,
,,,,,,,,,,,,,,,,,,,http://opendatacommunities.org/id/unitary-authority/cornwall,Cornwall Council,BR16,The Garden Sports and Leisure Club 10 Antony Road Torpoint PL11 2JW,-4.198285563,50.37681288,https://map.cornwall.gov.uk/website/ccmap/?zoomlevel=1&xcoord=162690&ycoord=64380&wsName=ccmap&layerName,0.11,not owned by a public authority,,permissioned,,,,26,,,,,12/12/2017,12/12/2017,,,
,,,,,,,,,,,,,,,,,,,http://opendatacommunities.org/id/unitary-authority/cornwall,Cornwall Council,BR17,The Harbour Lights 1 Fore Street Torpoint PL11 2AA,50.37659339,50.37659339,https://map.cornwall.gov.uk/website/ccmap/?zoomlevel=1&xcoord=162690&ycoord=64380&wsName=ccmap&layerName,0.05,not owned by a public authority,,permissioned,,,,10,,,,,12/12/2017,12/12/2017,,,
,,,,,,,,,,,,,,,,,,,http://opendatacommunities.org/id/unitary-authority/cornwall,Cornwall Council,BR18,St Michaels Hotel And Spa 7 Stracey Road Falmouth TR11 4NB,-5.067687803,50.14533106,https://map.cornwall.gov.uk/website/ccmap/?zoomlevel=1&xcoord=162690&ycoord=64380&wsName=ccmap&layerName,0.48,not owned by a public authority,,permissioned,,,,73,,,,Part revises PA14/07349 for the demolition of Captains House and Tremor buildings and erection of 14 residential apartments; demolition of The Cottage and erection of 3 residential apartments,12/12/2017,12/12/2017,,,
,,,,,,,,,,,,,,,,,,,http://opendatacommunities.org/id/unitary-authority/cornwall,Cornwall Council,BR19,Land Rear of Frank Johns Centre 56 Queensway Hayle TR27 4NL,-5.413178584,50.18676576,https://map.cornwall.gov.uk/website/ccmap/?zoomlevel=1&xcoord=162690&ycoord=64380&wsName=ccmap&layerName,0.12,not owned by a public authority,,permissioned,,,,5,,,,,12/12/2017,12/12/2017,,,
,,,,,,,,,,,,,,,,,,,http://opendatacommunities.org/id/unitary-authority/cornwall,Cornwall Council,BR20,Parc An Creet Garage Higher Stennack St Ives TR26 2HE,-5.49400879,50.2072207,https://map.cornwall.gov.uk/website/ccmap/?zoomlevel=1&xcoord=162690&ycoord=64380&wsName=ccmap&layerName,0.18,not owned by a public authority,,permissioned,,,,10,,,,,12/12/2017,12/12/2017,,,
,,,,,,,,,,,,,,,,,,,http://opendatacommunities.org/id/unitary-authority/cornwall,Cornwall Council,BR21,Orchard Walls Trewidden Road St Ives TR26 2BX,-5.480959613,50.20916919,https://map.cornwall.gov.uk/website/ccmap/?zoomlevel=1&xcoord=162690&ycoord=64380&wsName=ccmap&layerName,0.11,not owned by a public authority,,permissioned,,,,5,,,,,12/12/2017,12/12/2017,,,
,,,,,,,,,,,,,,,,,,,http://opendatacommunities.org/id/unitary-authority/cornwall,Cornwall Council,BR22,Tenerife Tregay Lane Liskeard PL14 6RG,-4.458576485,50.46252866,https://map.cornwall.gov.uk/website/ccmap/?zoomlevel=1&xcoord=162690&ycoord=64380&wsName=ccmap&layerName,0.41,not owned by a public authority,,permissioned,,,,7,,,,,12/12/2017,12/12/2017,,,
,,,,,,,,,,,,,,,,,,,http://opendatacommunities.org/id/unitary-authority/cornwall,Cornwall Council,BR23,Former Garage Site West Road West Looe PL13 2AS,-4.460345763,50.35618957,https://map.cornwall.gov.uk/website/ccmap/?zoomlevel=1&xcoord=162690&ycoord=64380&wsName=ccmap&layerName,0.07,owned by a public authority,,permissioned,,,,5,,,,,12/12/2017,12/12/2017,,,
,,,,,,,,,,,,,,,,,,,http://opendatacommunities.org/id/unitary-authority/cornwall,Cornwall Council,BR24,Land East Of Narrowcliff Surgery To Rear Of Whitewater Hilgrove Road NewquayTR7 2RZ,-5.066984806,50.41792309,https://map.cornwall.gov.uk/website/ccmap/?zoomlevel=1&xcoord=162690&ycoord=64380&wsName=ccmap&layerName,0.72,not owned by a public authority,,permissioned,,,,46,,,,,12/12/2017,12/12/2017,,,
,,,,,,,,,,,,,,,,,,,http://opendatacommunities.org/id/unitary-authority/cornwall,Cornwall Council,BR25,8 Bank Street St Columb TR9 6AU,-4.939556546,50.43591337,https://map.cornwall.gov.uk/website/ccmap/?zoomlevel=1&xcoord=162690&ycoord=64380&wsName=ccmap&layerName,0.02,not owned by a public authority,,permissioned,,,,5,,,,,12/12/2017,12/12/2017,,,
,,,,,,,,,,,,,,,,,,,http://opendatacommunities.org/id/unitary-authority/cornwall,Cornwall Council,BR26,Tree Tops Wesley Road Cubert Newquay TR8 5HB,-5.113607213,50.37980132,https://map.cornwall.gov.uk/website/ccmap/?zoomlevel=1&xcoord=162690&ycoord=64380&wsName=ccmap&layerName,0.21,not owned by a public authority,,permissioned,,,,9,,,,,12/12/2017,12/12/2017,,,
,,,,,,,,,,,,,,,,,,,http://opendatacommunities.org/id/unitary-authority/cornwall,Cornwall Council,BR27,Sedgemoor Centre Priory Road St Austell PL25 5AB,-4.793270321,50.3400479,https://map.cornwall.gov.uk/website/ccmap/?zoomlevel=1&xcoord=162690&ycoord=64380&wsName=ccmap&layerName,1.39,not owned by a public authority,,permissioned,,,,65,,,,,12/12/2017,12/12/2017,,,
,,,,,,,,,,,,,,,,,,,http://opendatacommunities.org/id/unitary-authority/cornwall,Cornwall Council,BR28,74 Slades Road St Austell PL25 4HQ,-4.777901501,50.34379842,https://map.cornwall.gov.uk/website/ccmap/?zoomlevel=1&xcoord=162690&ycoord=64380&wsName=ccmap&layerName,0.15,not owned by a public authority,,permissioned,,,,6,,,,,12/12/2017,12/12/2017,,,
,,,,,,,,,,,,,,,,,,,http://opendatacommunities.org/id/unitary-authority/cornwall,Cornwall Council,BR29,Accommodation Hop & Vine Steak & Ale House 3 Market Street St Austell PL25 4BB,-4.791854195,50.33866966,https://map.cornwall.gov.uk/website/ccmap/?zoomlevel=1&xcoord=162690&ycoord=64380&wsName=ccmap&layerName,0.04,not owned by a public authority,,permissioned,,,,6,,,,,12/12/2017,12/12/2017,,,
,,,,,,,,,,,,,,,,,,,http://opendatacommunities.org/id/unitary-authority/cornwall,Cornwall Council,BR30,Land South West Of Hillbrough Porcupine Road Porcupine Par,-4.702514299,50.36951241,https://map.cornwall.gov.uk/website/ccmap/?zoomlevel=1&xcoord=162690&ycoord=64380&wsName=ccmap&layerName,0.71,not owned by a public authority,,permissioned,,,,8,,,,,12/12/2017,12/12/2017,,,
,,,,,,,,,,,,,,,,,,,http://opendatacommunities.org/id/unitary-authority/cornwall,Cornwall Council,BR31,The Orchard Alverton Road Penzance TR18 4TE,-5.547211127,50.11632275,https://map.cornwall.gov.uk/website/ccmap/?zoomlevel=1&xcoord=162690&ycoord=64380&wsName=ccmap&layerName,0.28,not owned by a public authority,,permissioned,,,,6,,,,,12/12/2017,12/12/2017,,,
,,,,,,,,,,,,,,,,,,,http://opendatacommunities.org/id/unitary-authority/cornwall,Cornwall Council,BR32,Former MPG Books Site Victoria SquareBodmin PL31 1EB,-4.712215638,50.46458208,https://map.cornwall.gov.uk/website/ccmap/?zoomlevel=1&xcoord=162690&ycoord=64380&wsName=ccmap&layerName,1.19,not owned by a public authority,,permissioned,,,,57,,,,,12/12/2017,12/12/2017,,,
,,,,,,,,,,,,,,,,,,,http://opendatacommunities.org/id/unitary-authority/cornwall,Cornwall Council,BR33,3 St. Nicholas Street Bodmin Cornwall PL31 1AB,-4.71879852,50.46977149,https://map.cornwall.gov.uk/website/ccmap/?zoomlevel=1&xcoord=162690&ycoord=64380&wsName=ccmap&layerName,0.04,not owned by a public authority,,permissioned,,,,6,,,,,12/12/2017,12/12/2017,,,
,,,,,,,,,,,,,,,,,,,http://opendatacommunities.org/id/unitary-authority/cornwall,Cornwall Council,BR34,Former Bus Garage & Depository Buildings Lansdown RoadBudeCornwallEX23 8BN,-4.542525746,50.83021578,https://map.cornwall.gov.uk/website/ccmap/?zoomlevel=1&xcoord=162690&ycoord=64380&wsName=ccmap&layerName,0.18,not owned by a public authority,,permissioned,,,,15,,,,,12/12/2017,12/12/2017,,,
,,,,,,,,,,,,,,,,,,,http://opendatacommunities.org/id/unitary-authority/cornwall,Cornwall Council,BR35,North Cornwall Motorcycles Hospital RoadStrattonBudeEX23 9BP,50.83073441,50.83073441,https://map.cornwall.gov.uk/website/ccmap/?zoomlevel=1&xcoord=162690&ycoord=64380&wsName=ccmap&layerName,0.07,not owned by a public authority,,permissioned,,,,10,,,,,12/12/2017,12/12/2017,,,
,,,,,,,,,,,,,,,,,,,http://opendatacommunities.org/id/unitary-authority/cornwall,Cornwall Council,BR36,Western Power DistributionKings Hill CloseBudeCornwallEX23 8PQ,50.83073441,50.83073441,https://map.cornwall.gov.uk/website/ccmap/?zoomlevel=1&xcoord=162690&ycoord=64380&wsName=ccmap&layerName,0.3,not owned by a public authority,,permissioned,,,,9,,,,,12/12/2017,12/12/2017,,,
,,,,,,,,,,,,,,,,,,,http://opendatacommunities.org/id/unitary-authority/cornwall,Cornwall Council,BR37,Land SW Of Westland Countryside StewardsKilkhamptonBudeCornwall,-4.487461308,50.87449545,https://map.cornwall.gov.uk/website/ccmap/?zoomlevel=1&xcoord=162690&ycoord=64380&wsName=ccmap&layerName,0.74,not owned by a public authority,,permissioned,,,,5,,,,,12/12/2017,12/12/2017,,,
,,,,,,,,,,,,,,,,,,,http://opendatacommunities.org/id/unitary-authority/cornwall,Cornwall Council,BR38,Land South Of Bullers ArmsThe VillageMarhamchurchBudeCornwall,-4.52045285,50.80487194,https://map.cornwall.gov.uk/website/ccmap/?zoomlevel=1&xcoord=162690&ycoord=64380&wsName=ccmap&layerName,0.15,not owned by a public authority,,permissioned,,,,5,,,,,12/12/2017,12/12/2017,,,
,,,,,,,,,,,,,,,,,,,http://opendatacommunities.org/id/unitary-authority/cornwall,Cornwall Council,BR39,Goldring Yates 16 Chapel StreetCamborneCornwallTR14 8ED,-5.299332086,50.21297119,https://map.cornwall.gov.uk/website/ccmap/?zoomlevel=1&xcoord=162690&ycoord=64380&wsName=ccmap&layerName,0.01,not owned by a public authority,,permissioned,,,,5,,,,,12/12/2017,12/12/2017,,,
,,,,,,,,,,,,,,,,,,,http://opendatacommunities.org/id/unitary-authority/cornwall,Cornwall Council,BR40,Josiah Thomas Memorial Hall Trevithick RoadCamborneCornwallTR14 8LQ,-5.299550958,50.2143144,https://map.cornwall.gov.uk/website/ccmap/?zoomlevel=1&xcoord=162690&ycoord=64380&wsName=ccmap&layerName,0.04,not owned by a public authority,,permissioned,,,,13,,,,,12/12/2017,12/12/2017,,,
,,,,,,,,,,,,,,,,,,,http://opendatacommunities.org/id/unitary-authority/cornwall,Cornwall Council,BR41,GaragesTrevu RoadCamborneCornwall,-5.30870528,50.20843122,https://map.cornwall.gov.uk/website/ccmap/?zoomlevel=1&xcoord=162690&ycoord=64380&wsName=ccmap&layerName,0.08,not owned by a public authority,,permissioned,,,,6,,,,,12/12/2017,12/12/2017,,,
,,,,,,,,,,,,,,,,,,,http://opendatacommunities.org/id/unitary-authority/cornwall,Cornwall Council,BR42,12 Gas Street/rear Of 16 Trelowarren StreetCamborneCornwallTR14 8JJ,-5.297970312,50.21375657,https://map.cornwall.gov.uk/website/ccmap/?zoomlevel=1&xcoord=162690&ycoord=64380&wsName=ccmap&layerName,0.06,not owned by a public authority,,permissioned,,,,5,,,,,12/12/2017,12/12/2017,,,
,,,,,,,,,,,,,,,,,,,http://opendatacommunities.org/id/unitary-authority/cornwall,Cornwall Council,BR43,Old Blacksmiths YardHigher CondurrowCondurrowCamborneCornwallTR14 9AL,-5.279138599,50.20695813,https://map.cornwall.gov.uk/website/ccmap/?zoomlevel=1&xcoord=162690&ycoord=64380&wsName=ccmap&layerName,0.13,not owned by a public authority,,permissioned,,,,5,,,,,12/12/2017,12/12/2017,,,
,,,,,,,,,,,,,,,,,,,http://opendatacommunities.org/id/unitary-authority/cornwall,Cornwall Council,BR44,Pendeen Barncoose TerraceIllogan HighwayCornwallTR15 3EZ,-5.250122134,50.2302556,https://map.cornwall.gov.uk/website/ccmap/?zoomlevel=1&xcoord=162690&ycoord=64380&wsName=ccmap&layerName,0.17,not owned by a public authority,,permissioned,,,,9,,,,,12/12/2017,12/12/2017,,,
,,,,,,,,,,,,,,,,,,,http://opendatacommunities.org/id/unitary-authority/cornwall,Cornwall Council,BR45,Land Rear Of Basset ArmsFore StreetPoolCornwallTR15 3DY,-5.269334807,50.22676527,https://map.cornwall.gov.uk/website/ccmap/?zoomlevel=1&xcoord=162690&ycoord=64380&wsName=ccmap&layerName,0.11,not owned by a public authority,,permissioned,,,,5,,,,,12/12/2017,12/12/2017,,,
,,,,,,,,,,,,,,,,,,,http://opendatacommunities.org/id/unitary-authority/cornwall,Cornwall Council,BR46,12 Fore StreetRedruthCornwallTR15 2AZ,-5.229215586,50.23321388,https://map.cornwall.gov.uk/website/ccmap/?zoomlevel=1&xcoord=162690&ycoord=64380&wsName=ccmap&layerName,0.04,not owned by a public authority,,permissioned,,,,10,,,,,12/12/2017,12/12/2017,,,
,,,,,,,,,,,,,,,,,,,http://opendatacommunities.org/id/unitary-authority/cornwall,Cornwall Council,BR47,Tower HouseFore StreetRedruthCornwallTR15 2BP,-5.229638037,50.23282429,https://map.cornwall.gov.uk/website/ccmap/?zoomlevel=1&xcoord=162690&ycoord=64380&wsName=ccmap&layerName,0.03,not owned by a public authority,,permissioned,,,,9,,,,,12/12/2017,12/12/2017,,,
,,,,,,,,,,,,,,,,,,,http://opendatacommunities.org/id/unitary-authority/cornwall,Cornwall Council,BR48,Land At Chapel StreetChapel StreetCamelfordCornwall,-4.6809699,50.62080238,https://map.cornwall.gov.uk/website/ccmap/?zoomlevel=1&xcoord=162690&ycoord=64380&wsName=ccmap&layerName,0.11,not owned by a public authority,,permissioned,,,,9,,,,,12/12/2017,12/12/2017,,,
,,,,,,,,,,,,,,,,,,,http://opendatacommunities.org/id/unitary-authority/cornwall,Cornwall Council,BR49,Madeira Hotel Cliff RoadFalmouthCornwallTR11 4NY,-5.058543506,50.14813629,https://map.cornwall.gov.uk/website/ccmap/?zoomlevel=1&xcoord=162690&ycoord=64380&wsName=ccmap&layerName,0.26,not owned by a public authority,,permissioned,,,,34,,,,,12/12/2017,12/12/2017,,,
,,,,,,,,,,,,,,,,,,,http://opendatacommunities.org/id/unitary-authority/cornwall,Cornwall Council,BR50,Snowden Rudd Ltd70 Penpol TerraceHayleCornwallTR27 4BH,-5.422125741,50.18765376,https://map.cornwall.gov.uk/website/ccmap/?zoomlevel=1&xcoord=162690&ycoord=64380&wsName=ccmap&layerName,0.09,not owned by a public authority,,permissioned,,,,6,,,,,12/12/2017,12/12/2017,,,
,,,,,,,,,,,,,,,,,,,http://opendatacommunities.org/id/unitary-authority/cornwall,Cornwall Council,BR51,Christian Guild HolidaysTreloyhan Manor St. IvesCornwallTR26 2AL,-5.472259441,50.20403185,https://map.cornwall.gov.uk/website/ccmap/?zoomlevel=1&xcoord=162690&ycoord=64380&wsName=ccmap&layerName,3.53,not owned by a public authority,,permissioned,,,,16,,,,,12/12/2017,12/12/2017,,,
,,,,,,,,,,,,,,,,,,,http://opendatacommunities.org/id/unitary-authority/cornwall,Cornwall Council,BR52,Double S Service StationMain RoadAshtonHelstonCornwallTR13 9SR,-5.354489793,50.10848064,https://map.cornwall.gov.uk/website/ccmap/?zoomlevel=1&xcoord=162690&ycoord=64380&wsName=ccmap&layerName,0.15,not owned by a public authority,,permissioned,,,,5,,,,,12/12/2017,12/12/2017,,,
,,,,,,,,,,,,,,,,,,,http://opendatacommunities.org/id/unitary-authority/cornwall,Cornwall Council,BR53,Castle Street Chapel And Former Sunday SchoolCastle Street LauncestonCornwall,-4.361629609,50.638816,https://map.cornwall.gov.uk/website/ccmap/?zoomlevel=1&xcoord=162690&ycoord=64380&wsName=ccmap&layerName,0.09,not owned by a public authority,,permissioned,,,,8,,,,,12/12/2017,12/12/2017,,,
,,,,,,,,,,,,,,,,,,,http://opendatacommunities.org/id/unitary-authority/cornwall,Cornwall Council,BR54,The Old Stag Station RoadLiskeardPL14 4DA,-4.471020166,50.4484939,https://map.cornwall.gov.uk/website/ccmap/?zoomlevel=1&xcoord=162690&ycoord=64380&wsName=ccmap&layerName,0.14,not owned by a public authority,,permissioned,,,,9,,,,,12/12/2017,12/12/2017,,,
,,,,,,,,,,,,,,,,,,,http://opendatacommunities.org/id/unitary-authority/cornwall,Cornwall Council,BR55,Former Fosters Public HouseNarrowcliffNewquayCornwall,-5.067467983,50.41886389,https://map.cornwall.gov.uk/website/ccmap/?zoomlevel=1&xcoord=162690&ycoord=64380&wsName=ccmap&layerName,0.38,not owned by a public authority,,permissioned,,,,48,,,,PA17/01595 approved since 31st March- Re-submission of Application No. PA15/10455 dated 3rd May 2016 for the redevelopment to form 48 apartments for the elderly including guest apartment; communal facilities; access; car parking and landscaping.,12/12/2017,12/12/2017,,,
,,,,,,,,,,,,,,,,,,,http://opendatacommunities.org/id/unitary-authority/cornwall,Cornwall Council,BR56,Fistral House 3 Esplanade RoadNewquayCornwallTR7 1PY,-5.101415307,50.41220597,https://map.cornwall.gov.uk/website/ccmap/?zoomlevel=1&xcoord=162690&ycoord=64380&wsName=ccmap&layerName,0.14,not owned by a public authority,,permissioned,,,,10,,,,,12/12/2017,12/12/2017,,,
,,,,,,,,,,,,,,,,,,,http://opendatacommunities.org/id/unitary-authority/cornwall,Cornwall Council,BR57,10 Edgcumbe AvenueNewquayCornwallTR7 2NH,-5.074148611,50.41570986,https://map.cornwall.gov.uk/website/ccmap/?zoomlevel=1&xcoord=162690&ycoord=64380&wsName=ccmap&layerName,0.02,owned by a public authority,,permissioned,,,,5,,,,,12/12/2017,12/12/2017,,,
,,,,,,,,,,,,,,,,,,,http://opendatacommunities.org/id/unitary-authority/cornwall,Cornwall Council,BR58,Alexandra Nursing Home 11 Alexandra RoadNewquayCornwallTR7 3ND,-5.053996931,50.42372535,https://map.cornwall.gov.uk/website/ccmap/?zoomlevel=1&xcoord=162690&ycoord=64380&wsName=ccmap&layerName,0.33,not owned by a public authority,,permissioned,,,,16,,,,,12/12/2017,12/12/2017,,,
,,,,,,,,,,,,,,,,,,,http://opendatacommunities.org/id/unitary-authority/cornwall,Cornwall Council,BR59,Porth Cove Watergate RoadNewquayCornwallTR7 3LX,-5.054187343,50.42843406,https://map.cornwall.gov.uk/website/ccmap/?zoomlevel=1&xcoord=162690&ycoord=64380&wsName=ccmap&layerName,0.12,not owned by a public authority,,permissioned,,,,10,,,,,12/12/2017,12/12/2017,,,
,,,,,,,,,,,,,,,,,,,http://opendatacommunities.org/id/unitary-authority/cornwall,Cornwall Council,BR60,25 And 25A Porth WayNewquayCornwallTR7 3LW,-5.056059909,50.42143123,https://map.cornwall.gov.uk/website/ccmap/?zoomlevel=1&xcoord=162690&ycoord=64380&wsName=ccmap&layerName,0.21,not owned by a public authority,,permissioned,,,,6,,,,,12/12/2017,12/12/2017,,,
,,,,,,,,,,,,,,,,,,,http://opendatacommunities.org/id/unitary-authority/cornwall,Cornwall Council,BR61,South Shaft Mine BuildingsCastle-An-DinasSt ColumbCornwall,-4.894000038,50.42239367,https://map.cornwall.gov.uk/website/ccmap/?zoomlevel=1&xcoord=162690&ycoord=64380&wsName=ccmap&layerName,0.95,not owned by a public authority,,permissioned,,,,6,,,,,12/12/2017,12/12/2017,,,
,,,,,,,,,,,,,,,,,,,http://opendatacommunities.org/id/unitary-authority/cornwall,Cornwall Council,BR62,Liberal ClubNorth StreetSt ColumbCornwallTR9 6AP,-4.939703885,50.43510905,https://map.cornwall.gov.uk/website/ccmap/?zoomlevel=1&xcoord=162690&ycoord=64380&wsName=ccmap&layerName,0.02,not owned by a public authority,,permissioned,,,,5,,,,,12/12/2017,12/12/2017,,,
,,,,,,,,,,,,,,,,,,,http://opendatacommunities.org/id/unitary-authority/cornwall,Cornwall Council,BR63,Cliffside HotelCliff RoadPerranporthCornwallTR6 0DR,-5.156750827,50.34649546,https://map.cornwall.gov.uk/website/ccmap/?zoomlevel=1&xcoord=162690&ycoord=64380&wsName=ccmap&layerName,0.08,not owned by a public authority,,permissioned,,,,7,,,,,12/12/2017,12/12/2017,,,
,,,,,,,,,,,,,,,,,,,http://opendatacommunities.org/id/unitary-authority/cornwall,Cornwall Council,BR64,Hilmar And Post OfficePerranwell RoadGoonhavernTruroCornwallTR4 9JL,-5.112683302,50.34163008,https://map.cornwall.gov.uk/website/ccmap/?zoomlevel=1&xcoord=162690&ycoord=64380&wsName=ccmap&layerName,0.06,not owned by a public authority,,permissioned,,,,5,,,,,12/12/2017,12/12/2017,,,
,,,,,,,,,,,,,,,,,,,http://opendatacommunities.org/id/unitary-authority/cornwall,Cornwall Council,BR65,Tall Trees (The Hollies)Church LaneMevagisseySt AustellCornwallPL26 6SX,-4.789778131,50.27252317,https://map.cornwall.gov.uk/website/ccmap/?zoomlevel=1&xcoord=162690&ycoord=64380&wsName=ccmap&layerName,0.18,not owned by a public authority,,permissioned,,,,12,,,,,12/12/2017,12/12/2017,,,
,,,,,,,,,,,,,,,,,,,http://opendatacommunities.org/id/unitary-authority/cornwall,Cornwall Council,BR66,Former DMD SiteHewas WaterSt AustellCornwall,-4.855765103,50.31455652,https://map.cornwall.gov.uk/website/ccmap/?zoomlevel=1&xcoord=162690&ycoord=64380&wsName=ccmap&layerName,0.25,not owned by a public authority,,permissioned,,,,9,,,,,12/12/2017,12/12/2017,,,
,,,,,,,,,,,,,,,,,,,http://opendatacommunities.org/id/unitary-authority/cornwall,Cornwall Council,BR67,18 Lemon StreetTruroCornwallTR1 2LS,-5.051427823,50.26204977,https://map.cornwall.gov.uk/website/ccmap/?zoomlevel=1&xcoord=162690&ycoord=64380&wsName=ccmap&layerName,0.02,not owned by a public authority,,permissioned,,,,6,,,,,12/12/2017,12/12/2017,,,
,,,,,,,,,,,,,,,,,,,http://opendatacommunities.org/id/unitary-authority/cornwall,Cornwall Council,BR68,Farmers ArmsB3276 Between Harlyn Road And Towan RoadSt MerrynPadstowPL28 8NP,-4.992274758,50.52672734,https://map.cornwall.gov.uk/website/ccmap/?zoomlevel=1&xcoord=162690&ycoord=64380&wsName=ccmap&layerName,0.24,not owned by a public authority,,permissioned,,,,5,,,,,12/12/2017,12/12/2017,,,
,,,,,,,,,,,,,,,,,,,http://opendatacommunities.org/id/unitary-authority/cornwall,Cornwall Council,BR69,PZ360St Marys TerracePenzanceCornwallTR18 4DZ,-5.537309785,50.11733589,https://map.cornwall.gov.uk/website/ccmap/?zoomlevel=1&xcoord=162690&ycoord=64380&wsName=ccmap&layerName,0.08,not owned by a public authority,,permissioned,,,,6,,,,,12/12/2017,12/12/2017,,,
,,,,,,,,,,,,,,,,,,,http://opendatacommunities.org/id/unitary-authority/cornwall,Cornwall Council,BR70,South Crofty MineDudnance LanePoolRedruthCornwallTR15 3QT,-5.277238368,50.22341179,https://map.cornwall.gov.uk/website/ccmap/?zoomlevel=1&xcoord=162690&ycoord=64380&wsName=ccmap&layerName,2.41,not owned by a public authority,,permissioned,,,,99,,,,,12/12/2017,12/12/2017,,,
,,,,,,,,,,,,,,,,,,,http://opendatacommunities.org/id/unitary-authority/cornwall,Cornwall Council,BR71,Northern And Southern Parcels Trevenson Park SouthPoolRedruthCornwall,-5.277404115,50.22521534,https://map.cornwall.gov.uk/website/ccmap/?zoomlevel=1&xcoord=162690&ycoord=64380&wsName=ccmap&layerName,1.42,not owned by a public authority,,permissioned,,,,54,,,,,12/12/2017,12/12/2017,,,
,,,,,,,,,,,,,,,,,,,http://opendatacommunities.org/id/unitary-authority/cornwall,Cornwall Council,BR72,Northern And Southern Parcels Trevenson Park SouthPoolRedruthCornwall,-5.277404115,50.22521534,https://map.cornwall.gov.uk/website/ccmap/?zoomlevel=1&xcoord=162690&ycoord=64380&wsName=ccmap&layerName,1.73,not owned by a public authority,,permissioned,,,,90,,,,,12/12/2017,12/12/2017,,,
,,,,,,,,,,,,,,,,,,,http://opendatacommunities.org/id/unitary-authority/cornwall,Cornwall Council,BR73,Adjacent To Former Avers Garage SiteBy-pass RoadRedruthCornwallTR15 1EL,-5.232379179,50.24265272,https://map.cornwall.gov.uk/website/ccmap/?zoomlevel=1&xcoord=162690&ycoord=64380&wsName=ccmap&layerName,0.26,not owned by a public authority,,permissioned,,,,14,,,,,12/12/2017,12/12/2017,,,
,,,,,,,,,,,,,,,,,,,http://opendatacommunities.org/id/unitary-authority/cornwall,Cornwall Council,BR74,1 Station Hill And 5-6 Penryn StreetRedruthCornwallTR15 2PP,-5.228673446,50.23224838,https://map.cornwall.gov.uk/website/ccmap/?zoomlevel=1&xcoord=162690&ycoord=64380&wsName=ccmap&layerName,0.04,not owned by a public authority,,permissioned,,,,14,,,,,12/12/2017,12/12/2017,,,
,,,,,,,,,,,,,,,,,,,http://opendatacommunities.org/id/unitary-authority/cornwall,Cornwall Council,BR75,Redruth Brewery/PlumbaseFoundry RowChapel StreetRedruthCornwallTR15 1AW,-5.234007348,50.23479877,https://map.cornwall.gov.uk/website/ccmap/?zoomlevel=1&xcoord=162690&ycoord=64380&wsName=ccmap&layerName,1.32,mixed ownership,,permissioned,,,,160,,,,,12/12/2017,12/12/2017,,,
,,,,,,,,,,,,,,,,,,,http://opendatacommunities.org/id/unitary-authority/cornwall,Cornwall Council,BR76,Land Adjacent To The PaddocksTreleighRedruthCornwall,-5.219001705,50.2473065,https://map.cornwall.gov.uk/website/ccmap/?zoomlevel=1&xcoord=162690&ycoord=64380&wsName=ccmap&layerName,0.39,not owned by a public authority,,permissioned,,,,8,,,,,12/12/2017,12/12/2017,,,
,,,,,,,,,,,,,,,,,,,http://opendatacommunities.org/id/unitary-authority/cornwall,Cornwall Council,BR77,St Christophers Hotel High StreetBoscastleCornwallPL35 0BD,-4.690865811,50.68365547,https://map.cornwall.gov.uk/website/ccmap/?zoomlevel=1&xcoord=162690&ycoord=64380&wsName=ccmap&layerName,0.03,not owned by a public authority,,permissioned,,,,5,,,,,12/12/2017,12/12/2017,,,
,,,,,,,,,,,,,,,,,,,http://opendatacommunities.org/id/unitary-authority/cornwall,Cornwall Council,BR78,The Joinery Workshop Road From Parka Road To A39 Halloon RoundaboutSt Columb RoadCornwallTR9 6QP,-4.940484732,50.39930518,https://map.cornwall.gov.uk/website/ccmap/?zoomlevel=1&xcoord=162690&ycoord=64380&wsName=ccmap&layerName,0.12,not owned by a public authority,,permissioned,,,,7,,,,,12/12/2017,12/12/2017,,,
,,,,,,,,,,,,,,,,,,,http://opendatacommunities.org/id/unitary-authority/cornwall,Cornwall Council,BR79,Former John Julian DepositoryParka RoadSt Columb RoadCornwall,-5.016748746,51.57976923,https://map.cornwall.gov.uk/website/ccmap/?zoomlevel=1&xcoord=162690&ycoord=64380&wsName=ccmap&layerName,0.3,not owned by a public authority,,permissioned,,,,16,,,,,12/12/2017,12/12/2017,,,
,,,,,,,,,,,,,,,,,,,http://opendatacommunities.org/id/unitary-authority/cornwall,Cornwall Council,BR80,Land At Rear Of1 Fore StreetTorpointCornwallPL11 2AA,50.37659366,50.37659339,https://map.cornwall.gov.uk/website/ccmap/?zoomlevel=1&xcoord=162690&ycoord=64380&wsName=ccmap&layerName,0.05,not owned by a public authority,,permissioned,,,,5,,,,,12/12/2017,12/12/2017,,,
,,,,,,,,,,,,,,,,,,,http://opendatacommunities.org/id/unitary-authority/cornwall,Cornwall Council,BR81,Abbeyfield60 York RoadTorpointCornwallPL11 2LG,-4.199042721,50.37493671,https://map.cornwall.gov.uk/website/ccmap/?zoomlevel=1&xcoord=162690&ycoord=64380&wsName=ccmap&layerName,0.05,not owned by a public authority,,permissioned,,,,6,,,,,12/12/2017,12/12/2017,,,
,,,,,,,,,,,,,,,,,,,http://opendatacommunities.org/id/unitary-authority/cornwall,Cornwall Council,BR82,St Pirans HealthcareKryllas ManorRoscarrack RoadBudock WaterFalmouthCornwallTR11 5BL,-5.098527277,50.13947389,https://map.cornwall.gov.uk/website/ccmap/?zoomlevel=1&xcoord=162690&ycoord=64380&wsName=ccmap&layerName,0.36,not owned by a public authority,,permissioned,,,,5,,,,,12/12/2017,12/12/2017,,,
,,,,,,,,,,,,,,,,,,,http://opendatacommunities.org/id/unitary-authority/cornwall,Cornwall Council,BR83,Rosslyn110 Kimberley Park RoadFalmouthCornwallTR11 2JJ,-5.084717137,50.15499992,https://map.cornwall.gov.uk/website/ccmap/?zoomlevel=1&xcoord=162690&ycoord=64380&wsName=ccmap&layerName,0.28,not owned by a public authority,,permissioned,,,,33,,,,,12/12/2017,12/12/2017,,,
,,,,,,,,,,,,,,,,,,,http://opendatacommunities.org/id/unitary-authority/cornwall,Cornwall Council,BR84,Land South Of Chy-An-PorthThe TerraceSt Ives,-5.478735273,50.20846217,https://map.cornwall.gov.uk/website/ccmap/?zoomlevel=1&xcoord=162690&ycoord=64380&wsName=ccmap&layerName,0.05,not owned by a public authority,,permissioned,,,,6,,,,,12/12/2017,12/12/2017,,,
,,,,,,,,,,,,,,,,,,,http://opendatacommunities.org/id/unitary-authority/cornwall,Cornwall Council,BR85,Monowai Headland RoadCarbis BayCornwallTR26 2NR,-5.459449756,50.19669522,https://map.cornwall.gov.uk/website/ccmap/?zoomlevel=1&xcoord=162690&ycoord=64380&wsName=ccmap&layerName,0.1,not owned by a public authority,,permissioned,,,,5,,,,,12/12/2017,12/12/2017,,,
,,,,,,,,,,,,,,,,,,,http://opendatacommunities.org/id/unitary-authority/cornwall,Cornwall Council,BR86,Chy An Albany Hotel Albany TerraceSt. IvesCornwallTR26 2BS,-5.479017957,50.20733813,https://map.cornwall.gov.uk/website/ccmap/?zoomlevel=1&xcoord=162690&ycoord=64380&wsName=ccmap&layerName,0.26,not owned by a public authority,,permissioned,,,,9,,,,,12/12/2017,12/12/2017,,,
,,,,,,,,,,,,,,,,,,,http://opendatacommunities.org/id/unitary-authority/cornwall,Cornwall Council,BR87,Land North Of Tolcarne MewsTregoss RoadNewquayCornwallTR7 2NR,-5.07353953,50.41456552,https://map.cornwall.gov.uk/website/ccmap/?zoomlevel=1&xcoord=162690&ycoord=64380&wsName=ccmap&layerName,0.11,not owned by a public authority,,permissioned,,,,9,,,,,12/12/2017,12/12/2017,,,
,,,,,,,,,,,,,,,,,,,http://opendatacommunities.org/id/unitary-authority/cornwall,Cornwall Council,BR88,Vacation Lodge14 Berry RoadNewquayCornwallTR7 1AR,-5.078586527,50.41337049,https://map.cornwall.gov.uk/website/ccmap/?zoomlevel=1&xcoord=162690&ycoord=64380&wsName=ccmap&layerName,0.03,not owned by a public authority,,permissioned,,,,9,,,,,12/12/2017,12/12/2017,,,
,,,,,,,,,,,,,,,,,,,http://opendatacommunities.org/id/unitary-authority/cornwall,Cornwall Council,BR89,Carlyon BaySt AustellCornwallPL25 3RG,-4.734573145,50.33660432,https://map.cornwall.gov.uk/website/ccmap/?zoomlevel=1&xcoord=162690&ycoord=64380&wsName=ccmap&layerName,22.17,not owned by a public authority,,permissioned,,,,511,,,,,12/12/2017,12/12/2017,,,
,,,,,,,,,,,,,,,,,,,http://opendatacommunities.org/id/unitary-authority/cornwall,Cornwall Council,BR90,Western National LtdEliot RoadSt AustellCornwallPL25 4NL,-4.779099626,50.33928114,https://map.cornwall.gov.uk/website/ccmap/?zoomlevel=1&xcoord=162690&ycoord=64380&wsName=ccmap&layerName,0.48,not owned by a public authority,,permissioned,,,,30,,,,,12/12/2017,12/12/2017,,,
,,,,,,,,,,,,,,,,,,,http://opendatacommunities.org/id/unitary-authority/cornwall,Cornwall Council,BR91,Land Rear Of Halifax13-14 Pydar Street TruroTruroCornwallTR1 2AX,50.26435092,50.26435092,https://map.cornwall.gov.uk/website/ccmap/?zoomlevel=1&xcoord=162690&ycoord=64380&wsName=ccmap&layerName,0.08,not owned by a public authority,,permissioned,,,,14,,,,,12/12/2017,12/12/2017,,,
,,,,,,,,,,,,,,,,,,,http://opendatacommunities.org/id/unitary-authority/cornwall,Cornwall Council,BR92,Tremorvah HouseTremorvah CrescentTruroCornwallTR1 1NL,-5.043659032,50.26697636,https://map.cornwall.gov.uk/website/ccmap/?zoomlevel=1&xcoord=162690&ycoord=64380&wsName=ccmap&layerName,0.71,not owned by a public authority,,permissioned,,,,13,,,,,12/12/2017,12/12/2017,,,
,,,,,,,,,,,,,,,,,,,http://opendatacommunities.org/id/unitary-authority/cornwall,Cornwall Council,BR93,Methodist ChurchSt Georges RoadTruroCornwallTR1 3JD,-5.058308824,50.26431563,https://map.cornwall.gov.uk/website/ccmap/?zoomlevel=1&xcoord=162690&ycoord=64380&wsName=ccmap&layerName,0.05,not owned by a public authority,,permissioned,,,,8,,,,,12/12/2017,12/12/2017,,,
,,,,,,,,,,,,,,,,,,,http://opendatacommunities.org/id/unitary-authority/cornwall,Cornwall Council,BR94,Hodges Motor Works SiteRosudgeonPenzanceCornwallTR20 9PA,-5.419282672,50.11568441,https://map.cornwall.gov.uk/website/ccmap/?zoomlevel=1&xcoord=162690&ycoord=64380&wsName=ccmap&layerName,0.17,not owned by a public authority,,permissioned,,,,5,,,,,12/12/2017,12/12/2017,,,
,,,,,,,,,,,,,,,,,,,http://opendatacommunities.org/id/unitary-authority/cornwall,Cornwall Council,BR95,Athelstan HousePriory RoadBodminCornwallPL31 2AE,-4.714986888,50.47040021,https://map.cornwall.gov.uk/website/ccmap/?zoomlevel=1&xcoord=162690&ycoord=64380&wsName=ccmap&layerName,0.44,not owned by a public authority,,permissioned,,,,32,,,,,12/12/2017,12/12/2017,,,
,,,,,,,,,,,,,,,,,,,http://opendatacommunities.org/id/unitary-authority/cornwall,Cornwall Council,BR96,Royal British LegionGurneys LaneCamborneCornwallTR14 8JP,-5.299938595,50.21343075,https://map.cornwall.gov.uk/website/ccmap/?zoomlevel=1&xcoord=162690&ycoord=64380&wsName=ccmap&layerName,0.05,not owned by a public authority,,permissioned,,,,10,,,,,12/12/2017,12/12/2017,,,
,,,,,,,,,,,,,,,,,,,http://opendatacommunities.org/id/unitary-authority/cornwall,Cornwall Council,BR97,8 Tower StreetLauncestonCornwallPL15 8BQ,-4.360855806,50.63861583,https://map.cornwall.gov.uk/website/ccmap/?zoomlevel=1&xcoord=162690&ycoord=64380&wsName=ccmap&layerName,0.04,not owned by a public authority,,permissioned,,,,5,,,,,12/12/2017,12/12/2017,,,
,,,,,,,,,,,,,,,,,,,http://opendatacommunities.org/id/unitary-authority/cornwall,Cornwall Council,BR98,Newquay Reef Surf Lodge5 - 7 Springfield RoadNewquayCornwallTR7 1RT,-5.076549714,50.41387419,https://map.cornwall.gov.uk/website/ccmap/?zoomlevel=1&xcoord=162690&ycoord=64380&wsName=ccmap&layerName,0.08,not owned by a public authority,,permissioned,,,,9,,,,,12/12/2017,12/12/2017,,,
,,,,,,,,,,,,,,,,,,,http://opendatacommunities.org/id/unitary-authority/cornwall,Cornwall Council,BR99,4 - 5 Biddicks CourtSt AustellCornwallPL25 5EW,-4.793591956,50.33858293,https://map.cornwall.gov.uk/website/ccmap/?zoomlevel=1&xcoord=162690&ycoord=64380&wsName=ccmap&layerName,0.03,not owned by a public authority,,permissioned,,,,6,,,,,12/12/2017,12/12/2017,,,
,,,,,,,,,,,,,,,,,,,http://opendatacommunities.org/id/unitary-authority/cornwall,Cornwall Council,BR100,Charlestown ChapelCharlestown RoadCharlestownSt. AustellPL25 3NLCornwall,-4.758619023,50.33342744,https://map.cornwall.gov.uk/website/ccmap/?zoomlevel=1&xcoord=162690&ycoord=64380&wsName=ccmap&layerName,0.07,not owned by a public authority,,permissioned,,,,5,,,,PA17/08771 pending for amendments to consents PA13/05121 and PA13/05122,12/12/2017,12/12/2017,,,
,,,,,,,,,,,,,,,,,,,http://opendatacommunities.org/id/unitary-authority/cornwall,Cornwall Council,BR101,Derelict CottagesChapel StreetProbusTruroCornwallTR2 4LD,-4.951328439,50.29379085,https://map.cornwall.gov.uk/website/ccmap/?zoomlevel=1&xcoord=162690&ycoord=64380&wsName=ccmap&layerName,0.09,not owned by a public authority,,permissioned,,,,7,,,,,12/12/2017,12/12/2017,,,
,,,,,,,,,,,,,,,,,,,http://opendatacommunities.org/id/unitary-authority/cornwall,Cornwall Council,BR102,XeniaUnion StreetTruroCornwallTR1 2BB,-5.055057141,50.26459911,https://map.cornwall.gov.uk/website/ccmap/?zoomlevel=1&xcoord=162690&ycoord=64380&wsName=ccmap&layerName,0.05,not owned by a public authority,,permissioned,,,,8,,,,,12/12/2017,12/12/2017,,,
,,,,,,,,,,,,,,,,,,,http://opendatacommunities.org/id/unitary-authority/cornwall,Cornwall Council,BR103,Old BakeryPolmorla RoadWadebridgeCornwallPL27 7ND,-4.83748584,50.51519623,https://map.cornwall.gov.uk/website/ccmap/?zoomlevel=1&xcoord=162690&ycoord=64380&wsName=ccmap&layerName,0.32,not owned by a public authority,,permissioned,,,,37,,,,,12/12/2017,12/12/2017,,,
,,,,,,,,,,,,,,,,,,,http://opendatacommunities.org/id/unitary-authority/cornwall,Cornwall Council,BR104,Land OffStray Park RoadCamborneCornwall,-5.29147779,50.2121056,https://map.cornwall.gov.uk/website/ccmap/?zoomlevel=1&xcoord=162690&ycoord=64380&wsName=ccmap&layerName,0.46,not owned by a public authority,,permissioned,,,,7,,,,,12/12/2017,12/12/2017,,,
,,,,,,,,,,,,,,,,,,,http://opendatacommunities.org/id/unitary-authority/cornwall,Cornwall Council,BR105,Former Foul Water Pumping StationDellohay ParkSaltashCornwall,-4.230105016,50.41374115,https://map.cornwall.gov.uk/website/ccmap/?zoomlevel=1&xcoord=162690&ycoord=64380&wsName=ccmap&layerName,0.1,not owned by a public authority,,permissioned,,,,5,,,,,12/12/2017,12/12/2017,,,
,,,,,,,,,,,,,,,,,,,http://opendatacommunities.org/id/unitary-authority/cornwall,Cornwall Council,BR106,13 Upton TowansHayleTR27 5BJ,-5.394093019,50.20689273,https://map.cornwall.gov.uk/website/ccmap/?zoomlevel=1&xcoord=162690&ycoord=64380&wsName=ccmap&layerName,0.16,not owned by a public authority,,permissioned,,,,7,,,,,12/12/2017,12/12/2017,,,
,,,,,,,,,,,,,,,,,,,http://opendatacommunities.org/id/unitary-authority/cornwall,Cornwall Council,BR107,Devon & Cornwall Constabulary Police Station 1 Palace RoadSt. AustellCornwallPL25 4AL,-4.787162785,50.33968177,https://map.cornwall.gov.uk/website/ccmap/?zoomlevel=1&xcoord=162690&ycoord=64380&wsName=ccmap&layerName,0.14,not owned by a public authority,,permissioned,,,,6,,,,PA16/12191 granted since 31 March 2017 for 10 units,12/12/2017,12/12/2017,,,
,,,,,,,,,,,,,,,,,,,http://opendatacommunities.org/id/unitary-authority/cornwall,Cornwall Council,BR108,61 - 62 Chapel StreetPenzanceCornwallTR18 4AE,-5.536170802,50.11801838,https://map.cornwall.gov.uk/website/ccmap/?zoomlevel=1&xcoord=162690&ycoord=64380&wsName=ccmap&layerName,0.03,not owned by a public authority,,permissioned,,,,7,,,,,12/12/2017,12/12/2017,,,
,,,,,,,,,,,,,,,,,,,http://opendatacommunities.org/id/unitary-authority/cornwall,Cornwall Council,BR109,Land At Tuckingmill/Church View FarmCamborneCornwall,-5.283589297,50.2174748,https://map.cornwall.gov.uk/website/ccmap/?zoomlevel=1&xcoord=162690&ycoord=64380&wsName=ccmap&layerName,8.04,not owned by a public authority,,permissioned,,,,296,,,,,12/12/2017,12/12/2017,,,
,,,,,,,,,,,,,,,,,,,http://opendatacommunities.org/id/unitary-authority/cornwall,Cornwall Council,BR110,Hayle HarbourNorth QuayHayleCornwallTR27 4BL,-5.422158958,50.18439607,https://map.cornwall.gov.uk/website/ccmap/?zoomlevel=1&xcoord=162690&ycoord=64380&wsName=ccmap&layerName,4.48,not owned by a public authority,,permissioned,,,,30,,,,,12/12/2017,12/12/2017,,,
,,,,,,,,,,,,,,,,,,,http://opendatacommunities.org/id/unitary-authority/cornwall,Cornwall Council,BR111,Trevarthan Bungalow & The SawmillGrumblaSancreedSt JustPenzanceCornwall,-5.631455002,50.1102165,https://map.cornwall.gov.uk/website/ccmap/?zoomlevel=1&xcoord=162690&ycoord=64380&wsName=ccmap&layerName,0.45,not owned by a public authority,,permissioned,,,,5,,,,,12/12/2017,12/12/2017,,,
,,,,,,,,,,,,,,,,,,,http://opendatacommunities.org/id/unitary-authority/cornwall,Cornwall Council,BR112,The Old Sail LoftsBethesda HillSt IvesCornwall,-5.477793819,50.21556167,https://map.cornwall.gov.uk/website/ccmap/?zoomlevel=1&xcoord=162690&ycoord=64380&wsName=ccmap&layerName,0.14,not owned by a public authority,,permissioned,,,,5,,,,,12/12/2017,12/12/2017,,,
,,,,,,,,,,,,,,,,,,,http://opendatacommunities.org/id/unitary-authority/cornwall,Cornwall Council,BR113,The Former Site Of Tregolls HouseTregolls RoadTruroTR1 1PX,-5.043642737,50.26408013,https://map.cornwall.gov.uk/website/ccmap/?zoomlevel=1&xcoord=162690&ycoord=64380&wsName=ccmap&layerName,8,not owned by a public authority,,permissioned,,,,14,,,,,12/12/2017,12/12/2017,,,
,,,,,,,,,,,,,,,,,,,http://opendatacommunities.org/id/unitary-authority/cornwall,Cornwall Council,BR114,Taylors Garage SiteCoinagehall StreetPenzance,-5.531989606,50.11539283,https://map.cornwall.gov.uk/website/ccmap/?zoomlevel=1&xcoord=162690&ycoord=64380&wsName=ccmap&layerName,0.33,not owned by a public authority,,permissioned,,,,55,,,,,12/12/2017,12/12/2017,,,
,,,,,,,,,,,,,,,,,,,http://opendatacommunities.org/id/unitary-authority/cornwall,Cornwall Council,BR115,W Harvey & SonsThe CoombeNewlynPenzanceCornwallTR18 5HF,-5.552243824,50.10719905,https://map.cornwall.gov.uk/website/ccmap/?zoomlevel=1&xcoord=162690&ycoord=64380&wsName=ccmap&layerName,0.05,not owned by a public authority,,permissioned,,,,14,,,,,12/12/2017,12/12/2017,,,
,,,,,,,,,,,,,,,,,,,http://opendatacommunities.org/id/unitary-authority/cornwall,Cornwall Council,BR116,Gurnick RoadFaugan ParcNewlynPenzanceCornwallTR18 5DG,-5.554591736,50.10150417,https://map.cornwall.gov.uk/website/ccmap/?zoomlevel=1&xcoord=162690&ycoord=64380&wsName=ccmap&layerName,0.31,not owned by a public authority,,permissioned,,,,2,,,,,12/12/2017,12/12/2017,,,
,,,,,,,,,,,,,,,,,,,http://opendatacommunities.org/id/unitary-authority/cornwall,Cornwall Council,BR117,Champions Yard And 17 CausewayheadPenzanceCornwallTR18 2TA,-5.53895256,50.11968787,https://map.cornwall.gov.uk/website/ccmap/?zoomlevel=1&xcoord=162690&ycoord=64380&wsName=ccmap&layerName,0.04,not owned by a public authority,,permissioned,,,,10,,,,,12/12/2017,12/12/2017,,,
,,,,,,,,,,,,,,,,,,,http://opendatacommunities.org/id/unitary-authority/cornwall,Cornwall Council,BR118,Marshalls Garage Stratton,-4.51617616,50.82960895,https://map.cornwall.gov.uk/website/ccmap/?zoomlevel=1&xcoord=162690&ycoord=64380&wsName=ccmap&layerName,0.11,not owned by a public authority,,permissioned,,,,4,,,,,12/12/2017,12/12/2017,,,
,,,,,,,,,,,,,,,,,,,http://opendatacommunities.org/id/unitary-authority/cornwall,Cornwall Council,BR119,St. Hilarys Residential Home Bramble Hill Bude,-4.54253368,50.82905531,https://map.cornwall.gov.uk/website/ccmap/?zoomlevel=1&xcoord=162690&ycoord=64380&wsName=ccmap&layerName,0.32,not owned by a public authority,,permissioned,,,,30,,,,,12/12/2017,12/12/2017,,,
,,,,,,,,,,,,,,,,,,,http://opendatacommunities.org/id/unitary-authority/cornwall,Cornwall Council,BR120,Longships Hotel Talland Road St Ives,-5.47970211,50.20961174,https://map.cornwall.gov.uk/website/ccmap/?zoomlevel=1&xcoord=162690&ycoord=64380&wsName=ccmap&layerName,0.1,not owned by a public authority,,permissioned,,,,7,,,,,12/12/2017,12/12/2017,,,
,,,,,,,,,,,,,,,,,,,http://opendatacommunities.org/id/unitary-authority/cornwall,Cornwall Council,BR121,"Wyko 
Carn Brea Lane
Pool",-5.26534696,50.22443056,https://map.cornwall.gov.uk/website/ccmap/?zoomlevel=1&xcoord=162690&ycoord=64380&wsName=ccmap&layerName,0.15,not owned by a public authority,,permissioned,,,,8,,,,,12/12/2017,12/12/2017,,,
,,,,,,,,,,,,,,,,,,,http://opendatacommunities.org/id/unitary-authority/cornwall,Cornwall Council,BR122,"Former Car Park 
Lansdowne Park
Wheal Rose
Scorrier",-5.20551997,50.26026495,https://map.cornwall.gov.uk/website/ccmap/?zoomlevel=1&xcoord=162690&ycoord=64380&wsName=ccmap&layerName,0.33,not owned by a public authority,,permissioned,,,,6,,,,,12/12/2017,12/12/2017,,,
