address,address-text,deliverable,end-date,entry-date,hazardous-substances,hectares,latitude,longitude,maximum-net-dwellings,minimum-net-dwellings,notes,organisation,ownership-status,planning-permission-date,planning-permission-history,planning-permission-status,planning-permission-type,site,OrganisationURI,OrganisationLabel,SiteReference,SiteNameAddress,GeoX,GeoY,SiteplanURL,Hectares,OwnershipStatus,HazardousSubstances,PlanningStatus,PermissionType,PermissionDate,PlanningHistory,MinNetDwellings,NetDwellingsRangeFrom,NetDwellingsRangeTo,Deliverable,Notes,FirstAddedDate,LastUpdatedDate,EndDate,site-plan-url,start-date
,,,,,,,,,,,,,,,,,,,http://opendatacommunities.org/id/district-council/chichester,,BLR0002,"Land south of Graylingwell Drive, Chichester, West Sussex",106604,486595,http://www.chichester.gov.uk/CHttpHandler.ashx?id=30974,7.42,owned by a public authority,,permissioned,,,,,,,,"Demolition of existing hospital buildings and development of up to 160 new homes including retention and improvement of sports pitch/open space, new pavilion and children's play area; restoration of Martin's Farm house for residential use (included in 160 unit total); access arrangements and ancillary works and demolition of pavilion.",31/12/2017,31/12/2017,,,
,,,,,,,,,,,,,,,,,,,http://opendatacommunities.org/id/district-council/chichester,,BLR0003,"St Wilfrids Hospice, Grosvenor Road, Donnington, West Sussex, PO19 8FP",103555,485696,http://www.chichester.gov.uk/CHttpHandler.ashx?id=30975,0.68,not owned by a public authority,,permissioned,,,,,,,,"Originally included as 'Demolition of existing hospice and replacement with 21 no. residential dwellings'. Replaced in 2019 by application 'Demolition of existing hospice and erection of a 75-bed care home (within Class C2), parking, access, landscaping and other associated works'. Dwellings listed at 41 - equivalent to ratio of 1.8 in HDT.",31/12/2017,31/12/2019,,,
,,,,,,,,,,,,,,,,,,,http://opendatacommunities.org/id/district-council/chichester,,BLR0004,"Home Farm Hostel, Chichester Road, Selsey, West Sussex, PO20 9DX",95581,486046,http://www.chichester.gov.uk/CHttpHandler.ashx?id=30976,0.14,not owned by a public authority,,permissioned,,,,,,,,Change of use of existing agricultural workers accommodation to 10 no. residential dwellings and associated works.,31/12/2017,31/12/2017,,,
,,,,,,,,,,,,,,,,,,,http://opendatacommunities.org/id/district-council/chichester,,BLR0005,"Land west of Maddoxwood Cottage, Lavant Road, Chichester, PO19 5RD",107334,485613,http://www.chichester.gov.uk/CHttpHandler.ashx?id=30977,0.5,not owned by a public authority,,permissioned,,,,,,,,Erection of 10 no. dwellings with the associated car parking and landscaping and retention of Maddoxwood House. Provision of a foot/cycle path.,31/12/2017,31/12/2017,,,
,,,,,,,,,,,,,,,,,,,http://opendatacommunities.org/id/district-council/chichester,,BLR0007,"Brewhurst Mill, Brewhurst Lane, Loxwood, Billingshurst, West Sussex, RH14 0RJ",131072,504590,http://www.chichester.gov.uk/CHttpHandler.ashx?id=30978,1.47,not owned by a public authority,,permissioned,,,,,,,,Residential conversion of part of Brewhurst Mill to dwelling.,31/12/2017,31/12/2017,,,
,,,,,,,,,,,,,,,,,,,http://opendatacommunities.org/id/district-council/chichester,,BLR0008,"Co-operative Food, Malcolm Road, Tangmere, Chichester, West Sussex, PO20 2HS",106551,490414,http://www.chichester.gov.uk/CHttpHandler.ashx?id=30979,0.27,not owned by a public authority,,permissioned,,,,,,,,"Change of use of upper floors from vacant (A4) to 3 no. residential apartments (C3) including installation of external stair, bin and cycle store and car parking spaces.",31/12/2017,31/12/2017,,,
,,,,,,,,,,,,,,,,,,,http://opendatacommunities.org/id/district-council/chichester,,BLR0009,"Land at the Tannery, Westgate, Chichester, West Sussex, PO19 3HN",104739,485412,http://www.chichester.gov.uk/CHttpHandler.ashx?id=30980,0.55,owned by a public authority,,not permissioned,,,,,,,,,31/12/2017,31/12/2017,,,
,,,,,,,,,,,,,,,,,,,http://opendatacommunities.org/id/district-council/chichester,,BLR0010,"Metro House, Northgate, Chichester, West Sussex, PO19 3HN",105262,486075,http://www.chichester.gov.uk/CHttpHandler.ashx?id=30981,0.2,not owned by a public authority,,not permissioned,,,,,,,,,31/12/2017,31/12/2017,,,
,,,,,,,,,,,,,,,,,,,http://opendatacommunities.org/id/district-council/chichester,,BLR0011,"Land at Police Station, Kingsham Road, Chichester, PO19 8AD",104202,486173,http://www.chichester.gov.uk/CHttpHandler.ashx?id=30982,0.69,owned by a public authority,,not permissioned,,,,,,,,,31/12/2017,31/12/2017,,,
,,,,,,,,,,,,,,,,,,,http://opendatacommunities.org/id/district-council/chichester,,BLR0012,"Former Portfield Depot and UMA House, Oving, Chichester, West Sussex, PO19 7UW",105102,488029,http://www.chichester.gov.uk/CHttpHandler.ashx?id=30983,2.15,not owned by a public authority,,permissioned,,,,,,,,"Outline application for the re-development of the site to provide student housing of up to 521 bedrooms with a supporting student hub building, associated amenities, parking and landscaping. Dwellings listed at 208 - equilvalent to ratio of 2.5 in HDT. Decision pending on application for 88 C3 dwellings on site.",31/12/2017,31/12/2019,,,
,,,,,,,,,,,,,,,,,,,http://opendatacommunities.org/id/district-council/chichester,,BLR0013,"Tangmere Academy, Bishops Road, Tangmere, West Sussex, PO20 2JB",106824,490680,http://www.chichester.gov.uk/CHttpHandler.ashx?id=30984,1.21,owned by a public authority,,not permissioned,,,,,,,,,31/12/2017,31/12/2017,,,
,,,,,,,,,,,,,,,,,,,http://opendatacommunities.org/id/district-council/chichester,,BLR0014,"98 Fishbourne Road, Fishbourne, West Sussex, PO19 3JL",104718,483823,http://www.chichester.gov.uk/CHttpHandler.ashx?id=30985,0.33,not owned by a public authority,,permissioned,,,,,,,,"Replacement building providing six, two bedroom apartments, parking and associated works.",31/12/2017,31/12/2017,,,
,,,,,,,,,,,,,,,,,,,http://opendatacommunities.org/id/district-council/chichester,,BLR0015,"Clark's Yard, Billingshurst Road, Wisborough Green",125726,505401,http://www.chichester.gov.uk/CHttpHandler.ashx?id=30986,0.6,not owned by a public authority,,not permissioned,,,,,,,,,31/12/2017,31/12/2017,,,
,,,,,,,,,,,,,,,,,,,http://opendatacommunities.org/id/district-council/chichester,,BLR0016,"Jutland House, Kiln Drive (Lion Park), Hambrook, PO18 8FJ",105793,478684,http://www.chichester.gov.uk/CHttpHandler.ashx?id=30987,0.16,not owned by a public authority,,permissioned,,,,,,,,"Change of use of existing vacant building to 8 no. apartments (5 no. 2 bed, 3 no. 1 bed) on ground, first and second floor, with flexible A2/B1a/D1 (health/medical) use on one half of the ground floor, including elevational alterations, parking and landscaping.",31/12/2018,31/12/2018,,,
,,,,,,,,,,,,,,,,,,,http://opendatacommunities.org/id/district-council/chichester,,BLR0017,"Greenacre Nursery, Main Road, Chidham, PO18 8TP",105272,478904,http://www.chichester.gov.uk/CHttpHandler.ashx?id=30988,0.75,not owned by a public authority,,permissioned,,,,,,,,Reuse of previously developed land for residential development of 10 no. dwellings and associated works.,31/12/2018,31/12/2018,,,
,,,,,,,,,,,,,,,,,,,http://opendatacommunities.org/id/district-council/chichester,,BLR0018,"Royal Oak, Stocks Lane, East Wittering, West Sussex, PO20 8BS",97169,479660,http://www.chichester.gov.uk/CHttpHandler.ashx?id=30989,0.24,not owned by a public authority,,permissioned,,,,,,,,"Retention of the former Royal Oak public house and demolition of dog grooming business. Provision of 8 no. ancillary accommodation units at ground, first and second floors of public house, together with proposed internal and external alterations and associated parking and landscaping. Erection of a terrace of 9 no. dwelling units (consisting of 1 no. 3 bedroom house, 1 no. 4 bedroom house, 2 no. 1 bedroom flats, 4 no. 2 bedroom flats and 1 no. 3 bedroom flat) and the erection of 1 no. 3 bedroom chalet bungalow together with associated parking and landscaping at Stocks Lane, East Wittering.",31/12/2018,31/12/2018,,,
,,,,,,,,,,,,,,,,,,,http://opendatacommunities.org/id/district-council/chichester,,BLR0019,49-51 Fishbourne Road East,104656,484312,http://www.chichester.gov.uk/CHttpHandler.ashx?id=31066,0.62,not owned by a public authority,,permissioned,,,,,,,,"The comprehensive redevelopment of the former Downland House HQ office site at 49-51 Fishbourne Road East, Chichester for 37 new affordable homes comprising 30 shared ownership apartments, 5 affordable rent houses and 2 affordable rent apartments; car and cycle parking; vehicle and pedestrian access off Fishbourne Road East; landscaping; boundary treatment; amenity space and other ancillary development requirements.",31/12/2018,31/12/2018,,,
,,,,,,,,,,,,,,,,,,,http://opendatacommunities.org/id/district-council/chichester,,BLR0020,"South Downs Holiday Village, Bracklesham Lane, Bracklesham Bay, Chichester, West Sussex, PO20 8JE",97079,480841,http://www.chichester.gov.uk/CHttpHandler.ashx?id=30991,2.1,not owned by a public authority,,permissioned,,,,,,,,"Redevelopment of the former South Downs Holiday Park with the erection of 85 dwellings with vehicular access, Local Equipped Area for Play, public open space, landscaping, foothpath links and other related infrastructure.",31/12/2018,31/12/2018,,,
,,,,,,,,,,,,,,,,,,,http://opendatacommunities.org/id/district-council/chichester,,BLR0021,"17-19 Seal Road, Selsey",92506,485260,http://www.chichester.gov.uk/CHttpHandler.ashx?id=32766,0.12,not owned by a public authority,,permissioned,,,,,,,,"Alterations and conversion of main property into 7 no. flats, demolition of existing bungalow and associated access alterations, parking, bin and cycle storage.",31/12/2019,31/12/2019,,,
,,,,,,,,,,,,,,,,,,,http://opendatacommunities.org/id/district-council/chichester,,BLR0022,Stone House  82 West Street Selsey,93023,484672,http://www.chichester.gov.uk/CHttpHandler.ashx?id=32767,0.26,not owned by a public authority,,permissioned,,,,,,,,Construction of up to 5 no. dwellings.,31/12/2019,31/12/2019,,,
