address,address-text,deliverable,end-date,entry-date,hazardous-substances,hectares,latitude,longitude,maximum-net-dwellings,minimum-net-dwellings,notes,organisation,ownership-status,planning-permission-date,planning-permission-history,planning-permission-status,planning-permission-type,site,OrganisationURI,OrganisationLabel,SiteReference,SiteNameAddress,GeoX,GeoY,SiteplanURL,Hectares,OwnershipStatus,HazardousSubstances,PlanningStatus,PermissionType,PermissionDate,PlanningHistory,MinNetDwellings,NetDwellingsRangeFrom,NetDwellingsRangeTo,Deliverable,Notes,FirstAddedDate,LastUpdatedDate,EndDate,site-plan-url,start-date
,,,,,,,,,,,,,,,,,,,http://opendatacommunities.org/id/unitary-authority/wiltshire,Wiltshire Council,,"Skylark Motor Services Ltd, The Ridge, Woodfalls, Salisbury",419779,120125,https://wiltscouncil.maps.arcgis.com/apps/webappviewer/index.html?id=74a353612a934bd48fee1f2bc564cdd8,0.28,not owned by a public authority,,permissioned,,,,7,,,,,01/12/2017,,,,
,,,,,,,,,,,,,,,,,,,http://opendatacommunities.org/id/unitary-authority/wiltshire,Wiltshire Council,,"St Marys School, College Road, Purton (nr Swindon)",409188,187546,https://wiltscouncil.maps.arcgis.com/apps/webappviewer/index.html?id=74a353612a934bd48fee1f2bc564cdd8,0.26,not owned by a public authority,,permissioned,,,,8,,,,,01/12/2017,,,,
,,,,,,,,,,,,,,,,,,,http://opendatacommunities.org/id/unitary-authority/wiltshire,Wiltshire Council,,"Rear of Wesley Road Club, Wesley Road, Trowbridge",385130,157505,https://wiltscouncil.maps.arcgis.com/apps/webappviewer/index.html?id=74a353612a934bd48fee1f2bc564cdd8,0.22,not owned by a public authority,,permissioned,,,,6,,,,,01/12/2017,,,,
,,,,,,,,,,,,,,,,,,,http://opendatacommunities.org/id/unitary-authority/wiltshire,Wiltshire Council,,"Victoria Garage [demolished] 36 Victoria Road, Warminster",386137,144955,https://wiltscouncil.maps.arcgis.com/apps/webappviewer/index.html?id=74a353612a934bd48fee1f2bc564cdd8,0.39,not owned by a public authority,,permissioned,,,,8,,,,,01/12/2017,,,,
,,,,,,,,,,,,,,,,,,,http://opendatacommunities.org/id/unitary-authority/wiltshire,Wiltshire Council,,"81 The Green Lyneham, Chippenham",401990,179384,https://wiltscouncil.maps.arcgis.com/apps/webappviewer/index.html?id=74a353612a934bd48fee1f2bc564cdd8,0.5,not owned by a public authority,,permissioned,,,,15,,,,,01/12/2017,,,,
,,,,,,,,,,,,,,,,,,,http://opendatacommunities.org/id/unitary-authority/wiltshire,Wiltshire Council,,"109 & Foxlea, Gloucester Road, Malmesbury",393107,187721,https://wiltscouncil.maps.arcgis.com/apps/webappviewer/index.html?id=74a353612a934bd48fee1f2bc564cdd8,0.23,mixed ownership,,permissioned,,,,26,,,,,01/12/2017,,,,
,,,,,,,,,,,,,,,,,,,http://opendatacommunities.org/id/unitary-authority/wiltshire,Wiltshire Council,,"Parklands, Malmesbury Road, Chippenham",391813,174028,https://wiltscouncil.maps.arcgis.com/apps/webappviewer/index.html?id=74a353612a934bd48fee1f2bc564cdd8,0.4,not owned by a public authority,,permissioned,,,,11,,,,,01/12/2017,,,,
,,,,,,,,,,,,,,,,,,,http://opendatacommunities.org/id/unitary-authority/wiltshire,Wiltshire Council,,"Pembroke House Edward Street, Westbury",387266,151293,https://wiltscouncil.maps.arcgis.com/apps/webappviewer/index.html?id=74a353612a934bd48fee1f2bc564cdd8,0.03,not owned by a public authority,,permissioned,,,,6,,,,,01/12/2017,,,,
,,,,,,,,,,,,,,,,,,,http://opendatacommunities.org/id/unitary-authority/wiltshire,Wiltshire Council,,"North Junction, Station Road, Westbury",386246,152191,https://wiltscouncil.maps.arcgis.com/apps/webappviewer/index.html?id=74a353612a934bd48fee1f2bc564cdd8,2.01,mixed ownership,,permissioned,,,,102,,,,,01/12/2017,,,,
,,,,,,,,,,,,,,,,,,,http://opendatacommunities.org/id/unitary-authority/wiltshire,Wiltshire Council,,"13-16 Market Place, Chippenham",392193,173172,https://wiltscouncil.maps.arcgis.com/apps/webappviewer/index.html?id=74a353612a934bd48fee1f2bc564cdd8,0.05,not owned by a public authority,,permissioned,,,,8,,,,,01/12/2017,,,,
,,,,,,,,,,,,,,,,,,,http://opendatacommunities.org/id/unitary-authority/wiltshire,Wiltshire Council,,"9a Malmesbury Road, Chippenham",391910,174015,https://wiltscouncil.maps.arcgis.com/apps/webappviewer/index.html?id=74a353612a934bd48fee1f2bc564cdd8,0.17,mixed ownership,,permissioned,,,,5,,,,,01/12/2017,,,,
,,,,,,,,,,,,,,,,,,,http://opendatacommunities.org/id/unitary-authority/wiltshire,Wiltshire Council,,"Doorworld, Bristol Road, Chippenham",390826,174071,https://wiltscouncil.maps.arcgis.com/apps/webappviewer/index.html?id=74a353612a934bd48fee1f2bc564cdd8,0.2,not owned by a public authority,,permissioned,,,,6,,,,,01/12/2017,,,,
,,,,,,,,,,,,,,,,,,,http://opendatacommunities.org/id/unitary-authority/wiltshire,Wiltshire Council,,"Old Glove Factory, Adjacent 25 Brockleaze, Neston (nr Corsham)",386717,168172,https://wiltscouncil.maps.arcgis.com/apps/webappviewer/index.html?id=74a353612a934bd48fee1f2bc564cdd8,0.34,not owned by a public authority,,permissioned,,,,10,,,,,01/12/2017,,,,
,,,,,,,,,,,,,,,,,,,http://opendatacommunities.org/id/unitary-authority/wiltshire,Wiltshire Council,,"Former Dairy, Priory Street, Corsham",386599,170814,https://wiltscouncil.maps.arcgis.com/apps/webappviewer/index.html?id=74a353612a934bd48fee1f2bc564cdd8,0.16,not owned by a public authority,,permissioned,,,,7,,,,,01/12/2017,,,,
,,,,,,,,,,,,,,,,,,,http://opendatacommunities.org/id/unitary-authority/wiltshire,Wiltshire Council,,"Windmill House, Common Hill, Cricklade",408481,193333,https://wiltscouncil.maps.arcgis.com/apps/webappviewer/index.html?id=74a353612a934bd48fee1f2bc564cdd8,0.87,not owned by a public authority,,permissioned,,,,5,,,,,01/12/2017,,,,
,,,,,,,,,,,,,,,,,,,http://opendatacommunities.org/id/unitary-authority/wiltshire,Wiltshire Council,,"Hill House Nursing Home, Little Somerford (nr Chippenham)",396494,184977,https://wiltscouncil.maps.arcgis.com/apps/webappviewer/index.html?id=74a353612a934bd48fee1f2bc564cdd8,0.44,not owned by a public authority,,permissioned,,,,12,,,,,01/12/2017,,,,
,,,,,,,,,,,,,,,,,,,http://opendatacommunities.org/id/unitary-authority/wiltshire,Wiltshire Council,,"Pew Hill House, Pew Hill, Chippenham",392433,174525,https://wiltscouncil.maps.arcgis.com/apps/webappviewer/index.html?id=74a353612a934bd48fee1f2bc564cdd8,0.47,mixed ownership,,permissioned,,,,9,,,,,01/12/2017,,,,
,,,,,,,,,,,,,,,,,,,http://opendatacommunities.org/id/unitary-authority/wiltshire,Wiltshire Council,,"Little George Hotel, 29 New Road, Chippenham",391927,173857,https://wiltscouncil.maps.arcgis.com/apps/webappviewer/index.html?id=74a353612a934bd48fee1f2bc564cdd8,0.05,mixed ownership,,permissioned,,,,6,,,,,01/12/2017,,,,
,,,,,,,,,,,,,,,,,,,http://opendatacommunities.org/id/unitary-authority/wiltshire,Wiltshire Council,,"127 London Road, Chippenham",400112,170292,https://wiltscouncil.maps.arcgis.com/apps/webappviewer/index.html?id=74a353612a934bd48fee1f2bc564cdd8,0.12,not owned by a public authority,,permissioned,,,,9,,,,,01/12/2017,,,,
,,,,,,,,,,,,,,,,,,,http://opendatacommunities.org/id/unitary-authority/wiltshire,Wiltshire Council,,"RAF Yatesbury, Jugglers Lane, Yatesbury (nr Calne)",405301,171332,https://wiltscouncil.maps.arcgis.com/apps/webappviewer/index.html?id=74a353612a934bd48fee1f2bc564cdd8,12.47,not owned by a public authority,,permissioned,,,,46,,,,,01/12/2017,,,,
,,,,,,,,,,,,,,,,,,,http://opendatacommunities.org/id/unitary-authority/wiltshire,Wiltshire Council,,"Land and Garages at 50-56 Abberd Way, Calne",400400,171350,https://wiltscouncil.maps.arcgis.com/apps/webappviewer/index.html?id=74a353612a934bd48fee1f2bc564cdd8,0.19,mixed ownership,,permissioned,,,,12,,,,,01/12/2017,,,,
,,,,,,,,,,,,,,,,,,,http://opendatacommunities.org/id/unitary-authority/wiltshire,Wiltshire Council,,"The Hawthorns, Hawthorn Road, Chippenham",392117,174116,https://wiltscouncil.maps.arcgis.com/apps/webappviewer/index.html?id=74a353612a934bd48fee1f2bc564cdd8,0.09,not owned by a public authority,,permissioned,,,,5,,,,,01/12/2017,,,,
,,,,,,,,,,,,,,,,,,,http://opendatacommunities.org/id/unitary-authority/wiltshire,Wiltshire Council,,"Land at Sparrow Lane & rear 125-6 High St, Royal Wootton Bassett",406880,182613,https://wiltscouncil.maps.arcgis.com/apps/webappviewer/index.html?id=74a353612a934bd48fee1f2bc564cdd8,0.14,mixed ownership,,permissioned,,,,7,,,,,01/12/2017,,,,
,,,,,,,,,,,,,,,,,,,http://opendatacommunities.org/id/unitary-authority/wiltshire,Wiltshire Council,,"Brethren Meeting Room, Goldney Avenue, Chippenham",391458,173486,https://wiltscouncil.maps.arcgis.com/apps/webappviewer/index.html?id=74a353612a934bd48fee1f2bc564cdd8,0.21,not owned by a public authority,,permissioned,,,,5,,,,,01/12/2017,,,,
,,,,,,,,,,,,,,,,,,,http://opendatacommunities.org/id/unitary-authority/wiltshire,Wiltshire Council,,"Land at 60-60a Bradford Road, Trowbridge",384998,157880,https://wiltscouncil.maps.arcgis.com/apps/webappviewer/index.html?id=74a353612a934bd48fee1f2bc564cdd8,0.16,mixed ownership,,permissioned,,,,9,,,,,01/12/2017,,,,
,,,,,,,,,,,,,,,,,,,http://opendatacommunities.org/id/unitary-authority/wiltshire,Wiltshire Council,,"16 St Thomas Passage, Trowbridge",385797,158350,https://wiltscouncil.maps.arcgis.com/apps/webappviewer/index.html?id=74a353612a934bd48fee1f2bc564cdd8,0.06,mixed ownership,,permissioned,,,,6,,,,,01/12/2017,,,,
,,,,,,,,,,,,,,,,,,,http://opendatacommunities.org/id/unitary-authority/wiltshire,Wiltshire Council,,"Halve Health Clinic, The Halve, Trowbridge",385839,158249,https://wiltscouncil.maps.arcgis.com/apps/webappviewer/index.html?id=74a353612a934bd48fee1f2bc564cdd8,0.15,mixed ownership,,permissioned,,,,6,,,,,01/12/2017,,,,
,,,,,,,,,,,,,,,,,,,http://opendatacommunities.org/id/unitary-authority/wiltshire,Wiltshire Council,,"Heywood House, Park Lane, Westbury",387666,153433,https://wiltscouncil.maps.arcgis.com/apps/webappviewer/index.html?id=74a353612a934bd48fee1f2bc564cdd8,2.55,not owned by a public authority,,permissioned,,,,27,,,,,01/12/2017,,,,
,,,,,,,,,,,,,,,,,,,http://opendatacommunities.org/id/unitary-authority/wiltshire,Wiltshire Council,,"106 West Street, Warminster",386329,144990,https://wiltscouncil.maps.arcgis.com/apps/webappviewer/index.html?id=74a353612a934bd48fee1f2bc564cdd8,0.17,not owned by a public authority,,permissioned,,,,5,,,,,01/12/2017,,,,
,,,,,,,,,,,,,,,,,,,http://opendatacommunities.org/id/unitary-authority/wiltshire,Wiltshire Council,,"Court Mill House, Court Street, Trowbridge",385574,157776,https://wiltscouncil.maps.arcgis.com/apps/webappviewer/index.html?id=74a353612a934bd48fee1f2bc564cdd8,0.04,not owned by a public authority,,permissioned,,,,6,,,,,01/12/2017,,,,
,,,,,,,,,,,,,,,,,,,http://opendatacommunities.org/id/unitary-authority/wiltshire,Wiltshire Council,,"3 Lowbourne, Melksham",390538,163921,https://wiltscouncil.maps.arcgis.com/apps/webappviewer/index.html?id=74a353612a934bd48fee1f2bc564cdd8,0.17,not owned by a public authority,,permissioned,,,,17,,,,,01/12/2017,,,,
,,,,,,,,,,,,,,,,,,,http://opendatacommunities.org/id/unitary-authority/wiltshire,Wiltshire Council,,"Fairfield Road, Warminster",387695,145128,https://wiltscouncil.maps.arcgis.com/apps/webappviewer/index.html?id=74a353612a934bd48fee1f2bc564cdd8,0.1,not owned by a public authority,,permissioned,,,,8,,,,,01/12/2017,,,,
,,,,,,,,,,,,,,,,,,,http://opendatacommunities.org/id/unitary-authority/wiltshire,Wiltshire Council,,"Charter House, Seymour Road, Trowbridge",385410,158396,https://wiltscouncil.maps.arcgis.com/apps/webappviewer/index.html?id=74a353612a934bd48fee1f2bc564cdd8,0.61,not owned by a public authority,,permissioned,,,,40,,,,,01/12/2017,,,,
,,,,,,,,,,,,,,,,,,,http://opendatacommunities.org/id/unitary-authority/wiltshire,Wiltshire Council,,"Land SE of MoD Copenacre, Bath Road, Corsham",385068,170442,https://wiltscouncil.maps.arcgis.com/apps/webappviewer/index.html?id=74a353612a934bd48fee1f2bc564cdd8,1.32,not owned by a public authority,,permissioned,,,,29,,,,,01/12/2017,,,,
,,,,,,,,,,,,,,,,,,,http://opendatacommunities.org/id/unitary-authority/wiltshire,Wiltshire Council,,"29a Bank Street, Melksham",390467,163935,https://wiltscouncil.maps.arcgis.com/apps/webappviewer/index.html?id=74a353612a934bd48fee1f2bc564cdd8,0.01,not owned by a public authority,,permissioned,,,,75,,,,,01/12/2017,,,,
,,,,,,,,,,,,,,,,,,,http://opendatacommunities.org/id/unitary-authority/wiltshire,Wiltshire Council,,"The Embankment Site, Bath Road, Chippenham",390985,172670,https://wiltscouncil.maps.arcgis.com/apps/webappviewer/index.html?id=74a353612a934bd48fee1f2bc564cdd8,0.16,not owned by a public authority,,permissioned,,,,5,,,,,01/12/2017,,,,
,,,,,,,,,,,,,,,,,,,http://opendatacommunities.org/id/unitary-authority/wiltshire,Wiltshire Council,,"Ship Inn, Frome Road, Trowbridge",385329,157317,https://wiltscouncil.maps.arcgis.com/apps/webappviewer/index.html?id=74a353612a934bd48fee1f2bc564cdd8,0.12,not owned by a public authority,,permissioned,,,,8,,,,,01/12/2017,,,,
,,,,,,,,,,,,,,,,,,,http://opendatacommunities.org/id/unitary-authority/wiltshire,Wiltshire Council,,"Langley Park, Foundry Lane, Chippenham",392265,173928,https://wiltscouncil.maps.arcgis.com/apps/webappviewer/index.html?id=74a353612a934bd48fee1f2bc564cdd8,0.57,not owned by a public authority,,permissioned,,,,22,,,,,01/12/2017,,,,
,,,,,,,,,,,,,,,,,,,http://opendatacommunities.org/id/unitary-authority/wiltshire,Wiltshire Council,,"Part 1st floor, 301-5 Hungerdown Lane, Chippenham",390494,173567,https://wiltscouncil.maps.arcgis.com/apps/webappviewer/index.html?id=74a353612a934bd48fee1f2bc564cdd8,0.18,not owned by a public authority,,permissioned,,,,5,,,,,01/12/2017,,,,
,,,,,,,,,,,,,,,,,,,http://opendatacommunities.org/id/unitary-authority/wiltshire,Wiltshire Council,,"Withleigh House, Spa Road, Melksham",390704,163514,https://wiltscouncil.maps.arcgis.com/apps/webappviewer/index.html?id=74a353612a934bd48fee1f2bc564cdd8,0.38,not owned by a public authority,,permissioned,,,,31,,,,,01/12/2017,,,,
,,,,,,,,,,,,,,,,,,,http://opendatacommunities.org/id/unitary-authority/wiltshire,Wiltshire Council,,"47 Hill Corner Road, Chippenham",392091,174787,https://wiltscouncil.maps.arcgis.com/apps/webappviewer/index.html?id=74a353612a934bd48fee1f2bc564cdd8,0.36,not owned by a public authority,,permissioned,,,,12,,,,,01/12/2017,,,,
,,,,,,,,,,,,,,,,,,,http://opendatacommunities.org/id/unitary-authority/wiltshire,Wiltshire Council,,"Former Builders Yard, Park Road, Trowbridge",413197,156880,https://wiltscouncil.maps.arcgis.com/apps/webappviewer/index.html?id=74a353612a934bd48fee1f2bc564cdd8,0.39,not owned by a public authority,,permissioned,,,,10,,,,,01/12/2017,,,,
,,,,,,,,,,,,,,,,,,,http://opendatacommunities.org/id/unitary-authority/wiltshire,Wiltshire Council,,"The Depot, Station Approach, Wilcot Rd, Pewsey",416067,160319,https://wiltscouncil.maps.arcgis.com/apps/webappviewer/index.html?id=74a353612a934bd48fee1f2bc564cdd8,0.18,not owned by a public authority,,permissioned,,,,9,,,,,01/12/2017,,,,
,,,,,,,,,,,,,,,,,,,http://opendatacommunities.org/id/unitary-authority/wiltshire,Wiltshire Council,,"Hillcote, 22 Manor Road, Salisbury",415056,130341,https://wiltscouncil.maps.arcgis.com/apps/webappviewer/index.html?id=74a353612a934bd48fee1f2bc564cdd8,0.18,not owned by a public authority,,permissioned,,,,5,,,,,01/12/2017,,,,
,,,,,,,,,,,,,,,,,,,http://opendatacommunities.org/id/unitary-authority/wiltshire,Wiltshire Council,,"Bridge Garage, London Road, Marlborough",419174,169028,https://wiltscouncil.maps.arcgis.com/apps/webappviewer/index.html?id=74a353612a934bd48fee1f2bc564cdd8,0.2,not owned by a public authority,,permissioned,,,,10,,,,,01/12/2017,,,,
,,,,,,,,,,,,,,,,,,,http://opendatacommunities.org/id/unitary-authority/wiltshire,Wiltshire Council,,"Honey Street Mills, Honey Street, Pewsey",410382,161595,https://wiltscouncil.maps.arcgis.com/apps/webappviewer/index.html?id=74a353612a934bd48fee1f2bc564cdd8,0.36,not owned by a public authority,,permissioned,,,,5,,,,,01/12/2017,,,,
,,,,,,,,,,,,,,,,,,,http://opendatacommunities.org/id/unitary-authority/wiltshire,Wiltshire Council,,"10 The Green, Marlborough",419091,169291,https://wiltscouncil.maps.arcgis.com/apps/webappviewer/index.html?id=74a353612a934bd48fee1f2bc564cdd8,0.25,not owned by a public authority,,permissioned,,,,6,,,,,01/12/2017,,,,
,,,,,,,,,,,,,,,,,,,http://opendatacommunities.org/id/unitary-authority/wiltshire,Wiltshire Council,,"Old Yard, London Road, Marlborough",419411,168956,https://wiltscouncil.maps.arcgis.com/apps/webappviewer/index.html?id=74a353612a934bd48fee1f2bc564cdd8,0.34,mixed ownership,,permissioned,,,,28,,,,,01/12/2017,,,,
,,,,,,,,,,,,,,,,,,,http://opendatacommunities.org/id/unitary-authority/wiltshire,Wiltshire Council,,"Assize Court, Northgate Street, Devizes",400128,161687,https://wiltscouncil.maps.arcgis.com/apps/webappviewer/index.html?id=74a353612a934bd48fee1f2bc564cdd8,0.17,not owned by a public authority,,permissioned,,,,18,,,,,01/12/2017,,,,
,,,,,,,,,,,,,,,,,,,http://opendatacommunities.org/id/unitary-authority/wiltshire,Wiltshire Council,,"69-71 Hulse Road, Salisbury",414069,130977,https://wiltscouncil.maps.arcgis.com/apps/webappviewer/index.html?id=74a353612a934bd48fee1f2bc564cdd8,0.07,not owned by a public authority,,permissioned,,,,6,,,,,01/12/2017,,,,
,,,,,,,,,,,,,,,,,,,http://opendatacommunities.org/id/unitary-authority/wiltshire,Wiltshire Council,,"Grove House Surgery, 18 Wilton Road, Salisbury",413622,130420,https://wiltscouncil.maps.arcgis.com/apps/webappviewer/index.html?id=74a353612a934bd48fee1f2bc564cdd8,0.1,not owned by a public authority,,permissioned,,,,10,,,,,01/12/2017,,,,
,,,,,,,,,,,,,,,,,,,http://opendatacommunities.org/id/unitary-authority/wiltshire,Wiltshire Council,,"Milford House, 43-55 Milford Street, Salisbury",414738,129967,https://wiltscouncil.maps.arcgis.com/apps/webappviewer/index.html?id=74a353612a934bd48fee1f2bc564cdd8,0.24,not owned by a public authority,,permissioned,,,,31,,,,,01/12/2017,,,,
,,,,,,,,,,,,,,,,,,,http://opendatacommunities.org/id/unitary-authority/wiltshire,Wiltshire Council,,"1 Fish Row, Salisbury",414510,129957,https://wiltscouncil.maps.arcgis.com/apps/webappviewer/index.html?id=74a353612a934bd48fee1f2bc564cdd8,0.03,not owned by a public authority,,permissioned,,,,7,,,,,01/12/2017,,,,
,,,,,,,,,,,,,,,,,,,http://opendatacommunities.org/id/unitary-authority/wiltshire,Wiltshire Council,,"Land at The Hill Brush Co Ltd, Woodlands Road, Mere",381704,131675,https://wiltscouncil.maps.arcgis.com/apps/webappviewer/index.html?id=74a353612a934bd48fee1f2bc564cdd8,1.75,not owned by a public authority,,permissioned,,,,133,,,,,01/12/2017,,,,
,,,,,,,,,,,,,,,,,,,http://opendatacommunities.org/id/unitary-authority/wiltshire,Wiltshire Council,,"Springbourne House, High Street, Shrewton (nr Salisbury)",406921,144207,https://wiltscouncil.maps.arcgis.com/apps/webappviewer/index.html?id=74a353612a934bd48fee1f2bc564cdd8,0.01,not owned by a public authority,,permissioned,,,,5,,,,,01/12/2017,,,,
,,,,,,,,,,,,,,,,,,,http://opendatacommunities.org/id/unitary-authority/wiltshire,Wiltshire Council,,"Land adjacent Hideaway Garage, London Road, Amesbury",416267,142008,https://wiltscouncil.maps.arcgis.com/apps/webappviewer/index.html?id=74a353612a934bd48fee1f2bc564cdd8,0.14,not owned by a public authority,,permissioned,,,,12,,,,,01/12/2017,,,,
,,,,,,,,,,,,,,,,,,,http://opendatacommunities.org/id/unitary-authority/wiltshire,Wiltshire Council,,"23-25 Milford Street, Salisbury",414646,129975,https://wiltscouncil.maps.arcgis.com/apps/webappviewer/index.html?id=74a353612a934bd48fee1f2bc564cdd8,0.07,not owned by a public authority,,permissioned,,,,10,,,,,01/12/2017,,,,
,,,,,,,,,,,,,,,,,,,http://opendatacommunities.org/id/unitary-authority/wiltshire,Wiltshire Council,,"19 Boscombe Road, Amesbury",416718,141004,https://wiltscouncil.maps.arcgis.com/apps/webappviewer/index.html?id=74a353612a934bd48fee1f2bc564cdd8,0.16,not owned by a public authority,,permissioned,,,,4,,,,,01/12/2017,,,,
,,,,,,,,,,,,,,,,,,,http://opendatacommunities.org/id/unitary-authority/wiltshire,Wiltshire Council,,"Former Souchez Nurseries, 86 Britford Lane, Harnham (nr Salisbury)",414905,128653,https://wiltscouncil.maps.arcgis.com/apps/webappviewer/index.html?id=74a353612a934bd48fee1f2bc564cdd8,0.42,not owned by a public authority,,permissioned,,,,9,,,,,01/12/2017,,,,
,,,,,,,,,,,,,,,,,,,http://opendatacommunities.org/id/unitary-authority/wiltshire,Wiltshire Council,,"Rear of 28 Roundstone Street, Trowbridge",385834,158088,https://wiltscouncil.maps.arcgis.com/apps/webappviewer/index.html?id=74a353612a934bd48fee1f2bc564cdd8,0.05,not owned by a public authority,,permissioned,,,,9,,,,,01/12/2017,,,,
,,,,,,,,,,,,,,,,,,,http://opendatacommunities.org/id/unitary-authority/wiltshire,Wiltshire Council,,"Former Jam Factory, Kings Road, Easterton (nr Devizes)",402027,155263,https://wiltscouncil.maps.arcgis.com/apps/webappviewer/index.html?id=74a353612a934bd48fee1f2bc564cdd8,1.49,not owned by a public authority,,permissioned,,,,26,,,,,01/12/2017,,,,
,,,,,,,,,,,,,,,,,,,http://opendatacommunities.org/id/unitary-authority/wiltshire,Wiltshire Council,,"Former Garage site, rear of 41-45 Queens Avenue, Corsham",386998,171168,https://wiltscouncil.maps.arcgis.com/apps/webappviewer/index.html?id=74a353612a934bd48fee1f2bc564cdd8,0.33,not owned by a public authority,,permissioned,,,,6,,,,,01/12/2017,,,,
,,,,,,,,,,,,,,,,,,,http://opendatacommunities.org/id/unitary-authority/wiltshire,Wiltshire Council,,"Cherry Orchard House, Cherry Orchard, Marlborough",419158,168490,https://wiltscouncil.maps.arcgis.com/apps/webappviewer/index.html?id=74a353612a934bd48fee1f2bc564cdd8,0.53,mixed ownership,,permissioned,,,,13,,,,,01/12/2017,,,,
,,,,,,,,,,,,,,,,,,,http://opendatacommunities.org/id/unitary-authority/wiltshire,Wiltshire Council,,"Land at Copenacre Site, Bath Road, Corsham",385109,170392,https://wiltscouncil.maps.arcgis.com/apps/webappviewer/index.html?id=74a353612a934bd48fee1f2bc564cdd8,0.29,not owned by a public authority,,permissioned,,,,9,,,,,01/12/2017,,,,
,,,,,,,,,,,,,,,,,,,http://opendatacommunities.org/id/unitary-authority/wiltshire,Wiltshire Council,,"Former MOD Rudloe, 2 Westwells Road, Hawthorn Rudloe (nr Corsham)",384667,169186,https://wiltscouncil.maps.arcgis.com/apps/webappviewer/index.html?id=74a353612a934bd48fee1f2bc564cdd8,8.35,mixed ownership,,permissioned,,,,180,,,,,01/12/2017,,,,
,,,,,,,,,,,,,,,,,,,http://opendatacommunities.org/id/unitary-authority/wiltshire,Wiltshire Council,,"47 Hill Corner Road, Chippenham",392091,174787,https://wiltscouncil.maps.arcgis.com/apps/webappviewer/index.html?id=74a353612a934bd48fee1f2bc564cdd8,0.36,not owned by a public authority,,permissioned,,,,11,,,,,01/12/2017,,,,
,,,,,,,,,,,,,,,,,,,http://opendatacommunities.org/id/unitary-authority/wiltshire,Wiltshire Council,,"Langley Park, Chippenham",392261,174068,https://wiltscouncil.maps.arcgis.com/apps/webappviewer/index.html?id=74a353612a934bd48fee1f2bc564cdd8,8.7,mixed ownership,,permissioned,,,,400,,,,,01/12/2017,,,,
,,,,,,,,,,,,,,,,,,,http://opendatacommunities.org/id/unitary-authority/wiltshire,Wiltshire Council,,"Land off Hambleton Avenue, Devizes",402164,162757,https://wiltscouncil.maps.arcgis.com/apps/webappviewer/index.html?id=74a353612a934bd48fee1f2bc564cdd8,0.78,mixed ownership,,permissioned,,,,38,,,,,01/12/2017,,,,
,,,,,,,,,,,,,,,,,,,http://opendatacommunities.org/id/unitary-authority/wiltshire,Wiltshire Council,,"Land at Zouch Manor, Tidworth",423390,149184,https://wiltscouncil.maps.arcgis.com/apps/webappviewer/index.html?id=74a353612a934bd48fee1f2bc564cdd8,3.77,not owned by a public authority,,permissioned,,,,100,,,,,01/12/2017,,,,
,,,,,,,,,,,,,,,,,,,http://opendatacommunities.org/id/unitary-authority/wiltshire,Wiltshire Council,,"St. Peters School, Bath Road, Devizes",399756,161655,https://wiltscouncil.maps.arcgis.com/apps/webappviewer/index.html?id=74a353612a934bd48fee1f2bc564cdd8,0.75,not owned by a public authority,,permissioned,,,,26,,,,,01/12/2017,,,,
,,,,,,,,,,,,,,,,,,,http://opendatacommunities.org/id/unitary-authority/wiltshire,Wiltshire Council,,"Scotts House, Salisbury Road, Downton (nr Salisbury)",416960,121901,https://wiltscouncil.maps.arcgis.com/apps/webappviewer/index.html?id=74a353612a934bd48fee1f2bc564cdd8,0.79,not owned by a public authority,,permissioned,,,,17,,,,,01/12/2017,,,,
,,,,,,,,,,,,,,,,,,,http://opendatacommunities.org/id/unitary-authority/wiltshire,Wiltshire Council,,Pewsey Scrapyard,415912.4375,160251.625,https://wiltscouncil.maps.arcgis.com/apps/webappviewer/index.html?id=74a353612a934bd48fee1f2bc564cdd8,1.18,not owned by a public authority,,permissioned,,,,43,,,,,01/12/2017,,,,
,,,,,,,,,,,,,,,,,,,http://opendatacommunities.org/id/unitary-authority/wiltshire,Wiltshire Council,,"Drummond Park, Ludgershall",425725.0005,150884.897,https://wiltscouncil.maps.arcgis.com/apps/webappviewer/index.html?id=74a353612a934bd48fee1f2bc564cdd8,13.59,not owned by a public authority,,not permissioned,,,,475,,475,,,01/12/2017,,,,
,,,,,,,,,,,,,,,,,,,http://opendatacommunities.org/id/unitary-authority/wiltshire,Wiltshire Council,,"Quemerford Ho & Mill, Calne",400672.465,169716.452,https://wiltscouncil.maps.arcgis.com/apps/webappviewer/index.html?id=74a353612a934bd48fee1f2bc564cdd8,0.93,not owned by a public authority,,not permissioned,,,,28,,28,,,01/12/2017,,,,
,,,,,,,,,,,,,,,,,,,http://opendatacommunities.org/id/unitary-authority/wiltshire,Wiltshire Council,,"AB Carter Haulage, 14 Happy Land, Ashton Keynes (nr Swindon)",404886.71,193686.1257,https://wiltscouncil.maps.arcgis.com/apps/webappviewer/index.html?id=74a353612a934bd48fee1f2bc564cdd8,0.5,not owned by a public authority,,not permissioned,,,,11,,11,,,01/12/2017,,,,
,,,,,,,,,,,,,,,,,,,http://opendatacommunities.org/id/unitary-authority/wiltshire,Wiltshire Council,,"Works, Cocklebury Rd, Chippenham",392511.4082,173814.0473,https://wiltscouncil.maps.arcgis.com/apps/webappviewer/index.html?id=74a353612a934bd48fee1f2bc564cdd8,1.2,not owned by a public authority,,not permissioned,,,,66,,66,,,01/12/2017,,,,
,,,,,,,,,,,,,,,,,,,http://opendatacommunities.org/id/unitary-authority/wiltshire,Wiltshire Council,,"Odstock Hospital, Salisbury",414848.9966,127153.4663,https://wiltscouncil.maps.arcgis.com/apps/webappviewer/index.html?id=74a353612a934bd48fee1f2bc564cdd8,1.49,not owned by a public authority,,not permissioned,,,,45,,45,,,01/12/2017,,,,
,,,,,,,,,,,,,,,,,,,http://opendatacommunities.org/id/unitary-authority/wiltshire,Wiltshire Council,,"RAF Baverstock, Dinton (nr Salisbury)",401190.7379,131226.7824,https://wiltscouncil.maps.arcgis.com/apps/webappviewer/index.html?id=74a353612a934bd48fee1f2bc564cdd8,4.16,mixed ownership,,not permissioned,,,,30,,30,,,01/12/2017,,,,
,,,,,,,,,,,,,,,,,,,http://opendatacommunities.org/id/unitary-authority/wiltshire,Wiltshire Council,,"Churchfields Ind Est, Salisbury",413069.6554,129927.186,https://wiltscouncil.maps.arcgis.com/apps/webappviewer/index.html?id=74a353612a934bd48fee1f2bc564cdd8,37.38,mixed ownership,,not permissioned,,,,1100,,1100,,,01/12/2017,,,,
,,,,,,,,,,,,,,,,,,,http://opendatacommunities.org/id/unitary-authority/wiltshire,Wiltshire Council,,"Land at West Street, Warminster",386334.9977,144996.5905,https://wiltscouncil.maps.arcgis.com/apps/webappviewer/index.html?id=74a353612a934bd48fee1f2bc564cdd8,0.31,not owned by a public authority,,not permissioned,,,,12,,12,,,01/12/2017,,,,
,,,,,,,,,,,,,,,,,,,http://opendatacommunities.org/id/unitary-authority/wiltshire,Wiltshire Council,,"Rear of Westbury Rd, Warminster",387450.8865,145700.2279,https://wiltscouncil.maps.arcgis.com/apps/webappviewer/index.html?id=74a353612a934bd48fee1f2bc564cdd8,1.63,not owned by a public authority,,not permissioned,,,,10,,10,,,01/12/2017,,,,
,,,,,,,,,,,,,,,,,,,http://opendatacommunities.org/id/unitary-authority/wiltshire,Wiltshire Council,,"Station Road, Warminster",387845.1075,145297.7421,https://wiltscouncil.maps.arcgis.com/apps/webappviewer/index.html?id=74a353612a934bd48fee1f2bc564cdd8,0.55,not owned by a public authority,,not permissioned,,,,30,,30,,,01/12/2017,,,,
,,,,,,,,,,,,,,,,,,,http://opendatacommunities.org/id/unitary-authority/wiltshire,Wiltshire Council,,"Court Street, Trowbridge",385556.7638,157756.6685,https://wiltscouncil.maps.arcgis.com/apps/webappviewer/index.html?id=74a353612a934bd48fee1f2bc564cdd8,1.36,mixed ownership,,not permissioned,,,,112,,112,,,01/12/2017,,,,
,,,,,,,,,,,,,,,,,,,http://opendatacommunities.org/id/unitary-authority/wiltshire,Wiltshire Council,,"Land at Mkt Place/East St, Warminster",387560.4388,144982.778,https://wiltscouncil.maps.arcgis.com/apps/webappviewer/index.html?id=74a353612a934bd48fee1f2bc564cdd8,2.94,mixed ownership,,not permissioned,,,,30,,30,,,01/12/2017,,,,
,,,,,,,,,,,,,,,,,,,http://opendatacommunities.org/id/unitary-authority/wiltshire,Wiltshire Council,,Marlborough Resource Centre,419094.625,168427.0938,https://wiltscouncil.maps.arcgis.com/apps/webappviewer/index.html?id=74a353612a934bd48fee1f2bc564cdd8,1.02,mixed ownership,,not permissioned,,,,64,,64,,,01/12/2017,,,,
,,,,,,,,,,,,,,,,,,,http://opendatacommunities.org/id/unitary-authority/wiltshire,Wiltshire Council,,"Land at ex-depot, Imber Pl, Tilshead",403756.9375,148110.0156,https://wiltscouncil.maps.arcgis.com/apps/webappviewer/index.html?id=74a353612a934bd48fee1f2bc564cdd8,0.57,not owned by a public authority,,not permissioned,,,,24,,24,,,01/12/2017,,,,
,,,,,,,,,,,,,,,,,,,http://opendatacommunities.org/id/unitary-authority/wiltshire,Wiltshire Council,,"Builders Yard East Sands, Burbage",423661.4063,161033.5781,https://wiltscouncil.maps.arcgis.com/apps/webappviewer/index.html?id=74a353612a934bd48fee1f2bc564cdd8,0.29,not owned by a public authority,,not permissioned,,,,10,,10,,,01/12/2017,,,,
,,,,,,,,,,,,,,,,,,,http://opendatacommunities.org/id/unitary-authority/wiltshire,Wiltshire Council,,"Stonebridge House, Nursteed Road, Devizes",401656,160639,https://wiltscouncil.maps.arcgis.com/apps/webappviewer/index.html?id=74a353612a934bd48fee1f2bc564cdd8,0.599774432,not owned by a public authority,,not permissioned,,,,14,,14,,,01/12/2017,,,,
,,,,,,,,,,,,,,,,,,,http://opendatacommunities.org/id/unitary-authority/wiltshire,Wiltshire Council,,"Garage and Old Dairy, New Park Street, Devizes",400494,161682,https://wiltscouncil.maps.arcgis.com/apps/webappviewer/index.html?id=74a353612a934bd48fee1f2bc564cdd8,0.189701276,not owned by a public authority,,not permissioned,,,,5,,5,,,01/12/2017,,,,
,,,,,,,,,,,,,,,,,,,http://opendatacommunities.org/id/unitary-authority/wiltshire,Wiltshire Council,,"Magistrates Court, Elcombe Gardens, Devizes",400133,161588,https://wiltscouncil.maps.arcgis.com/apps/webappviewer/index.html?id=74a353612a934bd48fee1f2bc564cdd8,0.285478957,mixed ownership,,not permissioned,,,,8,,8,,,01/12/2017,,,,
,,,,,,,,,,,,,,,,,,,http://opendatacommunities.org/id/unitary-authority/wiltshire,Wiltshire Council,,Bath Rd Business Pk [former Cross Manufacturing] Devizes,399033,161351,https://wiltscouncil.maps.arcgis.com/apps/webappviewer/index.html?id=74a353612a934bd48fee1f2bc564cdd8,0.541442301,not owned by a public authority,,not permissioned,,,,13,,13,,,01/12/2017,,,,
,,,,,,,,,,,,,,,,,,,http://opendatacommunities.org/id/unitary-authority/wiltshire,Wiltshire Council,,"Whole of Garden Trading Est, Devizes",401507,162364,https://wiltscouncil.maps.arcgis.com/apps/webappviewer/index.html?id=74a353612a934bd48fee1f2bc564cdd8,1.695383697,not owned by a public authority,,not permissioned,,,,38,,38,,,01/12/2017,,,,
,,,,,,,,,,,,,,,,,,,http://opendatacommunities.org/id/unitary-authority/wiltshire,Wiltshire Council,,"Wadworth Warehouse, Northgate St, Devizes",400071,161631,https://wiltscouncil.maps.arcgis.com/apps/webappviewer/index.html?id=74a353612a934bd48fee1f2bc564cdd8,0.633619981,not owned by a public authority,,not permissioned,,,,30,,30,,,01/12/2017,,,,
,,,,,,,,,,,,,,,,,,,http://opendatacommunities.org/id/unitary-authority/wiltshire,Wiltshire Council,,"The Beeches, Blackboard Lane, Urchfont (nr Devizes)",403733,156940,https://wiltscouncil.maps.arcgis.com/apps/webappviewer/index.html?id=74a353612a934bd48fee1f2bc564cdd8,0.221520108,not owned by a public authority,,not permissioned,,,,5,,5,,,01/12/2017,,,,
,,,,,,,,,,,,,,,,,,,http://opendatacommunities.org/id/unitary-authority/wiltshire,Wiltshire Council,,"Wildmans Garage, Urchfont (nr Devizes)",404138,157022,https://wiltscouncil.maps.arcgis.com/apps/webappviewer/index.html?id=74a353612a934bd48fee1f2bc564cdd8,0.201818755,not owned by a public authority,,not permissioned,,,,5,,5,,,01/12/2017,,,,
,,,,,,,,,,,,,,,,,,,http://opendatacommunities.org/id/unitary-authority/wiltshire,Wiltshire Council,,"Briar Leaze, Compton Bassett (nr Calne)",403801,172330,https://wiltscouncil.maps.arcgis.com/apps/webappviewer/index.html?id=74a353612a934bd48fee1f2bc564cdd8,1.386511767,not owned by a public authority,,not permissioned,,,,7,,7,,,01/12/2017,,,,
,,,,,,,,,,,,,,,,,,,http://opendatacommunities.org/id/unitary-authority/wiltshire,Wiltshire Council,,"The Tannery, Holt (nr Melksham)",386080,162048,https://wiltscouncil.maps.arcgis.com/apps/webappviewer/index.html?id=74a353612a934bd48fee1f2bc564cdd8,1.604108462,not owned by a public authority,,not permissioned,,,,66,,66,,,01/12/2017,,,,
,,,,,,,,,,,,,,,,,,,http://opendatacommunities.org/id/unitary-authority/wiltshire,Wiltshire Council,,Broadfield Farm [NP8] Great Somerford (nr Chippenham),396462,182507,https://wiltscouncil.maps.arcgis.com/apps/webappviewer/index.html?id=74a353612a934bd48fee1f2bc564cdd8,0.997278313,not owned by a public authority,,not permissioned,,,,18,,18,,,01/12/2017,,,,
