address,address-text,deliverable,end-date,entry-date,hazardous-substances,hectares,latitude,longitude,maximum-net-dwellings,minimum-net-dwellings,notes,organisation,ownership-status,planning-permission-date,planning-permission-history,planning-permission-status,planning-permission-type,site,OrganisationURI,OrganisationLabel,SiteReference,SiteNameAddress,GeoX,GeoY,SiteplanURL,Hectares,OwnershipStatus,HazardousSubstances,PlanningStatus,PermissionType,PermissionDate,PlanningHistory,MinNetDwellings,NetDwellingsRangeFrom,NetDwellingsRangeTo,Deliverable,Notes,FirstAddedDate,LastUpdatedDate,EndDate,site-plan-url,start-date
,,,,,,,,,,,,,,,,,,,http://opendatacommunities.org/id/unitary-authority/south-gloucestershire,South Gloucestershire Council,1,Charlton Hayes Northfield Filton Airfield Patchway,359813,180931,http://developments.southglos.gov.uk/online-applications/applicationDetails.do?activeTab=map&keyVal=ZZZTQSOKXT810,81.22,not owned by a public authority,,permissioned,,,,207,,,,,30/06/2016,31/12/2017,,,
,,,,,,,,,,,,,,,,,,,http://opendatacommunities.org/id/unitary-authority/south-gloucestershire,South Gloucestershire Council,4,Charlton Hayes Northfield Patchway BS34 5AG,359970,181284,http://developments.southglos.gov.uk/online-applications/applicationDetails.do?activeTab=map&keyVal=MW3V4UOK7T000,1.19,not owned by a public authority,,permissioned,,,,56,,,,,30/06/2016,31/12/2017,,,
,,,,,,,,,,,,,,,,,,,http://opendatacommunities.org/id/unitary-authority/south-gloucestershire,South Gloucestershire Council,6,Charlton Hayes Northfield Patchway BS34 5DZ,359836,180711,http://developments.southglos.gov.uk/online-applications/applicationDetails.do?activeTab=map&keyVal=NGZBY4OK7T000,1.88,not owned by a public authority,,permissioned,,,,25,,,,,30/06/2016,31/12/2017,,,
,,,,,,,,,,,,,,,,,,,http://opendatacommunities.org/id/unitary-authority/south-gloucestershire,South Gloucestershire Council,7,Charlton Hayes Northfield Patchway,359827,181160,http://developments.southglos.gov.uk/online-applications/applicationDetails.do?activeTab=map&keyVal=O2QE7FOKHFS00,2.33,not owned by a public authority,,permissioned,,,,177,,,,,30/06/2016,31/12/2017,,,
,,,,,,,,,,,,,,,,,,,http://opendatacommunities.org/id/unitary-authority/south-gloucestershire,South Gloucestershire Council,13,Former Douglas Motorcycle Works Douglas Road Kingswood BS15 8NL,364631,173238,http://developments.southglos.gov.uk/online-applications/applicationDetails.do?activeTab=summary&keyVal=L1W5GQOK7T000,4.81,not owned by a public authority,,permissioned,,,,334,,,,,30/06/2016,31/12/2017,,,
,,,,,,,,,,,,,,,,,,,http://opendatacommunities.org/id/unitary-authority/south-gloucestershire,South Gloucestershire Council,14,Bristol Water Depot Soundwell Road Kingswood BS16 4QQ,364568,174671,http://developments.southglos.gov.uk/online-applications/applicationDetails.do?activeTab=map&keyVal=ZZZTQQOKXT248,1.3,not owned by a public authority,,permissioned,,,,75,,,,,30/06/2016,31/12/2017,,,
,,,,,,,,,,,,,,,,,,,http://opendatacommunities.org/id/unitary-authority/south-gloucestershire,South Gloucestershire Council,15,Kingswood Trading Estate Southey Avenue Kingswood BS15 1QT,364926,174085,http://developments.southglos.gov.uk/online-applications/applicationDetails.do?activeTab=summary&keyVal=ZZZTQ9OKXT726,0.46,not owned by a public authority,,permissioned,,,,57,,,,,30/06/2016,31/12/2017,,,
,,,,,,,,,,,,,,,,,,,http://opendatacommunities.org/id/unitary-authority/south-gloucestershire,South Gloucestershire Council,18,Land At Barnhill Road Chipping Sodbury BS37 6BN,372682,182780,http://developments.southglos.gov.uk/online-applications/applicationDetails.do?activeTab=map&keyVal=ZZZTQ9OKXT726,3.16,not owned by a public authority,,permissioned,,,,19,,,,,30/06/2016,31/12/2017,,,
,,,,,,,,,,,,,,,,,,,http://opendatacommunities.org/id/unitary-authority/south-gloucestershire,South Gloucestershire Council,20,Frenchay Hospital Frenchay Park Road Frenchay BS16 1LE,363383,177635,http://developments.southglos.gov.uk/online-applications/applicationDetails.do?activeTab=map&keyVal=MFZRODOK02R00,29.15,not owned by a public authority,,permissioned,,,,402,,,,,30/06/2016,31/12/2017,,,
,,,,,,,,,,,,,,,,,,,http://opendatacommunities.org/id/unitary-authority/south-gloucestershire,South Gloucestershire Council,21,Land At Yate Mills Randolph Avenue Yate BS37 7LA,371045,183893,http://developments.southglos.gov.uk/online-applications/applicationDetails.do?activeTab=map&keyVal=NFR8JROK7T000,1.18,not owned by a public authority,,permissioned,,,,8,,,,,30/06/2016,31/12/2017,,,
,,,,,,,,,,,,,,,,,,,http://opendatacommunities.org/id/unitary-authority/south-gloucestershire,South Gloucestershire Council,23,Cedar Lodge Charlton Common Brentry BS10 6LB,358779,179941,http://developments.southglos.gov.uk/online-applications/applicationDetails.do?activeTab=map&keyVal=MHUH58OK7T000,0.32,not owned by a public authority,,permissioned,,,,13,,,,,30/06/2016,31/12/2017,,,
,,,,,,,,,,,,,,,,,,,http://opendatacommunities.org/id/unitary-authority/south-gloucestershire,South Gloucestershire Council,24,Eastwood Park Training and Conference Centre Falfield GL12 8DA,367419,192411,http://developments.southglos.gov.uk/online-applications/applicationDetails.do?activeTab=map&keyVal=MD4KKMOK7T000,2.08,not owned by a public authority,,permissioned,,,,10,,,,,30/06/2016,31/12/2017,,,
,,,,,,,,,,,,,,,,,,,http://opendatacommunities.org/id/unitary-authority/south-gloucestershire,South Gloucestershire Council,25,3 Alexandra Way Thornbury BS35 1LA,363800,191055,http://developments.southglos.gov.uk/online-applications/applicationDetails.do?activeTab=map&keyVal=MJK626OK7T000,0.94,not owned by a public authority,,permissioned,,,,30,,,,,30/06/2016,31/12/2017,,,
,,,,,,,,,,,,,,,,,,,http://opendatacommunities.org/id/unitary-authority/south-gloucestershire,South Gloucestershire Council,29,Cadbury Heath Youth Centre Park Road Warmley BS30 8EB,366819,172174,http://developments.southglos.gov.uk/online-applications/applicationDetails.do?activeTab=map&keyVal=NLTRYKOKFMF00,0.52,not owned by a public authority,,permissioned,,,,18,,,,,30/06/2016,31/12/2017,,,
,,,,,,,,,,,,,,,,,,,http://opendatacommunities.org/id/unitary-authority/south-gloucestershire,South Gloucestershire Council,30,Concrete Batching Plant Quarry Road Chipping Sodbury BS37 6AY,372332,182458,http://developments.southglos.gov.uk/online-applications/applicationDetails.do?activeTab=map&keyVal=NPQHUUOKHVW00,0.5,not owned by a public authority,,permissioned,,,,11,,,,,30/06/2016,31/12/2017,,,
,,,,,,,,,,,,,,,,,,,http://opendatacommunities.org/id/unitary-authority/south-gloucestershire,South Gloucestershire Council,33,10 Algars Drive Iron Acton BS37 9UT,368216,183159,http://developments.southglos.gov.uk/online-applications/applicationDetails.do?activeTab=map&keyVal=NGZG7OOK7T000,0.15,not owned by a public authority,,permissioned,,,,6,,,,,30/06/2016,31/12/2017,,,
,,,,,,,,,,,,,,,,,,,http://opendatacommunities.org/id/unitary-authority/south-gloucestershire,South Gloucestershire Council,34,38 Nibley Lane Iron Acton BS37 9UP,368324,183262,http://developments.southglos.gov.uk/online-applications/applicationDetails.do?activeTab=map&keyVal=NGZG9FOK7T000,0.3,not owned by a public authority,,permissioned,,,,5,,,,,30/06/2016,31/12/2017,,,
,,,,,,,,,,,,,,,,,,,http://opendatacommunities.org/id/unitary-authority/south-gloucestershire,South Gloucestershire Council,37,Land at Newlands Avenue Coalpit Heath BS36 2SQ,367229,181068,http://developments.southglos.gov.uk/online-applications/applicationDetails.do?activeTab=map&keyVal=NLTR38OKFL700,0.2,not owned by a public authority,,permissioned,,,,5,,,,,30/06/2016,31/12/2017,,,
,,,,,,,,,,,,,,,,,,,http://opendatacommunities.org/id/unitary-authority/south-gloucestershire,South Gloucestershire Council,39,Area H24 And LC3 Northfield Patchway BS34 5DJ,360165,181385,http://developments.southglos.gov.uk/online-applications/applicationDetails.do?activeTab=map&keyVal=N1PU68OK7T000,0.46,not owned by a public authority,,permissioned,,,,29,,,,,30/06/2016,31/12/2017,,,
,,,,,,,,,,,,,,,,,,,http://opendatacommunities.org/id/unitary-authority/south-gloucestershire,South Gloucestershire Council,42,98 Gloucester Road North Filton BS34 7PF,360109,178810,http://developments.southglos.gov.uk/online-applications/applicationDetails.do?activeTab=map&keyVal=NEU3F5OK7T000,0.09,not owned by a public authority,,permissioned,,,,10,,,,,30/06/2016,31/12/2017,,,
,,,,,,,,,,,,,,,,,,,http://opendatacommunities.org/id/unitary-authority/south-gloucestershire,South Gloucestershire Council,45,Golden Valley Mill Bath Road Bitton BS30 6HJ,368191,169722,http://developments.southglos.gov.uk/online-applications/applicationDetails.do?activeTab=map&keyVal=NJK1RCOK7T000,7.42,not owned by a public authority,,permissioned,,,,113,,,,,30/06/2016,31/12/2017,,,
,,,,,,,,,,,,,,,,,,,http://opendatacommunities.org/id/unitary-authority/south-gloucestershire,South Gloucestershire Council,46,Former Filton Airfield Filton,357241,180373,http://developments.southglos.gov.uk/online-applications/applicationDetails.do?activeTab=map&keyVal=ND0W86OK7T000,142.97,not owned by a public authority,,pending decision,,,,2675,,,,Resolution to grant permission subject to S106 28/11/17,30/06/2016,31/12/2017,,,
,,,,,,,,,,,,,,,,,,,http://opendatacommunities.org/id/unitary-authority/south-gloucestershire,South Gloucestershire Council,49,Hayes Way Charlton Hayes Northfield Patchway BS34 5BZ,359634,180539,http://developments.southglos.gov.uk/online-applications/applicationDetails.do?activeTab=map&keyVal=NH1C99OK7T000,6.24,not owned by a public authority,,permissioned,,,,120,,,,"Reserved Matters PT17/4963/RM, recieved 25/10/2017",30/06/2016,31/12/2017,,,
,,,,,,,,,,,,,,,,,,,http://opendatacommunities.org/id/unitary-authority/south-gloucestershire,South Gloucestershire Council,50,Land at Irving Close Soundwell BS16 4TE,365106,175633,http://developments.southglos.gov.uk/online-applications/applicationDetails.do?activeTab=map&keyVal=NMVY3HOKG8500,0.64,not owned by a public authority,,permissioned,,,,25,,,,,30/06/2016,31/12/2017,,,
,,,,,,,,,,,,,,,,,,,http://opendatacommunities.org/id/unitary-authority/south-gloucestershire,South Gloucestershire Council,52,Land at Lower Chapel Road Hanham,364160,172430,http://developments.southglos.gov.uk/online-applications/applicationDetails.do?activeTab=map&keyVal=N07NYHOK7T000,0.12,not owned by a public authority,,permissioned,,,,6,,,,,30/06/2016,31/12/2017,,,
,,,,,,,,,,,,,,,,,,,http://opendatacommunities.org/id/unitary-authority/south-gloucestershire,South Gloucestershire Council,56,The Old Bank 17 High Street Warmley BS15 4NE,366925,173598,http://developments.southglos.gov.uk/online-applications/applicationDetails.do?activeTab=map&keyVal=ZZZTQFOKXT656,0.04,not owned by a public authority,,permissioned,,,,5,,,,,30/06/2016,31/12/2017,,,
,,,,,,,,,,,,,,,,,,,http://opendatacommunities.org/id/unitary-authority/south-gloucestershire,South Gloucestershire Council,59,Elmtree Way Kingswood BS15 1QS,364899,174189,http://developments.southglos.gov.uk/online-applications/applicationDetails.do?activeTab=map&keyVal=LIVHMFOK7T000,0.12,not owned by a public authority,,permissioned,,,,5,,,,,30/06/2016,31/12/2017,,,
,,,,,,,,,,,,,,,,,,,http://opendatacommunities.org/id/unitary-authority/south-gloucestershire,South Gloucestershire Council,61,33 Deanery Road Kingswood BS15 9JB,366625,173603,http://developments.southglos.gov.uk/online-applications/applicationDetails.do?activeTab=map&keyVal=N8PJ4LOK7T000,0.06,not owned by a public authority,,permissioned,,,,7,,,,,30/06/2016,31/12/2017,,,
,,,,,,,,,,,,,,,,,,,http://opendatacommunities.org/id/unitary-authority/south-gloucestershire,South Gloucestershire Council,62,Hill Crest Down Road Winterbourne BS36 1BN,365026,179784,http://developments.southglos.gov.uk/online-applications/applicationDetails.do?activeTab=map&keyVal=MWIRFOOK7T000,1.1,not owned by a public authority,,permissioned,,,,6,,,,,30/06/2016,31/12/2017,,,
,,,,,,,,,,,,,,,,,,,http://opendatacommunities.org/id/unitary-authority/south-gloucestershire,South Gloucestershire Council,63,Fernhill Court Fernhill Almondsbury BS32 4LX,361193,185073,http://developments.southglos.gov.uk/online-applications/applicationDetails.do?activeTab=map&keyVal=MQR8OXOK02900,0.75,not owned by a public authority,,permissioned,,,,7,,,,,30/06/2016,31/12/2017,,,
,,,,,,,,,,,,,,,,,,,http://opendatacommunities.org/id/unitary-authority/south-gloucestershire,South Gloucestershire Council,64,Transport Yard Badminton Road Old Sodbury BS37 6LX,375075,181546,http://developments.southglos.gov.uk/online-applications/applicationDetails.do?activeTab=map&keyVal=ZZZTR0OKXT794,0.26,not owned by a public authority,,permissioned,,,,9,,,,,30/06/2016,31/12/2017,,,
,,,,,,,,,,,,,,,,,,,http://opendatacommunities.org/id/unitary-authority/south-gloucestershire,South Gloucestershire Council,68,Grooms House Stanshawes Court Drive Yate BS37 4DZ,371493,181855,http://developments.southglos.gov.uk/online-applications/applicationDetails.do?activeTab=map&keyVal=N29YBYOK0AX00,0.28,not owned by a public authority,,permissioned,,,,9,,,,,30/06/2016,31/12/2017,,,
,,,,,,,,,,,,,,,,,,,http://opendatacommunities.org/id/unitary-authority/south-gloucestershire,South Gloucestershire Council,70,The Gables Costers Close Alveston Bristol South Gloucestershire BS35 3HZ,363057,188458,http://developments.southglos.gov.uk/online-applications/applicationDetails.do?activeTab=map&keyVal=NZV1HZOK0C500,0.3,not owned by a public authority,,permissioned,,,,9,,,,,31/12/2017,31/12/2017,,,
,,,,,,,,,,,,,,,,,,,http://opendatacommunities.org/id/unitary-authority/south-gloucestershire,South Gloucestershire Council,71,Wesleyan Chapel Blackhorse Road Kingswood Bristol,364533,173711,http://developments.southglos.gov.uk/online-applications/applicationDetails.do?activeTab=map&keyVal=NY2586OKMJM00,0.14,not owned by a public authority,,permissioned,,,,15,,,,,31/12/2017,31/12/2017,,,
,,,,,,,,,,,,,,,,,,,http://opendatacommunities.org/id/unitary-authority/south-gloucestershire,South Gloucestershire Council,72,Land Off The High Street Hanham Bristol South Gloucestershire,364059,172516,http://developments.southglos.gov.uk/online-applications/applicationDetails.do?activeTab=map&keyVal=NUGV9POKKIQ00,0.9,not owned by a public authority,,permissioned,,,,54,,,,,31/12/2017,31/12/2017,,,
,,,,,,,,,,,,,,,,,,,http://opendatacommunities.org/id/unitary-authority/south-gloucestershire,South Gloucestershire Council,73,29 Cabot Court Gloucester Road North Filton Bristol South Gloucestershire BS7 0SH,359870,178282,http://developments.southglos.gov.uk/online-applications/applicationDetails.do?activeTab=map&keyVal=NRY7EGOKJ3700,0.11,not owned by a public authority,,permissioned,,,,11,,,,,31/12/2017,31/12/2017,,,
,,,,,,,,,,,,,,,,,,,http://opendatacommunities.org/id/unitary-authority/south-gloucestershire,South Gloucestershire Council,74,Land Off Beaufort Road Downend Bristol South Gloucestershire,366344,177681,http://developments.southglos.gov.uk/online-applications/applicationDetails.do?activeTab=map&keyVal=OAYM1VOKMYZ00,0.26,not owned by a public authority,,permissioned,,,,16,,,,,31/12/2017,31/12/2017,,,
,,,,,,,,,,,,,,,,,,,http://opendatacommunities.org/id/unitary-authority/south-gloucestershire,South Gloucestershire Council,76,11 Willow Way Coalpit Heath Bristol South Gloucestershire,367398,181006,http://developments.southglos.gov.uk/online-applications/applicationDetails.do?activeTab=map&keyVal=N3VJL9OK7T000,0.17,not owned by a public authority,,permissioned,,,,8,,,,,31/12/2017,31/12/2017,,,
,,,,,,,,,,,,,,,,,,,http://opendatacommunities.org/id/unitary-authority/south-gloucestershire,South Gloucestershire Council,77,37 Ridings Road Coalpit Heath Bristol South Gloucestershire BS36 2RX,367137,180948,http://developments.southglos.gov.uk/online-applications/applicationDetails.do?activeTab=map&keyVal=N3VJOJOK7T000,0.2,not owned by a public authority,,permissioned,,,,8,,,,,31/12/2017,31/12/2017,,,
,,,,,,,,,,,,,,,,,,,http://opendatacommunities.org/id/unitary-authority/south-gloucestershire,South Gloucestershire Council,79,Land To The Rear Of 61-67 Cleeve Hill Downend Bristol South Gloucestershire BS16 6HQ,364896,177080,http://developments.southglos.gov.uk/online-applications/applicationDetails.do?activeTab=map&keyVal=O6YH9XOKK5O00,0.96,not owned by a public authority,,permissioned,,,,12,,,,,31/12/2017,31/12/2017,,,
,,,,,,,,,,,,,,,,,,,http://opendatacommunities.org/id/unitary-authority/south-gloucestershire,South Gloucestershire Council,80,Frenchay Hospital Beckspool Road Frenchay South Gloucestershire BS16 1JE,363890,177610,http://developments.southglos.gov.uk/online-applications/applicationDetails.do?activeTab=map&keyVal=NZI6VZOKFMP00,4.54,not owned by a public authority,,permissioned,,,,88,,,,,31/12/2017,31/12/2017,,,
,,,,,,,,,,,,,,,,,,,http://opendatacommunities.org/id/unitary-authority/south-gloucestershire,South Gloucestershire Council,81,Charlton Hayes Parcels H3 H4 And H5 North Field Filton South Gloucestershire BS34 7QD,359461,181125,http://developments.southglos.gov.uk/online-applications/applicationDetails.do?activeTab=map&keyVal=O48TYHOKID400,3.7,not owned by a public authority,,permissioned,,,,118,,,,,31/12/2017,31/12/2017,,,
,,,,,,,,,,,,,,,,,,,http://opendatacommunities.org/id/unitary-authority/south-gloucestershire,South Gloucestershire Council,83,Parcel H14 And H17 Charlton Hayes North Field Filton South Gloucestershire,359562,181207,http://developments.southglos.gov.uk/online-applications/applicationDetails.do?activeTab=map&keyVal=NYD9BDOKMQ000,0.75,not owned by a public authority,,permissioned,,,,27,,,,,31/12/2017,31/12/2017,,,
,,,,,,,,,,,,,,,,,,,http://opendatacommunities.org/id/unitary-authority/south-gloucestershire,South Gloucestershire Council,84,Charlton Hayes Phase 3 Parcel H37 Northfield Filton Airfieldc Patchway South Gloucestershire BS34 5DZ,359871,181197,http://developments.southglos.gov.uk/online-applications/applicationDetails.do?activeTab=map&keyVal=NYDQ42OKMQQ00,1.18,not owned by a public authority,,permissioned,,,,20,,,,,31/12/2017,31/12/2017,,,
,,,,,,,,,,,,,,,,,,,http://opendatacommunities.org/id/unitary-authority/south-gloucestershire,South Gloucestershire Council,85,1 - 13 (excluding 11) High Street Kingswood Bristol South Gloucestershire BS15 4AA,364966,173863,http://developments.southglos.gov.uk/online-applications/applicationDetails.do?activeTab=map&keyVal=O340NMOKHOG00,0.13,not owned by a public authority,,permissioned,,,,9,,,,,31/12/2017,31/12/2017,,,
,,,,,,,,,,,,,,,,,,,http://opendatacommunities.org/id/unitary-authority/south-gloucestershire,South Gloucestershire Council,86,Land Rear Of 160-166 Station Road Filton Bristol South Gloucestershire BS34 7JW,360990,178895,http://developments.southglos.gov.uk/online-applications/applicationDetails.do?activeTab=map&keyVal=O100OMOKGEM00,0.2,not owned by a public authority,,permissioned,,,,9,,,,,31/12/2017,31/12/2017,,,
,,,,,,,,,,,,,,,,,,,http://opendatacommunities.org/id/unitary-authority/south-gloucestershire,South Gloucestershire Council,87,34 - 36 Overnhill Road Downend Bristol South Gloucestershire BS16 5DP,364508,176143,http://developments.southglos.gov.uk/online-applications/applicationDetails.do?activeTab=map&keyVal=NOPC9ROKHA600,0.12,not owned by a public authority,,permissioned,,,,9,,,,,31/12/2017,31/12/2017,,,
,,,,,,,,,,,,,,,,,,,http://opendatacommunities.org/id/unitary-authority/south-gloucestershire,South Gloucestershire Council,88,1 Down Road Alveston Bristol South Gloucestershire BS35 3JF,363419,188287,http://developments.southglos.gov.uk/online-applications/applicationDetails.do?activeTab=map&keyVal=OG9TGPOKI8700,0.36,not owned by a public authority,,permissioned,,,,9,,,,,31/12/2017,31/12/2017,,,
,,,,,,,,,,,,,,,,,,,http://opendatacommunities.org/id/unitary-authority/south-gloucestershire,South Gloucestershire Council,89,Hanson Social Club Barnhill Road Chipping Sodbury Bristol South Gloucestershire BS37 6AY,372332,182458,http://developments.southglos.gov.uk/online-applications/applicationDetails.do?activeTab=map&keyVal=O9YCQ9OKMEO00,0.18,not owned by a public authority,,permissioned,,,,9,,,,,31/12/2017,31/12/2017,,,
,,,,,,,,,,,,,,,,,,,http://opendatacommunities.org/id/unitary-authority/south-gloucestershire,South Gloucestershire Council,90,Kingswood Learning Difficulty Service Hanham Road Kingswood South Gloucestershire BS15 8PQ,364960,173737,http://developments.southglos.gov.uk/online-applications/applicationDetails.do?activeTab=map&keyVal=O9ZI6GOKMF200,0.06,not owned by a public authority,,permissioned,,,,9,,,,,31/12/2017,31/12/2017,,,
,,,,,,,,,,,,,,,,,,,http://opendatacommunities.org/id/unitary-authority/south-gloucestershire,South Gloucestershire Council,91,Portland Building Portland Street Staple Hill South Gloucestershire BS16 4PS,364722,175435,http://developments.southglos.gov.uk/online-applications/applicationDetails.do?activeTab=map&keyVal=OD6ZB4OKGDT00,0.14,not owned by a public authority,,permissioned,,,,8,,,,,31/12/2017,31/12/2017,,,
,,,,,,,,,,,,,,,,,,,http://opendatacommunities.org/id/unitary-authority/south-gloucestershire,South Gloucestershire Council,92,24 - 50 South Parade Yate South Gloucestershire BS37 4BB,371478,182327,http://developments.southglos.gov.uk/online-applications/applicationDetails.do?activeTab=map&keyVal=OF8XP3OK0CW00,0.07,not owned by a public authority,,permissioned,,,,8,,,,,31/12/2017,31/12/2017,,,
,,,,,,,,,,,,,,,,,,,http://opendatacommunities.org/id/unitary-authority/south-gloucestershire,South Gloucestershire Council,93,Frenchay Park House Frenchay Park Road Frenchay South Gloucestershire BS16 1JE,363890,177610,http://developments.southglos.gov.uk/online-applications/applicationDetails.do?activeTab=map&keyVal=O8RPU2OKLNX00,0.28,not owned by a public authority,,permissioned,,,,7,,,,,31/12/2017,31/12/2017,,,
,,,,,,,,,,,,,,,,,,,http://opendatacommunities.org/id/unitary-authority/south-gloucestershire,South Gloucestershire Council,94,Royal Archer Public House 5 Lees Hill Kingswood Bristol South Gloucestershire BS15 4TL,365361,174435,http://developments.southglos.gov.uk/online-applications/applicationDetails.do?activeTab=map&keyVal=OJIFZMOKK0O00,0.17,not owned by a public authority,,permissioned,,,,7,,,,,31/12/2017,31/12/2017,,,
,,,,,,,,,,,,,,,,,,,http://opendatacommunities.org/id/unitary-authority/south-gloucestershire,South Gloucestershire Council,95,Conygre House Conygre Road Filton Bristol South Gloucestershire BS34 7DD,360754,179407,http://developments.southglos.gov.uk/online-applications/applicationDetails.do?activeTab=map&keyVal=O1XDGWOK0C500,0.28,not owned by a public authority,,permissioned,,,,7,,,,,31/12/2017,31/12/2017,,,
,,,,,,,,,,,,,,,,,,,http://opendatacommunities.org/id/unitary-authority/south-gloucestershire,South Gloucestershire Council,96,21 Portland Street Staple Hill Bristol South Gloucestershire BS16 4PT,364687,175431,http://developments.southglos.gov.uk/online-applications/applicationDetails.do?activeTab=map&keyVal=O64XCHOKJDV00,0.07,not owned by a public authority,,permissioned,,,,7,,,,,31/12/2017,31/12/2017,,,
,,,,,,,,,,,,,,,,,,,http://opendatacommunities.org/id/unitary-authority/south-gloucestershire,South Gloucestershire Council,97,The Cherry Tree 128 West Street Oldland Common Bristol South Gloucestershire BS30 9QR,367298,171240,http://developments.southglos.gov.uk/online-applications/applicationDetails.do?activeTab=map&keyVal=O103JMOKGEU00,0.09,not owned by a public authority,,permissioned,,,,7,,,,,31/12/2017,31/12/2017,,,
,,,,,,,,,,,,,,,,,,,http://opendatacommunities.org/id/unitary-authority/south-gloucestershire,South Gloucestershire Council,98,Greenaways Land At Woodmans Road Chipping Sodbury,373017,181877,http://developments.southglos.gov.uk/online-applications/applicationDetails.do?activeTab=map&keyVal=NIH9OEOK7T000,0.22,not owned by a public authority,,permissioned,,,,7,,,,,31/12/2017,31/12/2017,,,
,,,,,,,,,,,,,,,,,,,http://opendatacommunities.org/id/unitary-authority/south-gloucestershire,South Gloucestershire Council,99,1 Gayner Road Filton Bristol South Gloucestershire BS7 0SP,360027,178534,http://developments.southglos.gov.uk/online-applications/applicationDetails.do?activeTab=map&keyVal=NZRSRTOKFSN00,0.06,not owned by a public authority,,permissioned,,,,6,,,,,31/12/2017,31/12/2017,,,
,,,,,,,,,,,,,,,,,,,http://opendatacommunities.org/id/unitary-authority/south-gloucestershire,South Gloucestershire Council,100,21-23 High Street Kingswood Bristol South Gloucestershire BS15 4AA,3675011,173864,http://developments.southglos.gov.uk/online-applications/applicationDetails.do?activeTab=map&keyVal=NQ1N5NOKI0O00,0.06,not owned by a public authority,,permissioned,,,,6,,,,,31/12/2017,31/12/2017,,,
,,,,,,,,,,,,,,,,,,,http://opendatacommunities.org/id/unitary-authority/south-gloucestershire,South Gloucestershire Council,101,Warmley Court 33 Deanery Road Kingswood South Gloucestershire BS15 9JB,366625,173603,http://developments.southglos.gov.uk/online-applications/applicationDetails.do?activeTab=map&keyVal=OG4M08OKI5W00,0.19,not owned by a public authority,,permissioned,,,,6,,,,,31/12/2017,31/12/2017,,,
,,,,,,,,,,,,,,,,,,,http://opendatacommunities.org/id/unitary-authority/south-gloucestershire,South Gloucestershire Council,102,46 High Street Formerly Bollywood Spice Warmley Bristol South Gloucestershire BS15 4NF,367009,173533,http://developments.southglos.gov.uk/online-applications/applicationDetails.do?activeTab=map&keyVal=NCB1UQOK0BR00,0.13,not owned by a public authority,,permissioned,,,,6,,,,,31/12/2017,31/12/2017,,,
,,,,,,,,,,,,,,,,,,,http://opendatacommunities.org/id/unitary-authority/south-gloucestershire,South Gloucestershire Council,103,16 Lower Chapel Road Hanham Bristol South Gloucestershire BS15 8SH,364157,172432,http://developments.southglos.gov.uk/online-applications/applicationDetails.do?activeTab=map&keyVal=NXRDQGOKMDV00,0.1,not owned by a public authority,,permissioned,,,,6,,,,,31/12/2017,31/12/2017,,,
,,,,,,,,,,,,,,,,,,,http://opendatacommunities.org/id/unitary-authority/south-gloucestershire,South Gloucestershire Council,104,152A Soundwell Road Soundwell Bristol South Gloucestershire BS16 4RT,364794,175131,http://developments.southglos.gov.uk/online-applications/applicationDetails.do?activeTab=map&keyVal=NXRJBHOKME300,0.1,not owned by a public authority,,permissioned,,,,6,,,,,31/12/2017,31/12/2017,,,
,,,,,,,,,,,,,,,,,,,http://opendatacommunities.org/id/unitary-authority/south-gloucestershire,South Gloucestershire Council,105,4 Broad Lane Yate,370864,183749,http://developments.southglos.gov.uk/online-applications/applicationDetails.do?activeTab=map&keyVal=OEXUR3OK0CW00,0.19,not owned by a public authority,,permissioned,,,,5,,,,,31/12/2017,31/12/2017,,,
,,,,,,,,,,,,,,,,,,,http://opendatacommunities.org/id/unitary-authority/south-gloucestershire,South Gloucestershire Council,106,Collins Avenue Little Stoke Bristol South Gloucestershire BS34 6JZ,361476,180909,http://developments.southglos.gov.uk/online-applications/applicationDetails.do?activeTab=map&keyVal=OWA6I7OKJRU00,0.34,not owned by a public authority,,permissioned,,,,15,,,,,31/12/2017,31/12/2017,,,
,,,,,,,,,,,,,,,,,,,http://opendatacommunities.org/id/unitary-authority/south-gloucestershire,South Gloucestershire Council,107,Parcel LC2 Charlton Boulevard Patchway South Gloucestershire BS34 5BN,360012,181393,http://developments.southglos.gov.uk/online-applications/applicationDetails.do?activeTab=map&keyVal=OBSPGAOKFQ900,0.65,not owned by a public authority,,permissioned,,,,52,,,,,31/12/2017,31/12/2017,,,
,,,,,,,,,,,,,,,,,,,http://opendatacommunities.org/id/unitary-authority/south-gloucestershire,South Gloucestershire Council,108,"Charlton Hayes Parcels H11, H12 & H13, North Field, Filton Bristol BS34 5GZ",359562,181207,http://developments.southglos.gov.uk/online-applications/applicationDetails.do?activeTab=map&keyVal=OHJZWROKIZD00,3.87,not owned by a public authority,,permissioned,,,,130,,,,,31/12/2017,31/12/2017,,,
,,,,,,,,,,,,,,,,,,,http://opendatacommunities.org/id/unitary-authority/south-gloucestershire,South Gloucestershire Council,109,Kerr House Residential Home 50 Morley Road Staple Hill South Gloucestershire BS16 4QD,365086,175261,http://developments.southglos.gov.uk/online-applications/applicationDetails.do?activeTab=map&keyVal=OFAY16OKHLV00,0.32,not owned by a public authority,,permissioned,,,,21,,,,,31/12/2017,31/12/2017,,,
,,,,,,,,,,,,,,,,,,,http://opendatacommunities.org/id/unitary-authority/south-gloucestershire,South Gloucestershire Council,110,Plot MU5 Land At Junction Of Hayes Way Charlton Boulevard Patchway South Gloucestershire BS34 5AG,360077,181029,http://developments.southglos.gov.uk/online-applications/applicationDetails.do?activeTab=map&keyVal=OCS7L7OKG6T00,0.53,not owned by a public authority,,permissioned,,,,42,,,,,31/12/2017,31/12/2017,,,
,,,,,,,,,,,,,,,,,,,http://opendatacommunities.org/id/unitary-authority/south-gloucestershire,South Gloucestershire Council,111,Plot MU6 Land At Junction Of Hayes Way Charlton Boulevard Patchway South Gloucestershire BS34 5AG,360286,181096,http://developments.southglos.gov.uk/online-applications/applicationDetails.do?activeTab=map&keyVal=OCS7IVOKG6R00,0.55,not owned by a public authority,,permissioned,,,,60,,,,,31/12/2017,31/12/2017,,,
,,,,,,,,,,,,,,,,,,,http://opendatacommunities.org/id/unitary-authority/south-gloucestershire,South Gloucestershire Council,112,Rawlings And Sons Bristol Ltd Cecil Road Kingswood South Gloucestershire BS15 8NA,364755,173718,http://developments.southglos.gov.uk/online-applications/applicationDetails.do?activeTab=map&keyVal=O6X3CLOKK4N00,0.17,not owned by a public authority,,permissioned,,,,29,,,,Allowed at Appeal,31/12/2017,31/12/2017,,,
,,,,,,,,,,,,,,,,,,,http://opendatacommunities.org/id/unitary-authority/south-gloucestershire,South Gloucestershire Council,113,The Council Offices Castle Street Thornbury South Gloucestershire BS35 1HF,363521,190362,http://developments.southglos.gov.uk/online-applications/applicationDetails.do?activeTab=map&keyVal=O3DFF5OKHU500,1,not owned by a public authority,,permissioned,,,,61,,,,Allowed at Appeal,31/12/2017,31/12/2017,,,
