address,address-text,deliverable,end-date,entry-date,hazardous-substances,hectares,latitude,longitude,maximum-net-dwellings,minimum-net-dwellings,notes,organisation,ownership-status,planning-permission-date,planning-permission-history,planning-permission-status,planning-permission-type,site,OrganisationURI,OrganisationLabel,SiteReference,SiteNameAddress,GeoX,GeoY,SiteplanURL,Hectares,OwnershipStatus,HazardousSubstances,PlanningStatus,PermissionType,PermissionDate,PlanningHistory,MinNetDwellings,NetDwellingsRangeFrom,NetDwellingsRangeTo,Deliverable,Notes,FirstAddedDate,LastUpdatedDate,EndDate,site-plan-url,start-date
,,,,,,,,,,,,,,,,,,,http://opendatacommunities.org/id/district-council/south-cambridgeshire,South Cambridgeshire District Council,17SC0001,"""Granta Processors, Mill Lane, Whittlesford, Cambridge, Cambridgeshire, CB22 4XL""",52.114315,0.15524112,https://gismaps.scambs.gov.uk/connect/analyst/mobile/#/main?mapcfg=BrownFieldRegister_New&queryTable=/NamedTables/SCDC_Brownfieldregister&queryColumn=Site_Reference&queryValues=17SC0001,0.65,unknown ownership,,permissioned,,,,16,,,,Approved 06/05/2014 | Lapses 2 years from the date of Approval of the last Reserved Matters to be approved,31/12/2017,31/12/2017,,,
,,,,,,,,,,,,,,,,,,,http://opendatacommunities.org/id/district-council/south-cambridgeshire,South Cambridgeshire District Council,17SC0002,"""Land to the rear of, 131 The Causeway, Bassingbourn Cum Kneesworth, Royston, Cambridgeshire, SG8 5JB""",52.081691,-0.044209694,https://gismaps.scambs.gov.uk/connect/analyst/mobile/#/main?mapcfg=BrownFieldRegister_New&queryTable=/NamedTables/SCDC_Brownfieldregister&queryColumn=Site_Reference&queryValues=17SC0002,0.94,unknown ownership,,permissioned,,,,20,,,,Approved 05/11/2015,31/12/2017,31/12/2017,,,
,,,,,,,,,,,,,,,,,,,http://opendatacommunities.org/id/district-council/south-cambridgeshire,South Cambridgeshire District Council,17SC0003,"""The Oaks, Blacksmiths Lane, Shudy Camps, Cambridge, Cambridgeshire, CB21 4RQ""",52.075476,0.37657619,https://gismaps.scambs.gov.uk/connect/analyst/mobile/#/main?mapcfg=BrownFieldRegister_New&queryTable=/NamedTables/SCDC_Brownfieldregister&queryColumn=Site_Reference&queryValues=17SC0003,0.82,unknown ownership,,permissioned,,,,1,,,,Approved 23/03/2015 | Lapse date 22/03/2018,31/12/2017,31/12/2017,,,
,,,,,,,,,,,,,,,,,,,http://opendatacommunities.org/id/district-council/south-cambridgeshire,South Cambridgeshire District Council,17SC0004,"""Bayer CropScience,Hauxton, Cambridgeshire""",52.15169,0.0934,https://gismaps.scambs.gov.uk/connect/analyst/mobile/#/main?mapcfg=BrownFieldRegister_New&queryTable=/NamedTables/SCDC_Brownfieldregister&queryColumn=Site_Reference&queryValues=17SC0004,8.76,not owned by a public authority,,permissioned,,,,285,,,,"""Planning History: Outline planning permission was granted in February 2010 for up to 380 dwellings and other uses. This permission has now lapsed."" | Phase 1 detailed planning permission for 201 dwellings was granted in November 2014 and the development is under construction. | ""Detailed masterplanning of the site has resulted in the site being anticipated to provide 285 dwellings, rather than 380 dwellings as anticipated in the outline planning permission.""",31/12/2017,31/12/2017,,,
,,,,,,,,,,,,,,,,,,,http://opendatacommunities.org/id/district-council/south-cambridgeshire,South Cambridgeshire District Council,17SC0004a,"""Former Bayer Cropscience Site,Cambridge Road, Hauxton, Cambridge, Cambridgeshire, CB22 5HT""",52.15117,0.093579357,https://gismaps.scambs.gov.uk/connect/analyst/mobile/#/main?mapcfg=BrownFieldRegister_New&queryTable=/NamedTables/SCDC_Brownfieldregister&queryColumn=Site_Reference&queryValues=17SC0004a,7.24,unknown ownership,,permissioned,,,,201,,,,"Approved 14/11/2014 | ""March 2015: 25 dwellings under construction, 176 dwellings where no construction had started""",31/12/2017,31/12/2017,,,
,,,,,,,,,,,,,,,,,,,http://opendatacommunities.org/id/district-council/south-cambridgeshire,South Cambridgeshire District Council,17SC0005,"""17-19, Bandon Road,Girton, Cambridgeshire, CB3 OLU""",52.226015,0.088664806,https://gismaps.scambs.gov.uk/connect/analyst/mobile/#/main?mapcfg=BrownFieldRegister_New&queryTable=/NamedTables/SCDC_Brownfieldregister&queryColumn=Site_Reference&queryValues=17SC0005,0.34,unknown ownership,,permissioned,,,,2,,,,Approved 12/07/2016 | Lapse date 11/07/2019,31/12/2017,31/12/2017,,,
,,,,,,,,,,,,,,,,,,,http://opendatacommunities.org/id/district-council/south-cambridgeshire,South Cambridgeshire District Council,17SC0006,"""Former CEMEX Cement Works, Barrington Cement Plant, Haslingfield Road, Barrington, Cambridge, Cambridgeshire, CB22 7RQ""",52.129764,0.04414113,https://gismaps.scambs.gov.uk/connect/analyst/mobile/#/main?mapcfg=BrownFieldRegister_New&queryTable=/NamedTables/SCDC_Brownfieldregister&queryColumn=Site_Reference&queryValues=17SC0006,31.63,unknown ownership,,permissioned,,,,220,,,,"Approved 27/10/2016 | ""Planning Status: resolution to grant planning permission - planning committee in June 2015 gave officers delegated powers to approve the application subject to the prior completion of a s106 agreement""",31/12/2017,31/12/2017,,,
,,,,,,,,,,,,,,,,,,,http://opendatacommunities.org/id/district-council/south-cambridgeshire,South Cambridgeshire District Council,17SC0007,"""Sheepshead Lane, Harston, Cambridgeshire""",52.143765,0.083176637,https://gismaps.scambs.gov.uk/connect/analyst/mobile/#/main?mapcfg=BrownFieldRegister_New&queryTable=/NamedTables/SCDC_Brownfieldregister&queryColumn=Site_Reference&queryValues=17SC0007,0.32,unknown ownership,,permissioned,,,,1,,,,Approved 05/06/2013 | Lasped date June 2016,31/12/2017,31/12/2017,,,
,,,,,,,,,,,,,,,,,,,http://opendatacommunities.org/id/district-council/south-cambridgeshire,South Cambridgeshire District Council,17SC0008,"""Fulbourn & Ida Darwin Hospitals,Fulbourn Old Drift, Cambridgeshire""",52.18499,0.18802,https://gismaps.scambs.gov.uk/connect/analyst/mobile/#/main?mapcfg=BrownFieldRegister_New&queryTable=/NamedTables/SCDC_Brownfieldregister&queryColumn=Site_Reference&queryValues=17SC0008,26.91,owned by a public authority,,permissioned,,,,230,,,,"""Important Note: this site includes both greenfield and brownfield land; the information presented in the 'SiteplanURL', 'Hectares', 'PlanningHistory', 'MinNetDwellings', 'Development Description', 'Non-HousingDevelopment' columns is for whole site and not just the brownfield land"" | ""Planning History: Planning committee in June 2014 endorsed a development brief for the site as a material consideration for all subsequent planning applications"" | Outline planning permission for 180 dwellings and 70 unit extra care facility was refused by planning committee in June 2014 | It is unlikely that the site will be able to accommodate any more than 230 dwellings due to the discussions undertaken in the consideration of the planning application.",31/12/2017,31/12/2017,,,
,,,,,,,,,,,,,,,,,,,http://opendatacommunities.org/id/district-council/south-cambridgeshire,South Cambridgeshire District Council,17SC0008a,"""Ida Darwin Hospital, Fulbourn Old Drift, FULBOURN, CB21 5EE""",52.18615,0.20067096,https://gismaps.scambs.gov.uk/connect/analyst/mobile/#/main?mapcfg=BrownFieldRegister_New&queryTable=/NamedTables/SCDC_Brownfieldregister&queryColumn=Site_Reference&queryValues=17SC0008a,13.38,unknown ownership,,permissioned,,,,203,,,,"""Outline planning application for up to 203 dwellings including affordable housing and land for community provision with access and associated works, open space and landscaping, following the demolition of existing buildings on site | Lapses 27/02/2020""",31/12/2017,31/12/2017,,,
,,,,,,,,,,,,,,,,,,,http://opendatacommunities.org/id/district-council/south-cambridgeshire,South Cambridgeshire District Council,17SC0009,"""Northstowe, Longstanton Road, Cambridgeshire""",52.267471,0.034436602,https://gismaps.scambs.gov.uk/connect/analyst/mobile/#/main?mapcfg=BrownFieldRegister_New&queryTable=/NamedTables/SCDC_Brownfieldregister&queryColumn=Site_Reference&queryValues=17SC0009,1380.9,owned by a public authority,,permissioned,,,,10000,,,,"""Important Note: this site includes both greenfield and brownfield land; the information presented in the 'SiteplanURL', 'Hectares', 'PlanningHistory', 'MinNetDwellings', 'Development Description', 'Non-HousingDevelopment' columns is for whole site and not just the brownfield land"" | ""Ownership Status: partly public ownership"" | ""Planning History: Northstowe Joint Development Control
Committee in July 2012 endorsed (with some revisions) the site wide masterplan (Development Framework Document) as a material consideration for all subsequent planning applications."" | ""Outline planning permission granted in April 2014 for phase 1 comprising up to 1,500 dwellings, a primary school, a mixed-use local centre, leisure, community, residential institutions, cultural, health, and employment provision including a household recycling centre, recreational space and landscaped areas, and infrastructure works."" | ""Northstowe Joint Development Control Committee in June 2015 resolved to grant outline planning permission for phase 2 (up to 3,500 dwellings, a secondary school, two primary schools, a town centre and sports hub), subject to the prior completion of a s106 agreement. The conditions and s106 agreement were agreed by the Joint Northstowe Development Control Committee in July 2015.""",31/12/2017,31/12/2017,,,
,,,,,,,,,,,,,,,,,,,http://opendatacommunities.org/id/district-council/south-cambridgeshire,South Cambridgeshire District Council,17SC0009a,"""Land to the East of B1050 and Longstanton, West of the Cambridgeshire Guided Busway (CGB) and North of Oakington""",52.281724,0.063897617,https://gismaps.scambs.gov.uk/connect/analyst/mobile/#/main?mapcfg=BrownFieldRegister_New&queryTable=/NamedTables/SCDC_Brownfieldregister&queryColumn=Site_Reference&queryValues=17SC0009a,63.3,unknown ownership,,permissioned,,,,2450,,,,"""Important Note: this site includes both greenfield and brownfield land; the information presented in the 'SiteplanURL', 'Hectares', 'PlanningHistory', 'MinNetDwellings', 'Development Description', 'Non-HousingDevelopment' columns is for whole site and not just the brownfield land"" | Approved 09/01/2017 | Whole site housing estimate for 3500 dwellings.",31/12/2017,31/12/2017,,,
,,,,,,,,,,,,,,,,,,,http://opendatacommunities.org/id/district-council/south-cambridgeshire,South Cambridgeshire District Council,17SC0010,"""27, Cambridge Road, Little Abington, Cambridgeshire, CB21 6BL""",52.122875,0.23404468,https://gismaps.scambs.gov.uk/connect/analyst/mobile/#/main?mapcfg=BrownFieldRegister_New&queryTable=/NamedTables/SCDC_Brownfieldregister&queryColumn=Site_Reference&queryValues=17SC0010,0.48,unknown ownership,,permissioned,,,,2,,,,Approved 01/06/2016 | Lapse date 31/05/2019,31/12/2017,31/12/2017,,,
,,,,,,,,,,,,,,,,,,,http://opendatacommunities.org/id/district-council/south-cambridgeshire,South Cambridgeshire District Council,17SC0011,"""1, Horseheath Road, Linton, Cambridge, Cambridgeshire, CB21 4LU""",52.097775,0.2871631,https://gismaps.scambs.gov.uk/connect/analyst/mobile/#/main?mapcfg=BrownFieldRegister_New&queryTable=/NamedTables/SCDC_Brownfieldregister&queryColumn=Site_Reference&queryValues=17SC0011,0.29,unknown ownership,,permissioned,,,,6,,,,Approved 30/11/2016 | Lapses 2 years from the date of Approval of the last Reserved Matters to be approved,31/12/2017,31/12/2017,,,
,,,,,,,,,,,,,,,,,,,http://opendatacommunities.org/id/district-council/south-cambridgeshire,South Cambridgeshire District Council,17SC0012,"""60, New Road, Guilden Morden, Royston, Cambridgeshire, SG8 0JN""",52.084078,-0.12640901,https://gismaps.scambs.gov.uk/connect/analyst/mobile/#/main?mapcfg=BrownFieldRegister_New&queryTable=/NamedTables/SCDC_Brownfieldregister&queryColumn=Site_Reference&queryValues=17SC0012,0.34,unknown ownership,,permissioned,,,,0,,,,Approved 09/12/2016 | Lapse date 08/12/2019,31/12/2017,31/12/2017,,,
,,,,,,,,,,,,,,,,,,,http://opendatacommunities.org/id/district-council/south-cambridgeshire,South Cambridgeshire District Council,17SC0013,"""15, Comberton Road, Barton, Cambridge, Cambridgeshire, CB23 7BA""",52.183769,0.050903237,https://gismaps.scambs.gov.uk/connect/analyst/mobile/#/main?mapcfg=BrownFieldRegister_New&queryTable=/NamedTables/SCDC_Brownfieldregister&queryColumn=Site_Reference&queryValues=17SC0013,0.27,unknown ownership,,permissioned,,,,2,,,,Approved 15/02/2016 | Lapses 2 years from the date of Approval of the last Reserved Matters to be approved,31/12/2017,31/12/2017,,,
,,,,,,,,,,,,,,,,,,,http://opendatacommunities.org/id/district-council/south-cambridgeshire,South Cambridgeshire District Council,17SC0014,"""L Abri, Teversham Road, Fulbourn, Cambridge, Cambridgeshire, CB21 5EB""",52.188798,0.20672702,https://gismaps.scambs.gov.uk/connect/analyst/mobile/#/main?mapcfg=BrownFieldRegister_New&queryTable=/NamedTables/SCDC_Brownfieldregister&queryColumn=Site_Reference&queryValues=17SC0014,0.47,unknown ownership,,permissioned,,,,0,,,,Approved 21/09/2016 | Lapse date 20/09/2019,31/12/2017,31/12/2017,,,
,,,,,,,,,,,,,,,,,,,http://opendatacommunities.org/id/district-council/south-cambridgeshire,South Cambridgeshire District Council,17SC0015,"""Land to the east of, Cox's Drove, Fulbourn, CB21 5HE """,52.186785,0.2181702,https://gismaps.scambs.gov.uk/connect/analyst/mobile/#/main?mapcfg=BrownFieldRegister_New&queryTable=/NamedTables/SCDC_Brownfieldregister&queryColumn=Site_Reference&queryValues=17SC0015,0.54,unknown ownership,,permissioned,,,,6,,,,Approved 29/09/2016 | Lapse date 28/09/2019,31/12/2017,31/12/2017,,,
,,,,,,,,,,,,,,,,,,,http://opendatacommunities.org/id/district-council/south-cambridgeshire,South Cambridgeshire District Council,17SC0016,"""The Plant Depot, Church Farm, Gransden Road, Caxton, Cambridge, CB23 3PL""",52.203408,-0.10118334,https://gismaps.scambs.gov.uk/connect/analyst/mobile/#/main?mapcfg=BrownFieldRegister_New&queryTable=/NamedTables/SCDC_Brownfieldregister&queryColumn=Site_Reference&queryValues=17SC0016,0.5,unknown ownership,,permissioned,,,,2,,,,Approved 14/06/2016 | Lapse date 13/06/2019,31/12/2017,31/12/2017,,,
,,,,,,,,,,,,,,,,,,,http://opendatacommunities.org/id/district-council/south-cambridgeshire,South Cambridgeshire District Council,17SC0017,"""The Willows & Highbank, Long Lane, Fowlmere, Royston, Herts, SG8 7TG""",52.095751,0.070733675,https://gismaps.scambs.gov.uk/connect/analyst/mobile/#/main?mapcfg=BrownFieldRegister_New&queryTable=/NamedTables/SCDC_Brownfieldregister&queryColumn=Site_Reference&queryValues=17SC0017,0.48,unknown ownership,,permissioned,,,,3,,,,Approved 24/10/2016 | Lapse date 23/10/2019,31/12/2017,31/12/2017,,,
,,,,,,,,,,,,,,,,,,,http://opendatacommunities.org/id/district-council/south-cambridgeshire,South Cambridgeshire District Council,17SC0018,"""2, Cambridge Road, Milton, Cambridge, Cambridgeshire, CB24 6AW""",52.242544,0.15950185,https://gismaps.scambs.gov.uk/connect/analyst/mobile/#/main?mapcfg=BrownFieldRegister_New&queryTable=/NamedTables/SCDC_Brownfieldregister&queryColumn=Site_Reference&queryValues=17SC0018,0.62,unknown ownership,,permissioned,,,,2,,,,Approved 27/09/2016 | Lapse date 26/09/2019,31/12/2017,31/12/2017,,,
,,,,,,,,,,,,,,,,,,,http://opendatacommunities.org/id/district-council/south-cambridgeshire,South Cambridgeshire District Council,17SC0019,"""Cold Harbour Farm, Willingham Road, OVER, CB24 5EY""",52.310158,0.04152799,https://gismaps.scambs.gov.uk/connect/analyst/mobile/#/main?mapcfg=BrownFieldRegister_New&queryTable=/NamedTables/SCDC_Brownfieldregister&queryColumn=Site_Reference&queryValues=17SC0019,0.67,unknown ownership,,permissioned,,,,0,,,,Approved 04/10/2016 | Lapse date 03/10/2019,31/12/2017,31/12/2017,,,
,,,,,,,,,,,,,,,,,,,http://opendatacommunities.org/id/district-council/south-cambridgeshire,South Cambridgeshire District Council,17SC0020,"""Westwind, Highfields Road, Highfields Caldecote, Caldecote, Cambridge, Cambridgeshire, CB23 7NX""",52.216656,-0.016122315,https://gismaps.scambs.gov.uk/connect/analyst/mobile/#/main?mapcfg=BrownFieldRegister_New&queryTable=/NamedTables/SCDC_Brownfieldregister&queryColumn=Site_Reference&queryValues=17SC0020,0.59,unknown ownership,,permissioned,,,,1,,,,Approved 26/06/2015 | Lapse date 25/06/2018,31/12/2017,31/12/2017,,,
,,,,,,,,,,,,,,,,,,,http://opendatacommunities.org/id/district-council/south-cambridgeshire,South Cambridgeshire District Council,17SC0021,"""40, Church Lane, Cottenham, Cambridge, Cambridgeshire, CB24 8SN""",52.294768,0.13386983,https://gismaps.scambs.gov.uk/connect/analyst/mobile/#/main?mapcfg=BrownFieldRegister_New&queryTable=/NamedTables/SCDC_Brownfieldregister&queryColumn=Site_Reference&queryValues=17SC0021,0.37,unknown ownership,,permissioned,,,,1,,,,Approved 29/02/2016 | Lapse date 28/02/2019,31/12/2017,31/12/2017,,,
,,,,,,,,,,,,,,,,,,,http://opendatacommunities.org/id/district-council/south-cambridgeshire,South Cambridgeshire District Council,17SC0022,"""44, Main Street, Hardwick, Cambridge, Cambridgeshire, CB23 7QS""",52.209364,0.007776488,https://gismaps.scambs.gov.uk/connect/analyst/mobile/#/main?mapcfg=BrownFieldRegister_New&queryTable=/NamedTables/SCDC_Brownfieldregister&queryColumn=Site_Reference&queryValues=17SC0022,0.41,unknown ownership,,permissioned,,,,1,,,,Approved 19/02/2016 | Lapse date 18/02/2019,31/12/2017,31/12/2017,,,
,,,,,,,,,,,,,,,,,,,http://opendatacommunities.org/id/district-council/south-cambridgeshire,South Cambridgeshire District Council,17SC0023,"""Woodstock, 63 , Fowlmere Road, Heydon, Cambridgeshire, SG8 8PZ """,52.044548,0.084115328,https://gismaps.scambs.gov.uk/connect/analyst/mobile/#/main?mapcfg=BrownFieldRegister_New&queryTable=/NamedTables/SCDC_Brownfieldregister&queryColumn=Site_Reference&queryValues=17SC0023,0.4,unknown ownership,,permissioned,,,,1,,,,Approved 17/02/2017 | Lapse date 16/02/2020,31/12/2017,31/12/2017,,,
,,,,,,,,,,,,,,,,,,,http://opendatacommunities.org/id/district-council/south-cambridgeshire,South Cambridgeshire District Council,17SC0024,"""Meadowside Lodge, Olmstead Green, Castle Camps, Cambridge, Cambridgeshire, CB21 4TW""",52.043309,0.38503349,https://gismaps.scambs.gov.uk/connect/analyst/mobile/#/main?mapcfg=BrownFieldRegister_New&queryTable=/NamedTables/SCDC_Brownfieldregister&queryColumn=Site_Reference&queryValues=17SC0024,0.26,unknown ownership,,permissioned,,,,0,,,,Approved 02/11/2016 | Lapse date 01/11/2019,31/12/2017,31/12/2017,,,
,,,,,,,,,,,,,,,,,,,http://opendatacommunities.org/id/district-council/south-cambridgeshire,South Cambridgeshire District Council,17SC0025,"""56 , Park Lane, FEN DRAYTON, CB24 4SW""",52.300144,-0.04198974,https://gismaps.scambs.gov.uk/connect/analyst/mobile/#/main?mapcfg=BrownFieldRegister_New&queryTable=/NamedTables/SCDC_Brownfieldregister&queryColumn=Site_Reference&queryValues=17SC0025,0.33,unknown ownership,,permissioned,,,,1,,,,Approved 17/03/2017 | Lapse date 16/03/2020,31/12/2017,31/12/2017,,,
,,,,,,,,,,,,,,,,,,,http://opendatacommunities.org/id/district-council/south-cambridgeshire,South Cambridgeshire District Council,17SC0026,"""Quy Water, Newmarket Road, Fen Ditton, Cambridge, Cambridgeshire, CB1 9AT """,52.212163,0.19736022,https://gismaps.scambs.gov.uk/connect/analyst/mobile/#/main?mapcfg=BrownFieldRegister_New&queryTable=/NamedTables/SCDC_Brownfieldregister&queryColumn=Site_Reference&queryValues=17SC0026,0.47,unknown ownership,,permissioned,,,,0,,,,Approved 16/02/2017 | Lapse date 15/02/2020,31/12/2017,31/12/2017,,,
,,,,,,,,,,,,,,,,,,,http://opendatacommunities.org/id/district-council/south-cambridgeshire,South Cambridgeshire District Council,17SC0027,"""Cottenham Farm, Broad Lane, Cottenham, Cambs., CB24 8SW""",52.29623,0.11956783,https://gismaps.scambs.gov.uk/connect/analyst/mobile/#/main?mapcfg=BrownFieldRegister_New&queryTable=/NamedTables/SCDC_Brownfieldregister&queryColumn=Site_Reference&queryValues=17SC0027,0.82,unknown ownership,,permissioned,,,,0,,,,Approved 22/09/2015 | Lapse date 21/09/2018,31/12/2017,31/12/2017,,,
,,,,,,,,,,,,,,,,,,,http://opendatacommunities.org/id/district-council/south-cambridgeshire,South Cambridgeshire District Council,17SC0028,"""Land to rear of 4, Mill Courtyard, Steeple Morden, Royston, Cambridgeshire, SG8 0NH""",52.062041,-0.12822128,https://gismaps.scambs.gov.uk/connect/analyst/mobile/#/main?mapcfg=BrownFieldRegister_New&queryTable=/NamedTables/SCDC_Brownfieldregister&queryColumn=Site_Reference&queryValues=17SC0028,0.09,unknown ownership,,permissioned,,,,2,,,,Approved 24/03/2017,31/12/2017,31/12/2017,,,
,,,,,,,,,,,,,,,,,,,http://opendatacommunities.org/id/district-council/south-cambridgeshire,South Cambridgeshire District Council,17SC0029,"""Westfield Orchard,Ashwell Street, Melbourn, Cambridgeshire, SG8 0RS""",52.072142,-0.015691806,https://gismaps.scambs.gov.uk/connect/analyst/mobile/#/main?mapcfg=BrownFieldRegister_New&queryTable=/NamedTables/SCDC_Brownfieldregister&queryColumn=Site_Reference&queryValues=17SC0029,1.26,unknown ownership,,permissioned,,,,0,,,,"""Important Note: this site includes both greenfield and brownfield land; the information presented in the 'SiteplanURL', 'Hectares', 'PlanningHistory', 'MinNetDwellings', 'Development Description', 'Non-HousingDevelopment' columns is for whole site and not just the brownfield land"" | Approved 27/12/2016 | Lapse date 26/12/2020",31/12/2017,31/12/2017,,,
,,,,,,,,,,,,,,,,,,,http://opendatacommunities.org/id/district-council/south-cambridgeshire,South Cambridgeshire District Council,17SC0030,"""Cambridge East, Land North of Newmarket Road, Newmarket Road, Cambridge""",52.213355,0.17524185,https://gismaps.scambs.gov.uk/connect/analyst/mobile/#/main?mapcfg=BrownFieldRegister_New&queryTable=/NamedTables/SCDC_Brownfieldregister&queryColumn=Site_Reference&queryValues=17SC0030,64.51,not owned by a public authority,,permissioned,,,,481,,,,"""Important Note: this site includes both greenfield and brownfield land; the information presented in the 'SiteplanURL', 'Hectares', 'PlanningHistory', 'MinNetDwellings', 'Development Description', 'Non-HousingDevelopment' columns is for whole site and not just the brownfield land"" | Approved 30/11/2016 | Lapse date 29/11/2019 | ""Up to 1,300 homes, primary school, food store, community facilities, open spaces, landscaping and associated infrastructure and other development"" | https://www.scambs.gov.uk/content/cambridge-east-area-action-plan | ""Development Control Committee (Cambridge Fringe Sites) in April 2016 resolved to approve an outline planning application for up to 1,300 homes, a primary school, food store, community facilities and open spaces.""",31/12/2017,31/12/2017,,,
,,,,,,,,,,,,,,,,,,,http://opendatacommunities.org/id/district-council/south-cambridgeshire,South Cambridgeshire District Council,17SC0031,"""Land at Green End Industrial Estate, Green End, Gamlingay, Gamlingay, Cambridgeshire, SG19 3LX """,52.156651,-0.19679437,https://gismaps.scambs.gov.uk/connect/analyst/mobile/#/main?mapcfg=BrownFieldRegister_New&queryTable=/NamedTables/SCDC_Brownfieldregister&queryColumn=Site_Reference&queryValues=17SC0031,2.92,unknown ownership,,permissioned,,,,90,,,,Approved 07/12/2016,31/12/2017,31/12/2017,,,
