address,address-text,deliverable,end-date,entry-date,hazardous-substances,hectares,latitude,longitude,maximum-net-dwellings,minimum-net-dwellings,notes,organisation,ownership-status,planning-permission-date,planning-permission-history,planning-permission-status,planning-permission-type,site,OrganisationURI,OrganisationLabel,SiteReference,SiteNameAddress,GeoX,GeoY,SiteplanURL,Hectares,OwnershipStatus,HazardousSubstances,PlanningStatus,PermissionType,PermissionDate,PlanningHistory,MinNetDwellings,NetDwellingsRangeFrom,NetDwellingsRangeTo,Deliverable,Notes,FirstAddedDate,LastUpdatedDate,EndDate,site-plan-url,start-date
,,,,,,,,,,,,,,,,,,,http://opendatacommunities.org/id/metropolitan-district-council/bradford,City of Bradford Metropolitan District Council,AD/022,"Church Street/Main Street, Addingham",408400.7829,449470.9614,,0.24,owned by a public authority,,not permissioned,,,,7,,10,,The site is likely to be brought to the market in the near future,01/11/2017,01/11/2017,,,
,,,,,,,,,,,,,,,,,,,http://opendatacommunities.org/id/metropolitan-district-council/bradford,City of Bradford Metropolitan District Council,BA/026,"Baildon Golf Clubhouse, Moorgate, Baildon",415224.4858,440020.2239,,0.17,not owned by a public authority,,permissioned,,,,5,,0,,,01/11/2017,01/11/2017,,,
,,,,,,,,,,,,,,,,,,,http://opendatacommunities.org/id/metropolitan-district-council/bradford,City of Bradford Metropolitan District Council,BA/029,"The Little Blue Orange, Otley Road, Baildon",416766.4963,439577.157,,0.23,unknown ownership,,permissioned,,,,14,,0,,An application for full demolition and new development of 10 units is pending,01/11/2017,01/11/2017,,,
,,,,,,,,,,,,,,,,,,,http://opendatacommunities.org/id/metropolitan-district-council/bradford,City of Bradford Metropolitan District Council,BA/030,"Baildon Mills, Northgate, Baildon",415404.3644,439799.7295,,0.65,not owned by a public authority,,permissioned,,,,56,,0,,,01/11/2017,01/11/2017,,,
,,,,,,,,,,,,,,,,,,,http://opendatacommunities.org/id/metropolitan-district-council/bradford,City of Bradford Metropolitan District Council,BI/001,"Victoria Street, Bingley",411005.6668,438856.2093,,0.87,mixed ownership,,not permissioned,,,,40,,78,,All buildings now appear empty and the former magistrates court is for sale under Grimley GVA. The site is suitable for residential and/or mixed uses,01/11/2017,01/11/2017,,,
,,,,,,,,,,,,,,,,,,,http://opendatacommunities.org/id/metropolitan-district-council/bradford,City of Bradford Metropolitan District Council,BI/003,"Whitley Street, Bingley",410895.8299,439236.0467,,0.71,unknown ownership,,not permissioned,,,,33,,64,,Site with expired permission for redevelopment and conversion. The owners intentions are not currently known and some of the buildings are in use for small business. The site is suitable for residential/mixed use as part of a redevelopment of the area,01/11/2017,01/11/2017,,,
,,,,,,,,,,,,,,,,,,,http://opendatacommunities.org/id/metropolitan-district-council/bradford,City of Bradford Metropolitan District Council,BI/006,"Keighley Road, Crossflatts",409970.6932,440812.2346,,0.74,not owned by a public authority,,pending decision,,,,20,,27,,"An application is pending for 13 units on part of the site. The site constraints mean it is developable for residential use, but limited by trees and flood risk.",01/11/2017,01/11/2017,,,
,,,,,,,,,,,,,,,,,,,http://opendatacommunities.org/id/metropolitan-district-council/bradford,City of Bradford Metropolitan District Council,BI/021,"Gilstead Water works. Warren Lane, Eldwick",411911.3086,439391.9313,,4.49,not owned by a public authority,,not permissioned,,,,138,,169,,Site currently in use as water works. The owner has indicated that the site will be available when the site is no longer required.,01/11/2017,01/11/2017,,,
,,,,,,,,,,,,,,,,,,,http://opendatacommunities.org/id/metropolitan-district-council/bradford,City of Bradford Metropolitan District Council,BI/038,"Marley Court, Crossflatts",409903.4335,441135.6994,,0.3,owned by a public authority,,not permissioned,,,,12,,15,,Cleared site with expired permission. The owners intentions current intentions are not known,01/11/2017,01/11/2017,,,
,,,,,,,,,,,,,,,,,,,http://opendatacommunities.org/id/metropolitan-district-council/bradford,City of Bradford Metropolitan District Council,BI/040,"Whitley Street, Bingley",410945.7178,439303.8334,,0.5,unknown ownership,,not permissioned,,,,23,,45,,Buildings with residential potential which could be redeveloped for residential development. The buildings lie in a mixed area where residential conversion and new build has already taken place but are partly in current use for business.,01/11/2017,01/11/2017,,,
,,,,,,,,,,,,,,,,,,,http://opendatacommunities.org/id/metropolitan-district-council/bradford,City of Bradford Metropolitan District Council,BU/011,"Greenholme Mills, Great Pasture Lane, Burley in Wharfedale",416786.9648,446811.1572,,2.89,not owned by a public authority,,permissioned,,,,89,,0,,,01/11/2017,01/11/2017,,,
,,,,,,,,,,,,,,,,,,,http://opendatacommunities.org/id/metropolitan-district-council/bradford,City of Bradford Metropolitan District Council,BU/016,"Burley House, Main Street, Burley in Wharfedale",417039.3812,446103.0844,,0.83,not owned by a public authority,,permissioned,,,,13,,0,,Details submitted and approved in February 2017,01/11/2017,01/11/2017,,,
,,,,,,,,,,,,,,,,,,,http://opendatacommunities.org/id/metropolitan-district-council/bradford,City of Bradford Metropolitan District Council,CC/001,"Fulton Street/Tetley Street/ Sunbridge Road, City Centre",415979.8574,433070.0581,,0.51,not owned by a public authority,,not permissioned,,,,100,,100,,Planning permission has now expired. The site is identified in the City Centre AAP (ref V1.7) as a site suitable for residential development with a minumum 100 homes,01/11/2017,01/11/2017,,,
,,,,,,,,,,,,,,,,,,,http://opendatacommunities.org/id/metropolitan-district-council/bradford,City of Bradford Metropolitan District Council,CC/003,"Hamm Strasse/ Grammar School Street, City Centre",416161.887,433573.9383,,0.51,not owned by a public authority,,pending decision,,,,100,,100,,The City Centre AAP  (ref M/1.1)  as a site suiatble for residential development with a minimum capacity of 100 units. An application is pending for a 182 unit apartment block,01/11/2017,01/11/2017,,,
,,,,,,,,,,,,,,,,,,,http://opendatacommunities.org/id/metropolitan-district-council/bradford,City of Bradford Metropolitan District Council,CC/007,"Beehive Mills, Thornton Road, City Centre",415678.9104,433079.6665,,1.05,mixed ownership,,not permissioned,,,,220,,220,,Cleared site which had permission for mixed use development but this has expired. Owner intentions at present are unknown but the site is identified in the city centre AAP as having potential for around 220 units. AAP ref V/1.6,01/11/2017,01/11/2017,,,
,,,,,,,,,,,,,,,,,,,http://opendatacommunities.org/id/metropolitan-district-council/bradford,City of Bradford Metropolitan District Council,CC/014,"Pipers House 28 Manor Row, City Centre",416242.6729,433475.8649,,0.03,not owned by a public authority,,permissioned,,,,7,,0,,,01/11/2017,01/11/2017,,,
,,,,,,,,,,,,,,,,,,,http://opendatacommunities.org/id/metropolitan-district-council/bradford,City of Bradford Metropolitan District Council,CC/018,"Stott Hill West/Bolton Road Junction, City Centre",416681.0394,433367.7715,,0.3,unknown ownership,,not permissioned,,,,30,,75,,The site is identified for residential development in the City centre AAP alongside CC/096 for 100 units. CC/096 has outline permission for 77. This site can accommodate at least 30,01/11/2017,01/11/2017,,,
,,,,,,,,,,,,,,,,,,,http://opendatacommunities.org/id/metropolitan-district-council/bradford,City of Bradford Metropolitan District Council,CC/020,"Sun Street, City Centre",416798.3998,433567.0387,,1.11,owned by a public authority,,not permissioned,,,,200,,200,,"Linear, sloping grassy bank with some trees alongside the A650. The site is identified in the City Centre AAP (ref CH/1.4) as a site suitable for residential development with a capacity of 200 units",01/11/2017,01/11/2017,,,
,,,,,,,,,,,,,,,,,,,http://opendatacommunities.org/id/metropolitan-district-council/bradford,City of Bradford Metropolitan District Council,CC/022,"Midland Mills, Cape Street, City Centre",416472.2794,433809.1457,,0.95,not owned by a public authority,,not permissioned,,,,200,,200,,Land and buildings with expired permissions and identified in the city centre AAP ref CH/1.13 as a site suitable for residential redevelopment with a minimum 200 unit target. There has been some recent interest in the site,01/11/2017,01/11/2017,,,
,,,,,,,,,,,,,,,,,,,http://opendatacommunities.org/id/metropolitan-district-council/bradford,City of Bradford Metropolitan District Council,CC/023,"Conditioning House, Old Canal Road, City Centre",416458.9672,433916.2162,,0.52,not owned by a public authority,,pending decision,,,,100,,100,,Listed building which a developer has acquired with a pending application submitted in August 2017 for conversion to apartments. The site is identified in the city centre AAP ref CH/1.12 as a site for residential use with a minimum target of 100 units.,01/11/2017,01/11/2017,,,
,,,,,,,,,,,,,,,,,,,http://opendatacommunities.org/id/metropolitan-district-council/bradford,City of Bradford Metropolitan District Council,CC/024,"Thornton Road Car Park/ Water Lane, City Centre",415537.6331,433222.2629,,1.66,mixed ownership,,not permissioned,,,,400,,400,,Unsurfaced level car park and adjacent car wash. The site is a former gas work site  but is identified as suitable for residential/mixed use in the city centre AAP (ref V/1.2) with a minimum 400 units,01/11/2017,01/11/2017,,,
,,,,,,,,,,,,,,,,,,,http://opendatacommunities.org/id/metropolitan-district-council/bradford,City of Bradford Metropolitan District Council,CC/025,"179 Sunbridge Road, City Centre",415682.8976,433263.2001,,0.27,not owned by a public authority,,not permissioned,,,,27,,67,,Permission has expired despite details being approved in November 2016. There are no records to suggest that development has started prior to the expiry of the permission,01/11/2017,01/11/2017,,,
,,,,,,,,,,,,,,,,,,,http://opendatacommunities.org/id/metropolitan-district-council/bradford,City of Bradford Metropolitan District Council,CC/026,"122 Sunbridge Road, City Centre",415987.2945,433178.8665,,0.27,unknown ownership,,not permissioned,,,,75,,75,,Cleared vacant site and pub on the corner.  Owner intentions are not presently known but the site is identified in the City Centre AAP (ref M/1.5) as having potential for around 75 units,01/11/2017,01/11/2017,,,
,,,,,,,,,,,,,,,,,,,http://opendatacommunities.org/id/metropolitan-district-council/bradford,City of Bradford Metropolitan District Council,CC/037,"Goitside Urban Village, off Grattan Road, City Centre",415783.2666,433370.8245,,0.62,owned by a public authority,,not permissioned,,,,400,,400,,"The site is in mixed ownership but is identified as being suitable for residential development in the city centre AAP (ref V/1.1) min 400 units. Many parts of the site could come forward for residential, but may involve land assembly in the short term.",01/11/2017,01/11/2017,,,
,,,,,,,,,,,,,,,,,,,http://opendatacommunities.org/id/metropolitan-district-council/bradford,City of Bradford Metropolitan District Council,CC/038,"Market Urban Village, Rawson Road, City Centre",416013.2549,433483.3291,,0.55,owned by a public authority,,not permissioned,,,,200,,200,,Underused Land and buildings including market hall and car parks. The City Centre AAP identified this area as one suitable for mixed use with potential for around 200 new homes (ref M/1.1),01/11/2017,01/11/2017,,,
,,,,,,,,,,,,,,,,,,,http://opendatacommunities.org/id/metropolitan-district-council/bradford,City of Bradford Metropolitan District Council,CC/039,"Former Yorkshire Water Depot, Leeds Road, City Centre",416860.1558,432955.122,,1.19,unknown ownership,,not permissioned,,,,400,,400,,Cleared site currently in use as temporary car park. Outline planning permission was approved in  2010 for mixed use to include 400 flats but this has now expired. The land has recently sold but the site is identified in the city centre AAP as a site for mixed use,01/11/2017,01/11/2017,,,
,,,,,,,,,,,,,,,,,,,http://opendatacommunities.org/id/metropolitan-district-council/bradford,City of Bradford Metropolitan District Council,CC/042,"Thornton Road north, City Centre",415606.0562,433263.2965,,0.4,mixed ownership,,not permissioned,,,,100,,100,,Land partially in use for storage and car wash. The land is identifed in the City centre AAP with residential potential of around 100 units.It is understood that one of the landowners intends to seek planning permission in the near future. AAP ref V/1.10,01/11/2017,01/11/2017,,,
,,,,,,,,,,,,,,,,,,,http://opendatacommunities.org/id/metropolitan-district-council/bradford,City of Bradford Metropolitan District Council,CC/045,"North Brook Stree/Leeming Street, City Centre",416539.8446,433646.5694,,3.16,mixed ownership,,not permissioned,,,,600,,600,,The site is identified in the city centre AAP for residential use with a mimimum unit threshold of 600 units (ref CH/1.1),01/11/2017,01/11/2017,,,
,,,,,,,,,,,,,,,,,,,http://opendatacommunities.org/id/metropolitan-district-council/bradford,City of Bradford Metropolitan District Council,CC/047,"Westgate/Grattan Road, City Centre",415998.1234,433263.5367,,0.12,unknown ownership,,not permissioned,,,,80,,80,,"Former office building, now vacant. The site has had planning permission previously but this has now expired. The site appears in the City Centre AAP (ref M/1.4) as having potential for around 80 units",01/11/2017,01/11/2017,,,
,,,,,,,,,,,,,,,,,,,http://opendatacommunities.org/id/metropolitan-district-council/bradford,City of Bradford Metropolitan District Council,CC/048,"148-151 Sunbridge Road, City Centre",415843.4059,433132.4471,,0.24,not owned by a public authority,,permissioned,,,,74,,0,,,01/11/2017,01/11/2017,,,
,,,,,,,,,,,,,,,,,,,http://opendatacommunities.org/id/metropolitan-district-council/bradford,City of Bradford Metropolitan District Council,CC/050,"31-35 Piccadilly, City Centre",416240.0645,433366.0028,,0.07,unknown ownership,,not permissioned,,,,7,,18,,Permission for 68 units has expired and a renewal was withdrawn with no further applications since. The site remains suitable for residential development.,01/11/2017,01/11/2017,,,
,,,,,,,,,,,,,,,,,,,http://opendatacommunities.org/id/metropolitan-district-council/bradford,City of Bradford Metropolitan District Council,CC/069,"Clifford Street Car Park, City Centre",416411.062,432518.5554,,0.35,owned by a public authority,,not permissioned,,,,225,,225,,Site is identified in the city centre AAP  (ref SG/1.2) as having residential potential for around 225 units as part of a mixed use scheme.,01/11/2017,01/11/2017,,,
,,,,,,,,,,,,,,,,,,,http://opendatacommunities.org/id/metropolitan-district-council/bradford,City of Bradford Metropolitan District Council,CC/073,"Yorkshire Stone Yard and Mill, Thornton Road/Lower Grattan Road, City Centre",415753.2296,433138.7268,,0.3,not owned by a public authority,,permissioned,,,,88,,0,,The site is likely to have further potential,01/11/2017,01/11/2017,,,
,,,,,,,,,,,,,,,,,,,http://opendatacommunities.org/id/metropolitan-district-council/bradford,City of Bradford Metropolitan District Council,CC/074,"Sunwin House, Godwin Street/Sunbridge Road, City Centre",416111.4698,433049.2179,,0.39,not owned by a public authority,,not permissioned,,,,50,,50,,Vacant former department store and service yard identified in the city centre AAP for mixed use (ref V/1.9) with further residential potential of 50 units. Part of the building has permission and is being converted to offices for neighbouring business. The remainder has residential potential,01/11/2017,01/11/2017,,,
,,,,,,,,,,,,,,,,,,,http://opendatacommunities.org/id/metropolitan-district-council/bradford,City of Bradford Metropolitan District Council,CC/076,"Burnett Street Car Park, City Centre",416929.3582,433320.1672,,0.31,owned by a public authority,,not permissioned,,,,50,,50,,Surface Car Park. The site is identified in the City Centre AAP (ref CH/1.5) as a site with residential potential of around 50 units,01/11/2017,01/11/2017,,,
,,,,,,,,,,,,,,,,,,,http://opendatacommunities.org/id/metropolitan-district-council/bradford,City of Bradford Metropolitan District Council,CC/078,"East Parade Car Park, City Centre",416880.7667,433068.5236,,0.14,not owned by a public authority,,not permissioned,,,,40,,40,,Surface Car Park identified in the city centre AAP (ref CH/1.7) as having residential potential for around 40 units. The site has had recent interest.,01/11/2017,01/11/2017,,,
,,,,,,,,,,,,,,,,,,,http://opendatacommunities.org/id/metropolitan-district-council/bradford,City of Bradford Metropolitan District Council,CC/081,"Wilton Car park and buildings, City Centre",416016.9801,432708.8692,,0.42,unknown ownership,,not permissioned,,,,50,,50,,"The site is identified in the City Centre AAP as a site with residential potential, possibly through conversion where around 50 units are expected",01/11/2017,01/11/2017,,,
,,,,,,,,,,,,,,,,,,,http://opendatacommunities.org/id/metropolitan-district-council/bradford,City of Bradford Metropolitan District Council,CC/085,"112 Thornton Road, City Centre",415840.4106,433075.8056,,0.02,not owned by a public authority,,permissioned,,,,13,,0,,,01/11/2017,01/11/2017,,,
,,,,,,,,,,,,,,,,,,,http://opendatacommunities.org/id/metropolitan-district-council/bradford,City of Bradford Metropolitan District Council,CC/086,"43 Darley Street, City Centre",416229.8289,433308.8715,,0.03,not owned by a public authority,,permissioned,,,,9,,0,,,01/11/2017,01/11/2017,,,
,,,,,,,,,,,,,,,,,,,http://opendatacommunities.org/id/metropolitan-district-council/bradford,City of Bradford Metropolitan District Council,CC/089,"Arndale House, Charles Street, city centre",416457.203,433108.6766,,0.21,not owned by a public authority,,permissioned,,,,126,,0,,,01/11/2017,01/11/2017,,,
,,,,,,,,,,,,,,,,,,,http://opendatacommunities.org/id/metropolitan-district-council/bradford,City of Bradford Metropolitan District Council,CC/090,"Law Russell House, 63 Vicar Lane",416758.6186,433129.5677,,0.08,not owned by a public authority,,permissioned,,,,70,,0,,,01/11/2017,01/11/2017,,,
,,,,,,,,,,,,,,,,,,,http://opendatacommunities.org/id/metropolitan-district-council/bradford,City of Bradford Metropolitan District Council,CC/092,"126-128 Thornton Road, City Centre",415806.8249,433100.4398,,0.04,not owned by a public authority,,permissioned,,,,16,,0,,,01/11/2017,01/11/2017,,,
,,,,,,,,,,,,,,,,,,,http://opendatacommunities.org/id/metropolitan-district-council/bradford,City of Bradford Metropolitan District Council,CC/093,"153 Sunbridge Road, City Centre",415817.8288,433168.9888,,0.04,not owned by a public authority,,permissioned,,,,40,,0,,,01/11/2017,01/11/2017,,,
,,,,,,,,,,,,,,,,,,,http://opendatacommunities.org/id/metropolitan-district-council/bradford,City of Bradford Metropolitan District Council,CC/095,"Land west of Wharf Street, City Centre",416659.3731,433652.3951,,0.49,unknown ownership,,not permissioned,,,,100,,100,,Site identified by canal road AAP ref CH/1.8,01/11/2017,01/11/2017,,,
,,,,,,,,,,,,,,,,,,,http://opendatacommunities.org/id/metropolitan-district-council/bradford,City of Bradford Metropolitan District Council,CC/096,"Cathedral Quarter, City Centre",416728.9723,433453.0875,,0.7,unknown ownership,,permissioned,,,,77,,0,,Site identified by City centre AAP (ref CH/1.3) with capacity of at least 100 units,01/11/2017,01/11/2017,,,
,,,,,,,,,,,,,,,,,,,http://opendatacommunities.org/id/metropolitan-district-council/bradford,City of Bradford Metropolitan District Council,CC/097,"Church Bank/Peckover Street, City Centre",416772.4687,433248.8996,,0.08,unknown ownership,,not permissioned,,,,20,,20,,Land identified by city centre AAP (CH/1.10) for at least 20 units,01/11/2017,01/11/2017,,,
,,,,,,,,,,,,,,,,,,,http://opendatacommunities.org/id/metropolitan-district-council/bradford,City of Bradford Metropolitan District Council,CC/098,"Church Bank/Vicar Lane, City Centre",416700.849,433182.4074,,0.29,not owned by a public authority,,pending decision,,,,20,,20,,Site identified by city centre AAP (ref CH/1.9) for at least 20 units with listed building consent order pending for conversion to 110 units,01/11/2017,01/11/2017,,,
,,,,,,,,,,,,,,,,,,,http://opendatacommunities.org/id/metropolitan-district-council/bradford,City of Bradford Metropolitan District Council,CC/099,"Gatehaus 2, City Centre",416907.8528,433046.3236,,0.14,unknown ownership,,not permissioned,,,,20,,20,,Land identified by city centre AAP (ref CH/1.11) for at least 20 units,01/11/2017,01/11/2017,,,
,,,,,,,,,,,,,,,,,,,http://opendatacommunities.org/id/metropolitan-district-council/bradford,City of Bradford Metropolitan District Council,CC/100,"Stone Street Car Park, City Centre",416277.4739,433477.2046,,0.1,unknown ownership,,not permissioned,,,,100,,100,,The site is identified in the city centre AAP (ref M/1.3) for  100 units,01/11/2017,01/11/2017,,,
,,,,,,,,,,,,,,,,,,,http://opendatacommunities.org/id/metropolitan-district-council/bradford,City of Bradford Metropolitan District Council,CC/101,"Well Street, City Centre",416741.2638,433087.3149,,0.09,not owned by a public authority,,permissioned,,,,59,,0,,,01/11/2017,01/11/2017,,,
,,,,,,,,,,,,,,,,,,,http://opendatacommunities.org/id/metropolitan-district-council/bradford,City of Bradford Metropolitan District Council,CR/012,"Livingstone Road, Bolton Woods",415874.7852,435909.3585,,1.4,owned by a public authority,,permissioned,,,,59,,0,,details pending consideration,01/11/2017,01/11/2017,,,
,,,,,,,,,,,,,,,,,,,http://opendatacommunities.org/id/metropolitan-district-council/bradford,City of Bradford Metropolitan District Council,CR/014,"Bolton Woods Quarry, Bolton Woods",416329.2612,436083.1211,,29.79,mixed ownership,,pending decision,,,,1000,,1000,,Site identified in the Shipley and Canal Road corridor AAP (ref NBWQ1) as suitable for residential development of 1000 homes.  An outline application is pending for700 units,01/11/2017,01/11/2017,,,
,,,,,,,,,,,,,,,,,,,http://opendatacommunities.org/id/metropolitan-district-council/bradford,City of Bradford Metropolitan District Council,CR/020,"Dockfield Road northside, Shipley",415143.4282,437917.4681,,0.54,unknown ownership,,not permissioned,,,,45,,45,,Site has expired permission and is now identified in the Shipley and Canal Road corridor AAP (ref DF4) with neigbouring DF5 as a site suittble for at least 90 units. The owners current intentions are not known.,01/11/2017,01/11/2017,,,
,,,,,,,,,,,,,,,,,,,http://opendatacommunities.org/id/metropolitan-district-council/bradford,City of Bradford Metropolitan District Council,CR/025,"Dockfield Road, Shipley",415256.2111,437837.5926,,0.69,not owned by a public authority,,not permissioned,,,,32,,61,,Building in manufacturing use with expired planning permission. The site is suitable for residential use but also for retention for employment use. The Shipley and canal road AAP (ref DF6) identifed this building for residential redevelopment based on it having former permission.,01/11/2017,01/11/2017,,,
,,,,,,,,,,,,,,,,,,,http://opendatacommunities.org/id/metropolitan-district-council/bradford,City of Bradford Metropolitan District Council,CR/030,"Atkinson Street, Shipley",414759.8193,437607.8515,,0.02,not owned by a public authority,,permissioned,,,,6,,0,,,01/11/2017,01/11/2017,,,
,,,,,,,,,,,,,,,,,,,http://opendatacommunities.org/id/metropolitan-district-council/bradford,City of Bradford Metropolitan District Council,CR/031,"Briggate, Shipley",414941.0352,437673.9215,,0.13,unknown ownership,,not permissioned,,,,20,,20,,Cleared site. The owners present intentions are unknown. The site is identified in the Shipley and canal road AAP  with a target yield of 20 units,01/11/2017,01/11/2017,,,
,,,,,,,,,,,,,,,,,,,http://opendatacommunities.org/id/metropolitan-district-council/bradford,City of Bradford Metropolitan District Council,CR/033,North Avenue. Manningham,415846.9754,434794.1742,,0.8,unknown ownership,,not permissioned,,,,30,,30,,The landowner states the site will be available for residential but is currently in use. The site is identified in the canal road AAP as ref NBW6 with a target yield of 30 units,01/11/2017,01/11/2017,,,
,,,,,,,,,,,,,,,,,,,http://opendatacommunities.org/id/metropolitan-district-council/bradford,City of Bradford Metropolitan District Council,CR/034,"Frizinghall Road, Frizinghall",415280.7986,435962.3184,,0.76,not owned by a public authority,,permissioned,,,,42,,0,,,01/11/2017,01/11/2017,,,
,,,,,,,,,,,,,,,,,,,http://opendatacommunities.org/id/metropolitan-district-council/bradford,City of Bradford Metropolitan District Council,CR/035,"Dock Lane/Canal side, Shipley",415562.2629,437990.8308,,2.06,not owned by a public authority,,permissioned,,,,114,,0,,An application is pending for 81 units. The site is identified in the Shipley and canal road corridor AAP as site DF1.,01/11/2017,01/11/2017,,,
,,,,,,,,,,,,,,,,,,,http://opendatacommunities.org/id/metropolitan-district-council/bradford,City of Bradford Metropolitan District Council,CR/036,"Victor Mills, Bolton hall Road, Bolton Woods",415921.757,436188.1541,,0.83,unknown ownership,,not permissioned,,,,35,,35,,Site with expired planning permission. The site is identified in the Shipley and canal road corridor AAP as a site for residential use and a target yield of 35 units (ref NBW4),01/11/2017,01/11/2017,,,
,,,,,,,,,,,,,,,,,,,http://opendatacommunities.org/id/metropolitan-district-council/bradford,City of Bradford Metropolitan District Council,CR/038,"Valley Road, Shipley",415113.0734,436574.5458,,0.76,owned by a public authority,,pending decision,,,,30,,30,,Cleared site.  An application is currently pending for 38 units.  The site is identified in the AAP under ref NBW5 for 30 units min,01/11/2017,01/11/2017,,,
,,,,,,,,,,,,,,,,,,,http://opendatacommunities.org/id/metropolitan-district-council/bradford,City of Bradford Metropolitan District Council,CR/039,"Buildings in Market Square, Shipley",414748.9781,437476.3563,,1.15,mixed ownership,,not permissioned,,,,25,,25,,Capacity exists to accommodate residential units in vacant floorspace above shops. The area is identified in the Shipley and canal road corridor  AAP as suitable for around 25 units.,01/11/2017,01/11/2017,,,
,,,,,,,,,,,,,,,,,,,http://opendatacommunities.org/id/metropolitan-district-council/bradford,City of Bradford Metropolitan District Council,CR/040,"Market Street and Otley Road, Shipley",414816.9506,437374.314,,0.49,owned by a public authority,,not permissioned,,,,50,,50,,Site identified in the Shipley and Canal road corridor AAP as a site for redevelopment which could include residential development at a target of 50 units (ref STC4). Owner intentions not currently known,01/11/2017,01/11/2017,,,
,,,,,,,,,,,,,,,,,,,http://opendatacommunities.org/id/metropolitan-district-council/bradford,City of Bradford Metropolitan District Council,CR/041,"Dock Lane, Shipley",415404.7123,437981.1278,,0.15,not owned by a public authority,,not permissioned,,,,15,,15,,The site is identified in the canal road AAP for15 units ref DF8,01/11/2017,01/11/2017,,,
,,,,,,,,,,,,,,,,,,,http://opendatacommunities.org/id/metropolitan-district-council/bradford,City of Bradford Metropolitan District Council,CR/046,"1-7 Leeds Road/Dock Lane, Shipley",415279.8696,437592.7766,,0.14,not owned by a public authority,,permissioned,,,,31,,0,,,01/11/2017,01/11/2017,,,
,,,,,,,,,,,,,,,,,,,http://opendatacommunities.org/id/metropolitan-district-council/bradford,City of Bradford Metropolitan District Council,CR/047,Land between Leeds Road and Dock Lane,415247.1917,437629.7361,,0.71,unknown ownership,,not permissioned,,,,60,,60,,Site identified in the Shipley and canal road AAP (ref DF3) as  suitable for residential led mixed use. The number of units targeted as 60. An outline application for 60 units was withdrawn in October 2016. There is an expectation that a new application will be submitted soon,01/11/2017,01/11/2017,,,
,,,,,,,,,,,,,,,,,,,http://opendatacommunities.org/id/metropolitan-district-council/bradford,City of Bradford Metropolitan District Council,CR/048,"Station Road, Shipley",414935.7625,437435.1899,,0.3,unknown ownership,,not permissioned,,,,50,,50,,Land identifed by the canal road AAP as a residential site for around 50 units. An application for residential development was withdrawn in  2015 but the expectation is that a resubmission will be made,01/11/2017,01/11/2017,,,
,,,,,,,,,,,,,,,,,,,http://opendatacommunities.org/id/metropolitan-district-council/bradford,City of Bradford Metropolitan District Council,CU/001,"Halifax Road, Cullingworth",406508.8697,436491.239,,1.86,not owned by a public authority,,permissioned,,,,53,,0,,,01/11/2017,01/11/2017,,,
,,,,,,,,,,,,,,,,,,,http://opendatacommunities.org/id/metropolitan-district-council/bradford,City of Bradford Metropolitan District Council,CU/004,"Cullingworth Mill, Cullingworth",406828.659,436684.4071,,1.17,not owned by a public authority,,not permissioned,,,,43,,52,,Imposing mill buildings  which could be converted together with new build  to the rear. The landowners are working toward bringing the site forward,01/11/2017,01/11/2017,,,
,,,,,,,,,,,,,,,,,,,http://opendatacommunities.org/id/metropolitan-district-council/bradford,City of Bradford Metropolitan District Council,DH/016,"Station Road, Denholme",407445.6164,433792.9708,,4.38,not owned by a public authority,,permissioned,,,,80,,0,,,01/11/2017,01/11/2017,,,
,,,,,,,,,,,,,,,,,,,http://opendatacommunities.org/id/metropolitan-district-council/bradford,City of Bradford Metropolitan District Council,HA/005,"Ebor Mills, Ebor Lane, Haworth",403679.47,437627.5349,,1.18,not owned by a public authority,,not permissioned,,,,43,,53,,Mill buildings in partial use. There has been recent interest in bringing this site forward for residential conversion.,01/11/2017,01/11/2017,,,
,,,,,,,,,,,,,,,,,,,http://opendatacommunities.org/id/metropolitan-district-council/bradford,City of Bradford Metropolitan District Council,HA/009,"Bridgehouse Mill, Haworth",403549.4488,436677.2208,,4.29,not owned by a public authority,,permissioned,,,,122,,0,,,01/11/2017,01/11/2017,,,
,,,,,,,,,,,,,,,,,,,http://opendatacommunities.org/id/metropolitan-district-council/bradford,City of Bradford Metropolitan District Council,HA/010,"Ivy Bank Lane, Haworth",403407.171,436780.9111,,1.16,not owned by a public authority,,not permissioned,,,,43,,52,,Cleared land with expired permission for residential development. There has been recent interest and a new application is expected shortly,01/11/2017,01/11/2017,,,
,,,,,,,,,,,,,,,,,,,http://opendatacommunities.org/id/metropolitan-district-council/bradford,City of Bradford Metropolitan District Council,HA/017,"Chapel Works, Station Road, Haworth",403639.791,437387.2909,,0.07,not owned by a public authority,,not permissioned,,,,7,,18,,Building with historic conversion permission where details were approved in July 2015 but the permission itself has now expired. No records that development has begun,01/11/2017,01/11/2017,,,
,,,,,,,,,,,,,,,,,,,http://opendatacommunities.org/id/metropolitan-district-council/bradford,City of Bradford Metropolitan District Council,HA/033,"Warehouse, Clevedon Street, Haworth",403265.2713,436862.336,,0.11,not owned by a public authority,,permissioned,,,,7,,0,,,01/11/2017,01/11/2017,,,
,,,,,,,,,,,,,,,,,,,http://opendatacommunities.org/id/metropolitan-district-council/bradford,City of Bradford Metropolitan District Council,IL/004,"Bolling Road, Ilkley",412603.646,447582.6345,,0.77,not owned by a public authority,,permissioned,,,,9,,0,,Substitition of house types approved in March 2017,01/11/2017,01/11/2017,,,
,,,,,,,,,,,,,,,,,,,http://opendatacommunities.org/id/metropolitan-district-council/bradford,City of Bradford Metropolitan District Council,IL/006,"Railway Road. Mayfield Road, Ilkley",412205.6623,447660.7711,,1.08,not owned by a public authority,,permissioned,,,,100,,0,,Details and amended plans approved recently,01/11/2017,01/11/2017,,,
,,,,,,,,,,,,,,,,,,,http://opendatacommunities.org/id/metropolitan-district-council/bradford,City of Bradford Metropolitan District Council,IL/040,"Cowpasture Road, Ilkley",412299.0333,447149.1763,,0.15,not owned by a public authority,,permissioned,,,,9,,0,,details approved recently,01/11/2017,01/11/2017,,,
,,,,,,,,,,,,,,,,,,,http://opendatacommunities.org/id/metropolitan-district-council/bradford,City of Bradford Metropolitan District Council,IL/045,"Dove Corner, Hollingwood Gate, Ilkley",410551.0217,447336.5041,,0.24,not owned by a public authority,,permissioned,,,,5,,0,,,01/11/2017,01/11/2017,,,
,,,,,,,,,,,,,,,,,,,http://opendatacommunities.org/id/metropolitan-district-council/bradford,City of Bradford Metropolitan District Council,KY/008,"Shann Lane, Keighley",404785.0822,441849.3351,,0.83,not owned by a public authority,,permissioned,,,,30,,0,,details were approved in November 2014,01/11/2017,01/11/2017,,,
,,,,,,,,,,,,,,,,,,,http://opendatacommunities.org/id/metropolitan-district-council/bradford,City of Bradford Metropolitan District Council,KY/011,"Braithwaite Road, Keighley",404269.2995,441575.023,,1.06,owned by a public authority,,permissioned,,,,36,,0,,,01/11/2017,01/11/2017,,,
,,,,,,,,,,,,,,,,,,,http://opendatacommunities.org/id/metropolitan-district-council/bradford,City of Bradford Metropolitan District Council,KY/012,"Whinfield Drive, Keighley",404432.2007,441617.1873,,1.24,owned by a public authority,,not permissioned,,,,46,,56,,Cleared site but subject to permission could be developed at any time,01/11/2017,01/11/2017,,,
,,,,,,,,,,,,,,,,,,,http://opendatacommunities.org/id/metropolitan-district-council/bradford,City of Bradford Metropolitan District Council,KY/027,"West Lane, Keighley",405641.6562,441159.8454,,0.93,unknown ownership,,not permissioned,,,,34,,42,,Cleared site with expired permission. The site will require new permission but is available for immediate development,01/11/2017,01/11/2017,,,
,,,,,,,,,,,,,,,,,,,http://opendatacommunities.org/id/metropolitan-district-council/bradford,City of Bradford Metropolitan District Council,KY/032,"Bradford Road, Keighley",406676.1782,441418.8726,,1,unknown ownership,,not permissioned,,,,46,,89,,Vacant Office block and car Park which has been vacant for a number of years.  The site would be suitable for a number of uses including residential development subject to design. There has been recent interest in the site,01/11/2017,01/11/2017,,,
,,,,,,,,,,,,,,,,,,,http://opendatacommunities.org/id/metropolitan-district-council/bradford,City of Bradford Metropolitan District Council,KY/047,Carr Bank Riddlesden,409055.3643,442116.8148,,0.52,owned by a public authority,,not permissioned,,,,14,,19,,The owner intends bringing the site forward for new development in the near future,01/11/2017,01/11/2017,,,
,,,,,,,,,,,,,,,,,,,http://opendatacommunities.org/id/metropolitan-district-council/bradford,City of Bradford Metropolitan District Council,KY/049,Bradford Road Riddlesden,409563.0199,441163.4591,,0.41,unknown ownership,,not permissioned,,,,11,,15,,Former Church and grounds with expired permission for a care home. The site is available and could come forward for residential development subject to planning application. The site is for sale,01/11/2017,01/11/2017,,,
,,,,,,,,,,,,,,,,,,,http://opendatacommunities.org/id/metropolitan-district-council/bradford,City of Bradford Metropolitan District Council,KY/064,"The Walk, Keighley",406263.9945,440692.7289,,1.69,not owned by a public authority,,pending decision,,,,62,,76,,"Under used buildings and land, mainly used for employment purposes including haulage and storage. An outline application is currently pending consideration",01/11/2017,01/11/2017,,,
,,,,,,,,,,,,,,,,,,,http://opendatacommunities.org/id/metropolitan-district-council/bradford,City of Bradford Metropolitan District Council,KY/083,"Beck Street/Bridge Street, Keighley",405994.6468,440923.1854,,0.57,unknown ownership,,not permissioned,,,,26,,51,,Site with expired retail led permission which included some residential. The owners current intentions are not known but the site could come forward in the short term,01/11/2017,01/11/2017,,,
,,,,,,,,,,,,,,,,,,,http://opendatacommunities.org/id/metropolitan-district-council/bradford,City of Bradford Metropolitan District Council,KY/095,"Woodville Road, Spring Gardens Lane, Keighley",405747.3066,441964.2277,,0.77,unknown ownership,,not permissioned,,,,28,,34,,Residential nursing home with expired permission for change of use and extensions to provide 27 self contained retirement flats with shared facilities,01/11/2017,01/11/2017,,,
,,,,,,,,,,,,,,,,,,,http://opendatacommunities.org/id/metropolitan-district-council/bradford,City of Bradford Metropolitan District Council,KY/096,"Elmwood Terrace, Bracken Bank, Keighley",404826.0402,439605.6802,,0.11,not owned by a public authority,,permissioned,,,,6,,0,,,01/11/2017,01/11/2017,,,
,,,,,,,,,,,,,,,,,,,http://opendatacommunities.org/id/metropolitan-district-council/bradford,City of Bradford Metropolitan District Council,KY/099,"James Street East, Keighley",406386.0062,440551.3777,,0.22,unknown ownership,,not permissioned,,,,9,,11,,Part of the site had permission in 2007 . Owners intentions are presently unknown,01/11/2017,01/11/2017,,,
,,,,,,,,,,,,,,,,,,,http://opendatacommunities.org/id/metropolitan-district-council/bradford,City of Bradford Metropolitan District Council,KY/102,"St Pauls Rise, Keighley",406529.5863,440755.959,,0.25,unknown ownership,,not permissioned,,,,7,,10,,Permission has expired on the site. Owners intentions are not known but the site remains undeveloped,01/11/2017,01/11/2017,,,
,,,,,,,,,,,,,,,,,,,http://opendatacommunities.org/id/metropolitan-district-council/bradford,City of Bradford Metropolitan District Council,KY/103,"Wyngarth, Parkwood Rise, Keighley",406364.4308,440494.7882,,0.23,not owned by a public authority,,permissioned,,,,8,,0,,Reserved matters approval is pending,01/11/2017,01/11/2017,,,
,,,,,,,,,,,,,,,,,,,http://opendatacommunities.org/id/metropolitan-district-council/bradford,City of Bradford Metropolitan District Council,KY/104,"Oxford Sreet, Keighley",405455.8906,440767.479,,0.38,not owned by a public authority,,permissioned,,,,4,,15,,The site has further capacity and further  forecasted yield is applied,01/11/2017,01/11/2017,,,
,,,,,,,,,,,,,,,,,,,http://opendatacommunities.org/id/metropolitan-district-council/bradford,City of Bradford Metropolitan District Council,KY/119,"West Lane, Keighley",405551.6465,441158.2123,,0.42,unknown ownership,,not permissioned,,,,15,,19,,Owner intentions are unknown at present and the site could be used for alternative development,01/11/2017,01/11/2017,,,
,,,,,,,,,,,,,,,,,,,http://opendatacommunities.org/id/metropolitan-district-council/bradford,City of Bradford Metropolitan District Council,KY/125,Former Branshaw Special School - Nashville Street,405393.7786,440785.6479,,0.51,owned by a public authority,,not permissioned,,,,19,,23,,Site has development potential for re use as residential. The landowners are taking steps to bring this site forward,01/11/2017,01/11/2017,,,
,,,,,,,,,,,,,,,,,,,http://opendatacommunities.org/id/metropolitan-district-council/bradford,City of Bradford Metropolitan District Council,KY/127,"Canalside, Riddlesden",407812.6316,442335.7468,,0.2,not owned by a public authority,,permissioned,,,,15,,0,,"details approved in April 2017, adding further unit to previous approval",01/11/2017,01/11/2017,,,
,,,,,,,,,,,,,,,,,,,http://opendatacommunities.org/id/metropolitan-district-council/bradford,City of Bradford Metropolitan District Council,KY/138,Worthville Farm Keighley,406354.5033,440251.0429,,0.22,not owned by a public authority,,not permissioned,,,,9,,11,,"Site with permission for 8 semi detached homes and 4 flats now expire, the owners immediate intentions are not known",01/11/2017,01/11/2017,,,
,,,,,,,,,,,,,,,,,,,http://opendatacommunities.org/id/metropolitan-district-council/bradford,City of Bradford Metropolitan District Council,KY/139,"Scrap Yard Castle Mills
Becks Road, Keighley
Keighley",405110.3848,440895.9312,,1.35,not owned by a public authority,,permissioned,,,,66,,0,,,01/11/2017,01/11/2017,,,
,,,,,,,,,,,,,,,,,,,http://opendatacommunities.org/id/metropolitan-district-council/bradford,City of Bradford Metropolitan District Council,KY/153,East Parade Keighley,406415.2327,441225.5074,,0.02,not owned by a public authority,,permissioned,,,,5,,0,,,01/11/2017,01/11/2017,,,
,,,,,,,,,,,,,,,,,,,http://opendatacommunities.org/id/metropolitan-district-council/bradford,City of Bradford Metropolitan District Council,KY/155,Victoria Hotel Cavendish Street Keighley,406421.4666,441242.2513,,0.04,not owned by a public authority,,permissioned,,,,9,,0,,,01/11/2017,01/11/2017,,,
,,,,,,,,,,,,,,,,,,,http://opendatacommunities.org/id/metropolitan-district-council/bradford,City of Bradford Metropolitan District Council,NE/009,"Romanby Shaw, Ravenscliffe",419021.8831,436850.4326,,1.55,owned by a public authority,,permissioned,,,,47,,0,,,01/11/2017,01/11/2017,,,
,,,,,,,,,,,,,,,,,,,http://opendatacommunities.org/id/metropolitan-district-council/bradford,City of Bradford Metropolitan District Council,NE/011,"Tunwell Street, Eccleshill",418421.4005,435818.0199,,0.47,not owned by a public authority,,permissioned,,,,21,,0,,,01/11/2017,01/11/2017,,,
,,,,,,,,,,,,,,,,,,,http://opendatacommunities.org/id/metropolitan-district-council/bradford,City of Bradford Metropolitan District Council,NE/013A,"Westfield Lane, Wrose",416902.3892,437110.5906,,0.97,unknown ownership,,not permissioned,,,,36,,44,,The site had planning permission for 47 units in 2013 which has now expired. The owner is understood to be looking at bringing the site forward,01/11/2017,01/11/2017,,,
,,,,,,,,,,,,,,,,,,,http://opendatacommunities.org/id/metropolitan-district-council/bradford,City of Bradford Metropolitan District Council,NE/014,"Fagley Croft, Fagley",418707.3116,434649.5242,,0.38,not owned by a public authority,,pending decision,,,,11,,15,,"Cleared site with expired approval for 28 flats. An application is currently pending for 8 detached homes. Forecasted ""low"" yield applied to the trajectory until current application gas been determined",01/11/2017,01/11/2017,,,
,,,,,,,,,,,,,,,,,,,http://opendatacommunities.org/id/metropolitan-district-council/bradford,City of Bradford Metropolitan District Council,NE/015A,"Harrogate Road, Greengates",419361.6078,437729.77,,0.25,not owned by a public authority,,pending decision,,,,13,,24,,An application is pending for the construction of a building containing 28 units,01/11/2017,01/11/2017,,,
,,,,,,,,,,,,,,,,,,,http://opendatacommunities.org/id/metropolitan-district-council/bradford,City of Bradford Metropolitan District Council,NE/020,"Intake Road, Undercliffe",418083.4003,434700.0837,,0.35,unknown ownership,,not permissioned,,,,10,,14,,Site with expired permission. Owners present intentions are unknown but the site is available,01/11/2017,01/11/2017,,,
,,,,,,,,,,,,,,,,,,,http://opendatacommunities.org/id/metropolitan-district-council/bradford,City of Bradford Metropolitan District Council,NE/030,"Wapping Road, Barkerend",416787.2187,433890.8278,,0.51,owned by a public authority,,not permissioned,,,,19,,23,,The site is currently of interest for mixed use redevelopment including residential.,01/11/2017,01/11/2017,,,
,,,,,,,,,,,,,,,,,,,http://opendatacommunities.org/id/metropolitan-district-council/bradford,City of Bradford Metropolitan District Council,NE/035,"Barkerend Mill, Barkerend Road, Barkerend",417397.7716,433356.8925,,1.1,mixed ownership,,not permissioned,,,,99,,247,,Substantial listed mill suitable for conversion. There has been some recent interest in the site,01/11/2017,01/11/2017,,,
,,,,,,,,,,,,,,,,,,,http://opendatacommunities.org/id/metropolitan-district-council/bradford,City of Bradford Metropolitan District Council,NE/036,"Harrogate Road/Union Mills, Undercliffe",418729.499,435632.7465,,2.16,owned by a public authority,,not permissioned,,,,49,,65,,Mill buildings suitable for conversion. An application for retail use is currently pending but the site could also be developed for other use including residential,01/11/2017,01/11/2017,,,
,,,,,,,,,,,,,,,,,,,http://opendatacommunities.org/id/metropolitan-district-council/bradford,City of Bradford Metropolitan District Council,NE/046,"Arthur Street, Idle",417921.9217,436895.6699,,0.97,not owned by a public authority,,not permissioned,,,,36,,43,,Detailed applications have so far been refused.,01/11/2017,01/11/2017,,,
,,,,,,,,,,,,,,,,,,,http://opendatacommunities.org/id/metropolitan-district-council/bradford,City of Bradford Metropolitan District Council,NE/090,"55 Joseph Street, Barkerend",417144.5548,433026.6667,,0.2,not owned by a public authority,,not permissioned,,,,10,,20,,A small site but which could accommodate a medim/high density scheme but also has development potential for employment uses. The owners intentions however are not presently known,01/11/2017,01/11/2017,,,
,,,,,,,,,,,,,,,,,,,http://opendatacommunities.org/id/metropolitan-district-council/bradford,City of Bradford Metropolitan District Council,NE/098,"Idle United Reformed Church, Westfield Lane, Idle",417538.6868,437899.3905,,0.16,not owned by a public authority,,not permissioned,,,,7,,8,,Building with expired permission for conversion. The building has the capacity to accommodate at least 7 but but the owners current intentions are not known,01/11/2017,01/11/2017,,,
,,,,,,,,,,,,,,,,,,,http://opendatacommunities.org/id/metropolitan-district-council/bradford,City of Bradford Metropolitan District Council,NE/102,"Croft Street, Idle",418070.7753,437663.8872,,0.27,not owned by a public authority,,not permissioned,,,,8,,14,,Site where permission for 9 houses and 7 flats has expired. The owners current intentions are not known but the site remains suitable for residential redevelopment,01/11/2017,01/11/2017,,,
,,,,,,,,,,,,,,,,,,,http://opendatacommunities.org/id/metropolitan-district-council/bradford,City of Bradford Metropolitan District Council,NE/111,"Folkestone Street, Bradford Moor",418046.0765,433322.1982,,0.07,not owned by a public authority,,permissioned,,,,8,,0,,,01/11/2017,01/11/2017,,,
,,,,,,,,,,,,,,,,,,,http://opendatacommunities.org/id/metropolitan-district-council/bradford,City of Bradford Metropolitan District Council,NE/113,"Steadman Street, Whitehead Street, Barkerend",417831.1759,432979.2003,,0.4,unknown ownership,,not permissioned,,,,15,,18,,The site is vacant and is not being used but it has had planning permission for residential previously but the owners intentions are not currently known,01/11/2017,01/11/2017,,,
,,,,,,,,,,,,,,,,,,,http://opendatacommunities.org/id/metropolitan-district-council/bradford,City of Bradford Metropolitan District Council,NE/123,"Rimswell Holt, Ravenscliffe",419251.8048,436552.2419,,0.22,unknown ownership,,not permissioned,,,,6,,9,,"Cleared site formerly RC church, opposite and adjacent residential identified from survey. The owners current intentions are not know but the site could accommodate at least 6 homes",01/11/2017,01/11/2017,,,
,,,,,,,,,,,,,,,,,,,http://opendatacommunities.org/id/metropolitan-district-council/bradford,City of Bradford Metropolitan District Council,NE/134,196 - 198 Barkerend Road - Bradford,417251.5272,433387.4044,,0.04,not owned by a public authority,,permissioned,,,,9,,0,,,01/11/2017,01/11/2017,,,
,,,,,,,,,,,,,,,,,,,http://opendatacommunities.org/id/metropolitan-district-council/bradford,City of Bradford Metropolitan District Council,NE/145,"Swires Road, Barkerend",417975.7313,434408.3205,,0.11,not owned by a public authority,,permissioned,,,,5,,0,,A certificate of lawfulness has been issued to protect the planning permission,01/11/2017,01/11/2017,,,
,,,,,,,,,,,,,,,,,,,http://opendatacommunities.org/id/metropolitan-district-council/bradford,City of Bradford Metropolitan District Council,NE/147,"Thackley Grange, Thackley",417647.1037,438363.5177,,0.54,not owned by a public authority,,pending decision,,,,15,,19,,Site where outline permission for 19 units expired in October 2017. A detailed application is currently pending,01/11/2017,01/11/2017,,,
,,,,,,,,,,,,,,,,,,,http://opendatacommunities.org/id/metropolitan-district-council/bradford,City of Bradford Metropolitan District Council,NE/153,114 Undercliffe Road,417735.8226,435463.7894,,0.19,not owned by a public authority,,permissioned,,,,7,,0,,A detailed application is currently pending,01/11/2017,01/11/2017,,,
,,,,,,,,,,,,,,,,,,,http://opendatacommunities.org/id/metropolitan-district-council/bradford,City of Bradford Metropolitan District Council,NE/161,"Former Fire Station, Highfield Road, Idle",417406.4976,436967.6929,,0.27,unknown ownership,,permissioned,,,,11,,0,,,01/11/2017,01/11/2017,,,
,,,,,,,,,,,,,,,,,,,http://opendatacommunities.org/id/metropolitan-district-council/bradford,City of Bradford Metropolitan District Council,NW/001,"Snowden Street/Trafalgar Street, Manningham",416114.7759,433694.0221,,0.49,not owned by a public authority,,permissioned,,,,229,,0,,,01/11/2017,01/11/2017,,,
,,,,,,,,,,,,,,,,,,,http://opendatacommunities.org/id/metropolitan-district-council/bradford,City of Bradford Metropolitan District Council,NW/002,"Drummond Trading Estate, Lumb Lane, Manningham",415592.3513,433862.4668,,3.03,not owned by a public authority,,not permissioned,,,,116,,225,,"The owner intends bringing this site forward following its clearance after a major fire. The site is suitable for residential development, employment and community use.",01/11/2017,01/11/2017,,,
,,,,,,,,,,,,,,,,,,,http://opendatacommunities.org/id/metropolitan-district-council/bradford,City of Bradford Metropolitan District Council,NW/003,"Bowland Street, Manningham",415775.5447,433967.198,,0.58,unknown ownership,,not permissioned,,,,21,,26,,Unused car park  suitable for development which could include residential subject to design,01/11/2017,01/11/2017,,,
,,,,,,,,,,,,,,,,,,,http://opendatacommunities.org/id/metropolitan-district-council/bradford,City of Bradford Metropolitan District Council,NW/010,"Mansfield Road, Mansfield",415347.1576,434718.0007,,0.21,not owned by a public authority,,not permissioned,,,,11,,20,,Derelict and tipped land with vacant building. Permission for conversion and new build to form 20 units has now expired. There have been no further applications,01/11/2017,01/11/2017,,,
,,,,,,,,,,,,,,,,,,,http://opendatacommunities.org/id/metropolitan-district-council/bradford,City of Bradford Metropolitan District Council,NW/012B,"St Marys Road, Manningham",415106.1885,434714.3979,,0.22,unknown ownership,,not permissioned,,,,9,,11,,There have been various applications for development but none successful. The site is considered to be is suitable for residential use and can accommodate at least 9 units,01/11/2017,01/11/2017,,,
,,,,,,,,,,,,,,,,,,,http://opendatacommunities.org/id/metropolitan-district-council/bradford,City of Bradford Metropolitan District Council,NW/013A,"Priestman Street, Manningham",415131.5235,434141.4162,,0.89,not owned by a public authority,,not permissioned,,,,41,,80,,"Large derelict mill and single storey industrial buildings only in partial use. Demolition notification submitted to clear the fire damaged buildings in 2017. The site could be redeveloped for residential redevelopment, although owner intentions are not presently known.",01/11/2017,01/11/2017,,,
,,,,,,,,,,,,,,,,,,,http://opendatacommunities.org/id/metropolitan-district-council/bradford,City of Bradford Metropolitan District Council,NW/013B,"Newport Road, Manningham",415165.3194,434091.4019,,0.09,not owned by a public authority,,permissioned,,,,9,,0,,,01/11/2017,01/11/2017,,,
,,,,,,,,,,,,,,,,,,,http://opendatacommunities.org/id/metropolitan-district-council/bradford,City of Bradford Metropolitan District Council,NW/036,"Whitburn Way, Allerton",411929.5025,433958.4147,,0.43,not owned by a public authority,,pending decision,,,,20,,38,,Social club and unsurfaced car park. An application for 23 units is pending,01/11/2017,01/11/2017,,,
,,,,,,,,,,,,,,,,,,,http://opendatacommunities.org/id/metropolitan-district-council/bradford,City of Bradford Metropolitan District Council,NW/038,"Allerton Lane, Allerton",411323.7904,433961.3925,,0.65,not owned by a public authority,,permissioned,,,,9,,0,,,01/11/2017,01/11/2017,,,
,,,,,,,,,,,,,,,,,,,http://opendatacommunities.org/id/metropolitan-district-council/bradford,City of Bradford Metropolitan District Council,NW/040,"Merrivale Road, Allerton",411310.4078,433666.286,,1.34,owned by a public authority,,not permissioned,,,,49,,60,,"Slightly sloping land, grassed over but formerly the site of the Merrivale Arms public house. The owner intends bringing the site forward for development",01/11/2017,01/11/2017,,,
,,,,,,,,,,,,,,,,,,,http://opendatacommunities.org/id/metropolitan-district-council/bradford,City of Bradford Metropolitan District Council,NW/045,"Reservoir House, Heights Lane, Daisy Hill",412927.7942,434988.3179,,0.87,owned by a public authority,,not permissioned,,,,32,,39,,The owners present intentions are unknown.,01/11/2017,01/11/2017,,,
,,,,,,,,,,,,,,,,,,,http://opendatacommunities.org/id/metropolitan-district-council/bradford,City of Bradford Metropolitan District Council,NW/058,"Land at buildings at Kenilworth House, Saffron Drive, Allerton",411898.1679,433817.5292,,0.79,owned by a public authority,,not permissioned,,,,21,,28,,Site has had permisison for partial demolition and residential new build which has expired. There is recent developer interest in the site,01/11/2017,01/11/2017,,,
,,,,,,,,,,,,,,,,,,,http://opendatacommunities.org/id/metropolitan-district-council/bradford,City of Bradford Metropolitan District Council,NW/060,"Bell Dean Road, Allerton",411692.9909,433722.5549,,0.25,not owned by a public authority,,permissioned,,,,9,,0,,,01/11/2017,01/11/2017,,,
,,,,,,,,,,,,,,,,,,,http://opendatacommunities.org/id/metropolitan-district-council/bradford,City of Bradford Metropolitan District Council,NW/066,"Alton Grove, Frizinghall",414766.1962,436481.9233,,0.26,not owned by a public authority,,permissioned,,,,4,,0,,,01/11/2017,01/11/2017,,,
,,,,,,,,,,,,,,,,,,,http://opendatacommunities.org/id/metropolitan-district-council/bradford,City of Bradford Metropolitan District Council,NW/067,"Saffron Drive, Allerton",411415.9888,434112.6468,,0.27,owned by a public authority,,permissioned,,,,6,,0,,,01/11/2017,01/11/2017,,,
,,,,,,,,,,,,,,,,,,,http://opendatacommunities.org/id/metropolitan-district-council/bradford,City of Bradford Metropolitan District Council,NW/073,"Church Street, Manningham",415245.784,434543.395,,0.23,unknown ownership,,not permissioned,,,,9,,12,,Cleared site. There are no recent planning applications but the site is suitable for residential development,01/11/2017,01/11/2017,,,
,,,,,,,,,,,,,,,,,,,http://opendatacommunities.org/id/metropolitan-district-council/bradford,City of Bradford Metropolitan District Council,NW/074,"Hill Top Lane, Allerton",411403.4911,434207.3448,,0.26,owned by a public authority,,pending decision,,,,8,,10,,Planning application pending for 5 units,01/11/2017,01/11/2017,,,
,,,,,,,,,,,,,,,,,,,http://opendatacommunities.org/id/metropolitan-district-council/bradford,City of Bradford Metropolitan District Council,NW/076,"Fairmount, North Park Road, Heaton",415145.5382,434944.896,,0.32,unknown ownership,,not permissioned,,,,13,,16,,The council and community are seeking to liaise with the owner to  bring this site forward for redevelopment.  The site is suitable for residential conversion,01/11/2017,01/11/2017,,,
,,,,,,,,,,,,,,,,,,,http://opendatacommunities.org/id/metropolitan-district-council/bradford,City of Bradford Metropolitan District Council,NW/088,"74 Frizinghall Road, Manningham",415171.6246,435883.0671,,0.17,not owned by a public authority,,permissioned,,,,6,,0,,,01/11/2017,01/11/2017,,,
,,,,,,,,,,,,,,,,,,,http://opendatacommunities.org/id/metropolitan-district-council/bradford,City of Bradford Metropolitan District Council,NW/109,"Otley Road, Shipley",414743.7246,437018.1197,,0.11,not owned by a public authority,,not permissioned,,,,11,,27,,Large period house formerly a nursing home. The building offers good potential for conversion to apartments and an application is pending for  24 units,01/11/2017,01/11/2017,,,
,,,,,,,,,,,,,,,,,,,http://opendatacommunities.org/id/metropolitan-district-council/bradford,City of Bradford Metropolitan District Council,NW/111,"7-9 Oak Avenue, Manningham",415644.0649,434966.8679,,0.17,not owned by a public authority,,permissioned,,,,12,,0,,,01/11/2017,01/11/2017,,,
,,,,,,,,,,,,,,,,,,,http://opendatacommunities.org/id/metropolitan-district-council/bradford,City of Bradford Metropolitan District Council,NW/112,"Squire Lane, Girlington",413638.4954,434268.2387,,1.81,owned by a public authority,,not permissioned,,,,67,,82,,Cleared  and unused land. The owners had intended using the land for parking but it is suitable for housing,01/11/2017,01/11/2017,,,
,,,,,,,,,,,,,,,,,,,http://opendatacommunities.org/id/metropolitan-district-council/bradford,City of Bradford Metropolitan District Council,QB/019,"Charles Street, Derby Street, Queensbury",409813.6043,430045.7159,,0.19,unknown ownership,,not permissioned,,,,8,,9,,Permission has expired but the site remains undeveloped and is suiatable for residential development,01/11/2017,01/11/2017,,,
,,,,,,,,,,,,,,,,,,,http://opendatacommunities.org/id/metropolitan-district-council/bradford,City of Bradford Metropolitan District Council,QB/027,"West Scholes Mill, Lane Side,- Queensbury",409860.0796,431413.2115,,0.31,not owned by a public authority,,permissioned,,,,5,,0,,Buildings have been demolished in readiness and details submitted,01/11/2017,01/11/2017,,,
,,,,,,,,,,,,,,,,,,,http://opendatacommunities.org/id/metropolitan-district-council/bradford,City of Bradford Metropolitan District Council,QB/031,"Former reservoir, Mountain",409309.8401,430680.937,,0.47,not owned by a public authority,,permissioned,,,,5,,0,,,01/11/2017,01/11/2017,,,
,,,,,,,,,,,,,,,,,,,http://opendatacommunities.org/id/metropolitan-district-council/bradford,City of Bradford Metropolitan District Council,SE/001,Highbridge Terrace West Bowling,416810.3541,430476.5127,,1.32,owned by a public authority,,not permissioned,,,,36,,48,,Former RUDP site. Permission for 45 units was refused in 2014 against officer recommendation there have been no further submissions. The site will be suitable for development retaining some open space,01/11/2017,01/11/2017,,,
,,,,,,,,,,,,,,,,,,,http://opendatacommunities.org/id/metropolitan-district-council/bradford,City of Bradford Metropolitan District Council,SE/005,"Cleckheaton Road, Wyke",416572.5539,428293.8183,,0.51,not owned by a public authority,,not permissioned,,,,14,,18,,Vacant land and building suitable for residential use. The shape of the site will limit how the site can be developed,01/11/2017,01/11/2017,,,
,,,,,,,,,,,,,,,,,,,http://opendatacommunities.org/id/metropolitan-district-council/bradford,City of Bradford Metropolitan District Council,SE/016,"Dick Lane, Cutler Heights",419074.2826,432322.1034,,0.39,not owned by a public authority,,permissioned,,,,4,,0,,,01/11/2017,01/11/2017,,,
,,,,,,,,,,,,,,,,,,,http://opendatacommunities.org/id/metropolitan-district-council/bradford,City of Bradford Metropolitan District Council,SE/023A,"Parry Lane, East Bowling",418422.5782,431990.4309,,0.25,not owned by a public authority,,permissioned,,,,14,,0,,,01/11/2017,01/11/2017,,,
,,,,,,,,,,,,,,,,,,,http://opendatacommunities.org/id/metropolitan-district-council/bradford,City of Bradford Metropolitan District Council,SE/026,"Laisterdyke Lane, Laisterdyke",418732.8481,432922.3503,,1.99,not owned by a public authority,,not permissioned,,,,73,,90,,"Cleared, enclosed and tipped land where a number of planning enquiries relating to bringing the site forward have been made. An application is expected in the near future",01/11/2017,01/11/2017,,,
,,,,,,,,,,,,,,,,,,,http://opendatacommunities.org/id/metropolitan-district-council/bradford,City of Bradford Metropolitan District Council,SE/029,"Kesteven Close, Holmewood",419499.9114,430922.8287,,0.66,owned by a public authority,,not permissioned,,,,24,,30,,Cleared site which is suitable for residential redevelopment,01/11/2017,01/11/2017,,,
,,,,,,,,,,,,,,,,,,,http://opendatacommunities.org/id/metropolitan-district-council/bradford,City of Bradford Metropolitan District Council,SE/030,"Landscove Avenue, Holmewood",419813.7896,430695.0409,,0.62,owned by a public authority,,not permissioned,,,,23,,28,,Cleared site. The site is available for redevelopment,01/11/2017,01/11/2017,,,
,,,,,,,,,,,,,,,,,,,http://opendatacommunities.org/id/metropolitan-district-council/bradford,City of Bradford Metropolitan District Council,SE/033,"Land at Muirhead Fold,  Holmewood",419336.7763,430780.2922,,0.6,owned by a public authority,,not permissioned,,,,16,,22,,Level site  which offers good potential for redevelopment subject to planning approval,01/11/2017,01/11/2017,,,
,,,,,,,,,,,,,,,,,,,http://opendatacommunities.org/id/metropolitan-district-council/bradford,City of Bradford Metropolitan District Council,SE/037,"Cordingley Street, Holmewood",419289.587,430348.2182,,0.87,not owned by a public authority,,not permissioned,,,,32,,39,,"Level vacant Land, partly used for storage and disused 3 storey building.",01/11/2017,01/11/2017,,,
,,,,,,,,,,,,,,,,,,,http://opendatacommunities.org/id/metropolitan-district-council/bradford,City of Bradford Metropolitan District Council,SE/042,"496 Leeds Road, Bradford Moor",417446.7883,432883.441,,0.78,not owned by a public authority,,not permissioned,,,,29,,35,,"Building with residential potential, but could also be used for mixed development subject to permissions. The landowners intentions are unknown",01/11/2017,01/11/2017,,,
,,,,,,,,,,,,,,,,,,,http://opendatacommunities.org/id/metropolitan-district-council/bradford,City of Bradford Metropolitan District Council,SE/074,"New Industry mill, Factory Street, Dudley Hill",418079.6586,430901.9893,,0.45,not owned by a public authority,,not permissioned,,,,17,,20,,This site could be suitable for residential or commercial development subject to design,01/11/2017,01/11/2017,,,
,,,,,,,,,,,,,,,,,,,http://opendatacommunities.org/id/metropolitan-district-council/bradford,City of Bradford Metropolitan District Council,SE/082,"Coates Terrace/Manchester Road, Bowling",415918.7943,431516.2729,,0.16,unknown ownership,,not permissioned,,,,7,,8,,Cleared site which recently had permission but this has expired. The site is below the site threshold but could accommodate at least 7 homes,01/11/2017,01/11/2017,,,
,,,,,,,,,,,,,,,,,,,http://opendatacommunities.org/id/metropolitan-district-council/bradford,City of Bradford Metropolitan District Council,SE/083,"De Lacy Mews/Tong Street, Dudley Hill",418416.062,430609.0864,,0.12,unknown ownership,,not permissioned,,,,5,,6,,Site which has developer interest and has the capacity to come forward in the short term for at least 5 units,01/11/2017,01/11/2017,,,
,,,,,,,,,,,,,,,,,,,http://opendatacommunities.org/id/metropolitan-district-council/bradford,City of Bradford Metropolitan District Council,SE/084,"Rooley Lane, Bowling",415821.5338,430286.5567,,0.26,not owned by a public authority,,permissioned,,,,6,,0,,Details submitted and approved in April 2016 suggesting some development may have begun,01/11/2017,01/11/2017,,,
,,,,,,,,,,,,,,,,,,,http://opendatacommunities.org/id/metropolitan-district-council/bradford,City of Bradford Metropolitan District Council,SE/086,"200-206 Leeds Road, Barkerend",417099.2176,432952.8667,,0.2,not owned by a public authority,,permissioned,,,,10,,20,,Further potential for residential development on the land which is unused,01/11/2017,01/11/2017,,,
,,,,,,,,,,,,,,,,,,,http://opendatacommunities.org/id/metropolitan-district-council/bradford,City of Bradford Metropolitan District Council,SE/089,"Tennis Avenue, Holmewood",419085.4897,430378.6667,,0.23,not owned by a public authority,,pending decision,,,,9,,11,,An application for 11 dwellings is pending consideration.,01/11/2017,01/11/2017,,,
,,,,,,,,,,,,,,,,,,,http://opendatacommunities.org/id/metropolitan-district-council/bradford,City of Bradford Metropolitan District Council,SE/102,"Grayswood Drive, Holmewood",418863.4116,431400.4859,,0.41,owned by a public authority,,not permissioned,,,,15,,19,,Former developed site surrounded by residential development. The site is identified within the Holmewood & Tong Neighbourhood Development Plan.,01/11/2017,01/11/2017,,,
,,,,,,,,,,,,,,,,,,,http://opendatacommunities.org/id/metropolitan-district-council/bradford,City of Bradford Metropolitan District Council,SE/114,"Somerton Drive, Holmewood",419059.9483,430677.7824,,0.27,owned by a public authority,,not permissioned,,,,8,,11,,Unused land formerly site of flats,01/11/2017,01/11/2017,,,
,,,,,,,,,,,,,,,,,,,http://opendatacommunities.org/id/metropolitan-district-council/bradford,City of Bradford Metropolitan District Council,SE/133,"Low Moor Community Centre, Terry Road, Low Moor",416307.0144,428368.1703,,0.1,not owned by a public authority,,permissioned,,,,5,,0,,Details approved in November 2016,01/11/2017,01/11/2017,,,
,,,,,,,,,,,,,,,,,,,http://opendatacommunities.org/id/metropolitan-district-council/bradford,City of Bradford Metropolitan District Council,SE/140,"Coop Place, West Bowling",417339.2922,430250.4465,,0.31,unknown ownership,,not permissioned,,,,9,,12,,Site which had outline planning permission which has since expired. The owners intentions are not currently known.,01/11/2017,01/11/2017,,,
,,,,,,,,,,,,,,,,,,,http://opendatacommunities.org/id/metropolitan-district-council/bradford,City of Bradford Metropolitan District Council,SE/142,"Flockton Road, East Bowling",417374.9981,431496.0207,,0.63,owned by a public authority,,permissioned,,,,30,,0,,,01/11/2017,01/11/2017,,,
,,,,,,,,,,,,,,,,,,,http://opendatacommunities.org/id/metropolitan-district-council/bradford,City of Bradford Metropolitan District Council,SE/143,"Flockton Road, East Bowling",417464.3907,431355.9044,,0.48,owned by a public authority,,permissioned,,,,16,,0,,,01/11/2017,01/11/2017,,,
,,,,,,,,,,,,,,,,,,,http://opendatacommunities.org/id/metropolitan-district-council/bradford,City of Bradford Metropolitan District Council,SE/168,"Adelaide Street/Duncan Street, Little Horton",416410.7112,432414.0792,,0.05,not owned by a public authority,,permissioned,,,,14,,0,,,01/11/2017,01/11/2017,,,
,,,,,,,,,,,,,,,,,,,http://opendatacommunities.org/id/metropolitan-district-council/bradford,City of Bradford Metropolitan District Council,SE/175,"New Augustus House and Trust House, Filey Street, City Centre",416920.8255,432798.2846,,0.86,not owned by a public authority,,permissioned,,,,100,,0,,,01/11/2017,01/11/2017,,,
,,,,,,,,,,,,,,,,,,,http://opendatacommunities.org/id/metropolitan-district-council/bradford,City of Bradford Metropolitan District Council,SH/011,"Salts Mill Road, Saltaire, Shipley",414336.6914,437960.0579,,1.79,unknown ownership,,not permissioned,,,,66,,80,,Office development which has residential development potential but which is also suitable retained for its current use,01/11/2017,01/11/2017,,,
,,,,,,,,,,,,,,,,,,,http://opendatacommunities.org/id/metropolitan-district-council/bradford,City of Bradford Metropolitan District Council,SH/017,"Lower Holme Mill, Otley Road, Shipley",415349.4942,438125.6869,,0.22,unknown ownership,,not permissioned,,,,9,,11,,Remaining land from retail development adjacent to existing residential development. The site is suitable for residential development but the owners current intentions are not known. The site can be developed for at least 9 units,01/11/2017,01/11/2017,,,
,,,,,,,,,,,,,,,,,,,http://opendatacommunities.org/id/metropolitan-district-council/bradford,City of Bradford Metropolitan District Council,SH/019,"Carr Lane, Shipley",415399.9543,437422.3348,,1.25,unknown ownership,,not permissioned,,,,46,,56,,Planning permission has now expired and the owners current intentions are not known,01/11/2017,01/11/2017,,,
,,,,,,,,,,,,,,,,,,,http://opendatacommunities.org/id/metropolitan-district-council/bradford,City of Bradford Metropolitan District Council,SH/042,"Queens Road/Ferncliffe Road, Saltaire",413717.6483,437602.4338,,0.93,mixed ownership,,not permissioned,,,,43,,83,,Cleared site with expired permission for 45 elderly apartments and 20 intermediate units. The site is available and can come forward with anew permission,01/11/2017,01/11/2017,,,
,,,,,,,,,,,,,,,,,,,http://opendatacommunities.org/id/metropolitan-district-council/bradford,City of Bradford Metropolitan District Council,SH/045,"The Old School Building, Wrose Brow Road, Shipley",415677.8461,437632.0991,,0.22,not owned by a public authority,,permissioned,,,,10,,0,,Details pending consideration,01/11/2017,01/11/2017,,,
,,,,,,,,,,,,,,,,,,,http://opendatacommunities.org/id/metropolitan-district-council/bradford,City of Bradford Metropolitan District Council,SH/049,"Saltaire Road, Saltaire",413986.3761,437761.1253,,0.23,not owned by a public authority,,permissioned,,,,11,,0,,Details pending consideration,01/11/2017,01/11/2017,,,
,,,,,,,,,,,,,,,,,,,http://opendatacommunities.org/id/metropolitan-district-council/bradford,City of Bradford Metropolitan District Council,SH/051,"Leeds Road/Thackley Old Road, Windhill",415507.6724,437664.7605,,0.01,not owned by a public authority,,permissioned,,,,5,,0,,,01/11/2017,01/11/2017,,,
,,,,,,,,,,,,,,,,,,,http://opendatacommunities.org/id/metropolitan-district-council/bradford,City of Bradford Metropolitan District Council,SI/020,"Keighley Road, Silsden",403936.7165,445831.4449,,4.51,not owned by a public authority,,pending decision,,,,139,,169,,Site with pending application for residential development. The southern part of the site is affected by flood zones 3a and 2 but this is not expected to prevent the development of the site.,01/11/2017,01/11/2017,,,
,,,,,,,,,,,,,,,,,,,http://opendatacommunities.org/id/metropolitan-district-council/bradford,City of Bradford Metropolitan District Council,ST/020,"Former nurses accomodation, north of Airedale hospital",402401.1748,444776.6181,,1.4,owned by a public authority,,not permissioned,,,,38,,50,,Site submitted for consideration by owner as land which is surplus to requirements. The land would be suitable for residential development subject to permissions,01/11/2017,01/11/2017,,,
,,,,,,,,,,,,,,,,,,,http://opendatacommunities.org/id/metropolitan-district-council/bradford,City of Bradford Metropolitan District Council,SW/031,"Horton Park Avenue, Little Horton",415535.8907,431938.8992,,0.59,owned by a public authority,,not permissioned,,,,27,,53,,Planning approval on the site has now expired. The site is still suitable for development but the owners intentions are not fully known,01/11/2017,01/11/2017,,,
,,,,,,,,,,,,,,,,,,,http://opendatacommunities.org/id/metropolitan-district-council/bradford,City of Bradford Metropolitan District Council,SW/035A,"Thornton Road/Mumby Street, Girlington",413421.4614,433277.2572,,4.37,not owned by a public authority,,not permissioned,,,,98,,131,,Permission for 125 units has technically expired although details were approved in May 2016,01/11/2017,01/11/2017,,,
,,,,,,,,,,,,,,,,,,,http://opendatacommunities.org/id/metropolitan-district-council/bradford,City of Bradford Metropolitan District Council,SW/035B,"Thornton Road, Girlington",413509.5065,433345.114,,2.45,not owned by a public authority,,not permissioned,,,,75,,92,,Remaining part of SW/035. The site is suitable for residential use subject to an acceptable application coming forward,01/11/2017,01/11/2017,,,
,,,,,,,,,,,,,,,,,,,http://opendatacommunities.org/id/metropolitan-district-council/bradford,City of Bradford Metropolitan District Council,SW/036,"Cottam Avenue, Great Horton",414871.2968,432747.6446,,1.55,not owned by a public authority,,permissioned,,,,57,,0,,,01/11/2017,01/11/2017,,,
,,,,,,,,,,,,,,,,,,,http://opendatacommunities.org/id/metropolitan-district-council/bradford,City of Bradford Metropolitan District Council,SW/043,"Little Horton Lane, Little Horton",415577.3355,431495.9386,,1.08,not owned by a public authority,,not permissioned,,,,40,,48,,Level site with rubble surface and some grass. The owners intentions are presently unknown but the site could come forward for residential subject to an acceptable application,01/11/2017,01/11/2017,,,
,,,,,,,,,,,,,,,,,,,http://opendatacommunities.org/id/metropolitan-district-council/bradford,City of Bradford Metropolitan District Council,SW/047,"Between Clayton Lane and Lister Arms, Little Horton",416062.5977,431878.0478,,0.52,owned by a public authority,,not permissioned,,,,47,,117,,There has been recent developer interest in the site. A high density development would be best suited to the site,01/11/2017,01/11/2017,,,
,,,,,,,,,,,,,,,,,,,http://opendatacommunities.org/id/metropolitan-district-council/bradford,City of Bradford Metropolitan District Council,SW/048,"Junction with Park Road, Manchester Road, Little Horton",416312.2818,432375.0355,,0.79,mixed ownership,,not permissioned,,,,71,,178,,Revised site with expired permission for large scale apartment development. The neighbouring site has a pending detailed application for 575 apartments. The owner is expected to bring the site forward for development,01/11/2017,01/11/2017,,,
,,,,,,,,,,,,,,,,,,,http://opendatacommunities.org/id/metropolitan-district-council/bradford,City of Bradford Metropolitan District Council,SW/049,"Park Road, Little Horton",416214.0758,432315.7755,,1.44,not owned by a public authority,,pending decision,,,,575,,575,,Application is pending for 575 unit scheme. The site boundary has been revised  to the application currently under consideration. Expected site yield from the current application is most realistic,01/11/2017,01/11/2017,,,
,,,,,,,,,,,,,,,,,,,http://opendatacommunities.org/id/metropolitan-district-council/bradford,City of Bradford Metropolitan District Council,SW/061A,"Northside Road, Girlington",414223.6475,432970.7463,,5.3,not owned by a public authority,,permissioned,,,,220,,0,,,01/11/2017,01/11/2017,,,
,,,,,,,,,,,,,,,,,,,http://opendatacommunities.org/id/metropolitan-district-council/bradford,City of Bradford Metropolitan District Council,SW/061B,"Northside Road, Girlington",413956.2115,432945.7402,,4.47,not owned by a public authority,,not permissioned,,,,137,,168,,The site was covered by a permission which extended across  neighbouring SW/061A but has now expired. The owner is understood to be taking steps to bring the site forward under a new application,01/11/2017,01/11/2017,,,
,,,,,,,,,,,,,,,,,,,http://opendatacommunities.org/id/metropolitan-district-council/bradford,City of Bradford Metropolitan District Council,SW/064,"Common Road, Low Moor",415149.4788,428697.964,,1.25,not owned by a public authority,,pending decision,,,,34,,45,,A developer is progressing proposals to bring the site forward and an application is pending on part of the site for 20 units.,01/11/2017,01/11/2017,,,
,,,,,,,,,,,,,,,,,,,http://opendatacommunities.org/id/metropolitan-district-council/bradford,City of Bradford Metropolitan District Council,SW/065,"Lingdale Road, Woodside",414607.6804,428530.592,,0.61,owned by a public authority,,not permissioned,,,,23,,28,,"The site has no recent planning, but it remains suitable for residential development and is available",01/11/2017,01/11/2017,,,
,,,,,,,,,,,,,,,,,,,http://opendatacommunities.org/id/metropolitan-district-council/bradford,City of Bradford Metropolitan District Council,SW/068,"Legrams Lane/Northside Terrace, Lidget Green",413990.0825,432532.7378,,0.46,not owned by a public authority,,pending decision,,,,17,,21,,A new application has been submitted and is pending consideration,01/11/2017,01/11/2017,,,
,,,,,,,,,,,,,,,,,,,http://opendatacommunities.org/id/metropolitan-district-council/bradford,City of Bradford Metropolitan District Council,SW/072,"Manorley Lane, Woodside",413240.6162,428965.0576,,0.37,not owned by a public authority,,permissioned,,,,20,,0,,,01/11/2017,01/11/2017,,,
,,,,,,,,,,,,,,,,,,,http://opendatacommunities.org/id/metropolitan-district-council/bradford,City of Bradford Metropolitan District Council,SW/074,"Huddersfield Road, Odsal",415689.2738,429511.794,,0.18,not owned by a public authority,,permissioned,,,,9,,0,,,01/11/2017,01/11/2017,,,
,,,,,,,,,,,,,,,,,,,http://opendatacommunities.org/id/metropolitan-district-council/bradford,City of Bradford Metropolitan District Council,SW/075,"Scholemoor Road, Lidget Green",413731.9344,432285.606,,0.14,unknown ownership,,not permissioned,,,,6,,7,,Permission for 14 units has now expired. Owners current intentions are not known but the site could still forward with a new application. The sitefor at least 6 units,01/11/2017,01/11/2017,,,
,,,,,,,,,,,,,,,,,,,http://opendatacommunities.org/id/metropolitan-district-council/bradford,City of Bradford Metropolitan District Council,SW/081,"Pannal Street, Great Horton",414012.9531,431237.3895,,0.87,not owned by a public authority,,permissioned,,,,24,,0,,,01/11/2017,01/11/2017,,,
,,,,,,,,,,,,,,,,,,,http://opendatacommunities.org/id/metropolitan-district-council/bradford,City of Bradford Metropolitan District Council,SW/083,"Paradise Fold, Great Horton",413258.3056,431842.4426,,0.21,unknown ownership,,not permissioned,,,,6,,8,,Site which had permission for residential use but this has now expired. The site is suitable for at least 6 homes,01/11/2017,01/11/2017,,,
,,,,,,,,,,,,,,,,,,,http://opendatacommunities.org/id/metropolitan-district-council/bradford,City of Bradford Metropolitan District Council,SW/085,Legrams Lane/Archibald Street,415081.8787,432945.3971,,0.03,not owned by a public authority,,permissioned,,,,8,,0,,,01/11/2017,01/11/2017,,,
,,,,,,,,,,,,,,,,,,,http://opendatacommunities.org/id/metropolitan-district-council/bradford,City of Bradford Metropolitan District Council,SW/095,Paternoster Square Great Horton,414306.8388,431618.1072,,0.06,not owned by a public authority,,permissioned,,,,6,,0,,,01/11/2017,01/11/2017,,,
,,,,,,,,,,,,,,,,,,,http://opendatacommunities.org/id/metropolitan-district-council/bradford,City of Bradford Metropolitan District Council,SW/098,"Harris Court Mill, Great Horton Road, Great Horton",414191.8845,431441.4734,,0.57,not owned by a public authority,,not permissioned,,,,52,,129,,The site/building has received recent development interest and an applcation is expected in the near future,01/11/2017,01/11/2017,,,
,,,,,,,,,,,,,,,,,,,http://opendatacommunities.org/id/metropolitan-district-council/bradford,City of Bradford Metropolitan District Council,SW/105,"Clover Street/Haycliffe Road, Wibsey",414625.9197,431077.023,,0.22,unknown ownership,,not permissioned,,,,9,,11,,The site was suggested by the local community and is only in part use. The owner and their intentions are not known but the site is considered to be developable for at least 9 homes,01/11/2017,01/11/2017,,,
,,,,,,,,,,,,,,,,,,,http://opendatacommunities.org/id/metropolitan-district-council/bradford,City of Bradford Metropolitan District Council,SW/113,"Newall Street/Bottomley Street Off Manchester Road, Little Horton",415904.3168,431678.4236,,0.81,mixed ownership,,pending decision,,,,30,,36,,Part of the site has a pending application for conversion. The whole site is underused and redevelopment to residential/mixed use would be appropriate,01/11/2017,01/11/2017,,,
,,,,,,,,,,,,,,,,,,,http://opendatacommunities.org/id/metropolitan-district-council/bradford,City of Bradford Metropolitan District Council,SW/115,Land West Of 67 Bradford Road Clayton,412856.9532,432002.2938,,0.17,not owned by a public authority,,permissioned,,,,6,,0,,,01/11/2017,01/11/2017,,,
,,,,,,,,,,,,,,,,,,,http://opendatacommunities.org/id/metropolitan-district-council/bradford,City of Bradford Metropolitan District Council,SW/119,"Former Odsal Clinic 55 Odsal Road, Odsal",415573.7162,429929.8066,,0.21,unknown ownership,,not permissioned,,,,6,,8,,Building with expired permission. The site could be redeveloped to at least 6 homes,01/11/2017,01/11/2017,,,
,,,,,,,,,,,,,,,,,,,http://opendatacommunities.org/id/metropolitan-district-council/bradford,City of Bradford Metropolitan District Council,SW/122,"Church Street, Buttershaw",413466.382,429221.4709,,0.13,unknown ownership,,not permissioned,,,,5,,5,,Site had outline permission for 5 homes which has now expired. The site is available but could still accommodate at least 5 homes,01/11/2017,01/11/2017,,,
,,,,,,,,,,,,,,,,,,,http://opendatacommunities.org/id/metropolitan-district-council/bradford,City of Bradford Metropolitan District Council,SW/126,"Daily Court, Little Horton",414935.405,431209.221,,0.62,not owned by a public authority,,permissioned,,,,34,,0,,details have been submitted and approved,01/11/2017,01/11/2017,,,
,,,,,,,,,,,,,,,,,,,http://opendatacommunities.org/id/metropolitan-district-council/bradford,City of Bradford Metropolitan District Council,SW/130,"Little Horton Lane, Little Horton",415563.8529,431609.2819,,0.15,not owned by a public authority,,permissioned,,,,14,,0,,,01/11/2017,01/11/2017,,,
,,,,,,,,,,,,,,,,,,,http://opendatacommunities.org/id/metropolitan-district-council/bradford,City of Bradford Metropolitan District Council,SW/131,"Sawrey Place, Little Horton",415848.9119,432541.3581,,0.09,unknown ownership,,not permissioned,,,,5,,5,,Site with expired permission for 5 terraced houses. The site can accommodate at least 5 units,01/11/2017,01/11/2017,,,
,,,,,,,,,,,,,,,,,,,http://opendatacommunities.org/id/metropolitan-district-council/bradford,City of Bradford Metropolitan District Council,SW/134,"Meadway, Wibsey",413912.5665,428663.1553,,0.23,unknown ownership,,not permissioned,,,,6,,7,,Site with expired permission. The site is available.,01/11/2017,01/11/2017,,,
,,,,,,,,,,,,,,,,,,,http://opendatacommunities.org/id/metropolitan-district-council/bradford,City of Bradford Metropolitan District Council,SW/140,"The Prince of Wales Inn, 244 Bowling Old Lane",416169.7025,431333.5256,,0.08,not owned by a public authority,,permissioned,,,,6,,0,,,01/11/2017,01/11/2017,,,
,,,,,,,,,,,,,,,,,,,http://opendatacommunities.org/id/metropolitan-district-council/bradford,City of Bradford Metropolitan District Council,SW/141,"Hastings Street/Broadway Avenue, Little Horton",415538.9415,430887.3612,,0.05,not owned by a public authority,,permissioned,,,,5,,0,,,01/11/2017,01/11/2017,,,
,,,,,,,,,,,,,,,,,,,http://opendatacommunities.org/id/metropolitan-district-council/bradford,City of Bradford Metropolitan District Council,SW/147,"Grafton Street, Little Horton",416122.7963,432320.222,,0.85,owned by a public authority,,permissioned,,,,46,,0,,,01/11/2017,01/11/2017,,,
,,,,,,,,,,,,,,,,,,,http://opendatacommunities.org/id/metropolitan-district-council/bradford,City of Bradford Metropolitan District Council,TH/012,"Dole and Prospect Mills, Thornton Road, Thornton",410143.1473,432604.3397,,1.21,not owned by a public authority,,not permissioned,,,,45,,54,,Cleared site following fire. The owner intends bringing the site forward for development,01/11/2017,01/11/2017,,,
,,,,,,,,,,,,,,,,,,,http://opendatacommunities.org/id/metropolitan-district-council/bradford,City of Bradford Metropolitan District Council,TH/015,"James Street, Thornton",409665.5763,432924.4176,,0.33,unknown ownership,,not permissioned,,,,13,,16,,Remaining part of a development site containing land and derlelict mill building. The site remains available. A new application is likely to be necessary,01/11/2017,01/11/2017,,,
,,,,,,,,,,,,,,,,,,,http://opendatacommunities.org/id/metropolitan-district-council/bradford,City of Bradford Metropolitan District Council,TH/018,"Old Road, Thornton",410812.0114,432923.2512,,0.29,not owned by a public authority,,not permissioned,,,,15,,28,,"Applications have been submitted to redevelop the site for upto 20 units, but no permission is yet in place.",01/11/2017,01/11/2017,,,
