address,address-text,deliverable,end-date,entry-date,hazardous-substances,hectares,latitude,longitude,maximum-net-dwellings,minimum-net-dwellings,notes,organisation,ownership-status,planning-permission-date,planning-permission-history,planning-permission-status,planning-permission-type,site,OrganisationURI,OrganisationLabel,SiteReference,SiteNameAddress,GeoX,GeoY,SiteplanURL,Hectares,OwnershipStatus,HazardousSubstances,PlanningStatus,PermissionType,PermissionDate,PlanningHistory,MinNetDwellings,NetDwellingsRangeFrom,NetDwellingsRangeTo,Deliverable,Notes,FirstAddedDate,LastUpdatedDate,EndDate,site-plan-url,start-date
,,,,,,,,,,,,,,,,,,,http://opendatacommunities.org/id/unitary-authority/shropshire,Shropshire,10/00540/OUT,"""Land Between 94A Willow Street and Oak Street, Oswestry""",3853504.509,-205875.8966,https://shropshire.maps.arcgis.com/apps/webappviewer/index.html?id=25b8fd6ba2fb4c878775a1aaea210576,0.06,Not owned by a public authority,,Not permissioned,,,,6,,,,,2017-12-22,2017-12-22,,,
,,,,,,,,,,,,,,,,,,,http://opendatacommunities.org/id/unitary-authority/shropshire,Shropshire,10/00968/FUL,"""Phoenix Garage, Great Hales Street, Market Drayton""",3851663.864,-166928.9617,https://shropshire.maps.arcgis.com/apps/webappviewer/index.html?id=25b8fd6ba2fb4c878775a1aaea210576,0.31,Not owned by a public authority,,Not permissioned,,,,14,,,,,2017-12-22,2017-12-22,,,
,,,,,,,,,,,,,,,,,,,http://opendatacommunities.org/id/unitary-authority/shropshire,Shropshire,10/01319/FUL,"""Land At 1 Pinkham, Cleobury Mortimer""",3897965.499,-168724.6706,https://shropshire.maps.arcgis.com/apps/webappviewer/index.html?id=25b8fd6ba2fb4c878775a1aaea210576,0.3,Not owned by a public authority,,Not permissioned,,,,9,,,,,2017-12-22,2017-12-22,,,
,,,,,,,,,,,,,,,,,,,http://opendatacommunities.org/id/unitary-authority/shropshire,Shropshire,10/04143/OUT,"""Pentons Haulage And Coldstore, School Road, Ruyton XI Towns, Shrewsbury, Shropshire, SY4 1JT""",3859823.223,-195885.4784,https://shropshire.maps.arcgis.com/apps/webappviewer/index.html?id=25b8fd6ba2fb4c878775a1aaea210576,4.77,Not owned by a public authority,,Not permissioned,,,,80,,,,"""Outline Planning Permission previously granted on the 2011-12-23 (10/04143/OUT) for 94 dwellings. The application subsequently lapsed. |There remains a known interest in bringing this site forward for residential development.""",2017-12-22,2017-12-22,,,
,,,,,,,,,,,,,,,,,,,http://opendatacommunities.org/id/unitary-authority/shropshire,Shropshire,11/00983/FUL,"""6 St Marys Street, Market Drayton""",3851675.105,-167095.5132,https://shropshire.maps.arcgis.com/apps/webappviewer/index.html?id=25b8fd6ba2fb4c878775a1aaea210576,0.03,Not owned by a public authority,,Not permissioned,,,,5,,,,,2017-12-22,2017-12-22,,,
,,,,,,,,,,,,,,,,,,,http://opendatacommunities.org/id/unitary-authority/shropshire,Shropshire,11/02325/FUL,"""Land at 1 Forge Way, Dorrington, Shrewsbury""",3875691.5,-187731.758,https://shropshire.maps.arcgis.com/apps/webappviewer/index.html?id=25b8fd6ba2fb4c878775a1aaea210576,0.05,Not owned by a public authority,,Not permissioned,,,,5,,,,,2017-12-22,2017-12-22,,,
,,,,,,,,,,,,,,,,,,,http://opendatacommunities.org/id/unitary-authority/shropshire,Shropshire,11/03859/OUT,"""Coach Garage, Village Road, Childs Ercall, Market Drayton""",3858820.973,-168417.9666,https://shropshire.maps.arcgis.com/apps/webappviewer/index.html?id=25b8fd6ba2fb4c878775a1aaea210576,0.19,Not owned by a public authority,,Not permissioned,,,,5,,,,,2017-12-22,2017-12-22,,,
,,,,,,,,,,,,,,,,,,,http://opendatacommunities.org/id/unitary-authority/shropshire,Shropshire,11/04508/FUL,"""7 Claremont Street, Shrewsbury""",3868121.231,-186213.1621,https://shropshire.maps.arcgis.com/apps/webappviewer/index.html?id=25b8fd6ba2fb4c878775a1aaea210576,0.04,Not owned by a public authority,,Not permissioned,,,,7,,,,,2017-12-22,2017-12-22,,,
,,,,,,,,,,,,,,,,,,,http://opendatacommunities.org/id/unitary-authority/shropshire,Shropshire,13/00022/OUT,"""Bromfield, 66 Spring Gardens, Shrewsbury, Shropshire, SY1 2TE""",3867064.075,-185132.2783,https://shropshire.maps.arcgis.com/apps/webappviewer/index.html?id=25b8fd6ba2fb4c878775a1aaea210576,0.13,Not owned by a public authority,,Permissioned,,,,9,,,,,2017-12-22,2017-12-22,,,
,,,,,,,,,,,,,,,,,,,http://opendatacommunities.org/id/unitary-authority/shropshire,Shropshire,13/00097/FUL,"""McKeand Smith & Co Ltd, Station Road, Albrighton, Wolverhampton, WV7 3EA""",3875821.992,-153491.3808,https://shropshire.maps.arcgis.com/apps/webappviewer/index.html?id=25b8fd6ba2fb4c878775a1aaea210576,0.17,Not owned by a public authority,,Permissioned,,,,9,,,,"""New Planning Application (17/02469/FUL) pending consideration on the site.""",2017-12-22,2017-12-22,,,
,,,,,,,,,,,,,,,,,,,http://opendatacommunities.org/id/unitary-authority/shropshire,Shropshire,13/01854/OUT,"""Land West Of Mill Green, Knighton, Powys""",3898970.659,-207646.5905,https://shropshire.maps.arcgis.com/apps/webappviewer/index.html?id=25b8fd6ba2fb4c878775a1aaea210576,1.06,Not owned by a public authority,,Permissioned,,,,26,,,,,2017-12-22,2017-12-22,,,
,,,,,,,,,,,,,,,,,,,http://opendatacommunities.org/id/unitary-authority/shropshire,Shropshire,13/02550/OUT,"""Dale House, Newport Road, Hinstock, Market Drayton, TF9 2TH""",3858332.925,-165387.0667,https://shropshire.maps.arcgis.com/apps/webappviewer/index.html?id=25b8fd6ba2fb4c878775a1aaea210576,0.15,Not owned by a public authority,,Permissioned,,,,5,,,,,2017-12-22,2017-12-22,,,
,,,,,,,,,,,,,,,,,,,http://opendatacommunities.org/id/unitary-authority/shropshire,Shropshire,13/02623/FUL,"""Land At Broseley Social Club, Bank House, High Street, Broseley, Shropshire, TF12 5EZ""",3877293.155,-168237.1358,https://shropshire.maps.arcgis.com/apps/webappviewer/index.html?id=25b8fd6ba2fb4c878775a1aaea210576,0.14,Not owned by a public authority,,Permissioned,,,,6,,,,"""The site has the benefit of a Full planning permission. | Part of the site is brownfield (Approx 65%) and part is greenfield (Approx 35%). | The brownfield element of the site is approximately 0.14ha, whilst the total site size is some 0.21ha. | It is anticipated that the brownfield component of the site has a capacity for all the 6 dwellings proposed within the development. | The site is considered deliverable. | The map shows the full extent of the site and not only the brownfield area.""",2017-12-22,2017-12-22,,,
,,,,,,,,,,,,,,,,,,,http://opendatacommunities.org/id/unitary-authority/shropshire,Shropshire,13/03051/FUL,"""117 Cheshire Street, Market Drayton, Shropshire, TF9 1AE""",3851295.856,-167346.5273,https://shropshire.maps.arcgis.com/apps/webappviewer/index.html?id=25b8fd6ba2fb4c878775a1aaea210576,0.02,Not owned by a public authority,,Permissioned,,,,6,,,,,2017-12-22,2017-12-22,,,
,,,,,,,,,,,,,,,,,,,http://opendatacommunities.org/id/unitary-authority/shropshire,Shropshire,13/03205/P3JPA,"""28 Castle Street, Shrewsbury, Shropshire, SY1 2BQ""",3868001.787,-185851.664,https://shropshire.maps.arcgis.com/apps/webappviewer/index.html?id=25b8fd6ba2fb4c878775a1aaea210576,0.14,Not owned by a public authority,,Permissioned,,,,6,,,,,2017-12-22,2017-12-22,,,
,,,,,,,,,,,,,,,,,,,http://opendatacommunities.org/id/unitary-authority/shropshire,Shropshire,13/03415/FUL,"""Evans And Stubbs Building, Dale Street, Craven Arms, Shropshire, SY7 9NY""",3891561.764,-192557.7536,https://shropshire.maps.arcgis.com/apps/webappviewer/index.html?id=25b8fd6ba2fb4c878775a1aaea210576,0.1,Not owned by a public authority,,Permissioned,,,,7,,,,,2017-12-22,2017-12-22,,,
,,,,,,,,,,,,,,,,,,,http://opendatacommunities.org/id/unitary-authority/shropshire,Shropshire,13/03481/OUT,"""Storage Land And Premises (former Dairy), Mile Bank Road, Whitchurch, Shropshire""",3843971.803,-179075.1956,https://shropshire.maps.arcgis.com/apps/webappviewer/index.html?id=25b8fd6ba2fb4c878775a1aaea210576,3.93,Not owned by a public authority,,Permissioned,,,,70,,,,,2017-12-22,2017-12-22,,,
,,,,,,,,,,,,,,,,,,,http://opendatacommunities.org/id/unitary-authority/shropshire,Shropshire,13/03521/FUL,"""Lea Manor, Holyhead Road, Albrighton, Wolverhampton, WV7 3BX""",3876893.86,-154981.2237,https://shropshire.maps.arcgis.com/apps/webappviewer/index.html?id=25b8fd6ba2fb4c878775a1aaea210576,0.57,Not owned by a public authority,,Permissioned,,,,7,,,,,2017-12-22,2017-12-22,,,
,,,,,,,,,,,,,,,,,,,http://opendatacommunities.org/id/unitary-authority/shropshire,Shropshire,14/00030/OUT,"""Davro Iron & Steel Co Ltd, Ridgewell Works, Stourbridge Road, Wootton, Bridgnorth, WV15 6ED""",3887390.192,-158361.7037,https://shropshire.maps.arcgis.com/apps/webappviewer/index.html?id=25b8fd6ba2fb4c878775a1aaea210576,1.02,Not owned by a public authority,,Permissioned,,,,11,,,,"""The site has the benefit of an Outline planning permission. | Part of the site is brownfield (Approx 70%) and part is greenfield (Approx 30%). | The brownfield element of the site is approximately 1.02ha, whilst the total site size is some 1.46ha. | It is anticipated that the brownfield component of the site has a capacity for approximately 11 dwellings, whilst the total site capacity is some 16 dwellings. | The site is considered deliverable. | The map shows the full extent of the site and not only the brownfield area.""",2017-12-22,2017-12-22,,,
,,,,,,,,,,,,,,,,,,,http://opendatacommunities.org/id/unitary-authority/shropshire,Shropshire,14/01744/OUT,"""Old Station Yard, Brownlow Road, Ellesmere, Shropshire""",3849828.689,-195040.1406,https://shropshire.maps.arcgis.com/apps/webappviewer/index.html?id=25b8fd6ba2fb4c878775a1aaea210576,1.47,Not owned by a public authority,,Permissioned,,,,56,,,,,2017-12-22,2017-12-22,,,
,,,,,,,,,,,,,,,,,,,http://opendatacommunities.org/id/unitary-authority/shropshire,Shropshire,14/02286/OUT,"""Shropshire Stone & Granite, Station Road, Baschurch, Shrewsbury, SY4 2BQ""",3859821.855,-191979.889,https://shropshire.maps.arcgis.com/apps/webappviewer/index.html?id=25b8fd6ba2fb4c878775a1aaea210576,1.49,Not owned by a public authority,,Permissioned,,,,30,,,,"""The site has the benefit of an Outline planning permission. | Part of the site is brownfield (Approx 60%) and part is greenfield (Approx 40%). | The brownfield element of the site is approximately 1.49ha, whilst the total site size is some 2.48ha. | It is anticipated that the brownfield component of the site has a capacity for approximately 30 dwellings, whilst the total site capacity is some 50 dwellings. | The site is considered deliverable. | The map shows the full extent of the site and not only the brownfield area.""",2017-12-22,2017-12-22,,,
,,,,,,,,,,,,,,,,,,,http://opendatacommunities.org/id/unitary-authority/shropshire,Shropshire,14/02693/OUT,"""Shropshire Council Offices, Westgate, Bridgnorth, Shropshire, WV16 5AA""",3884331.219,-164922.4315,https://shropshire.maps.arcgis.com/apps/webappviewer/index.html?id=25b8fd6ba2fb4c878775a1aaea210576,0.96,Owned by a public authority,,Pending decision,,,,40,,,,"""Outline application pending decision for a residential development on a Council owned site. | Positive consultation is ongoing regarding the disposal of this site.""",2017-12-22,2017-12-22,,,
,,,,,,,,,,,,,,,,,,,http://opendatacommunities.org/id/unitary-authority/shropshire,Shropshire,14/02846/OUT,"""Coach Depot, Fishmore Road, Ludlow, Shropshire, SY8 2LU""",3897527.946,-185073.9631,https://shropshire.maps.arcgis.com/apps/webappviewer/index.html?id=25b8fd6ba2fb4c878775a1aaea210576,0.42,Not owned by a public authority,,Permissioned,,,,20,,,,,2017-12-22,2017-12-22,,,
,,,,,,,,,,,,,,,,,,,http://opendatacommunities.org/id/unitary-authority/shropshire,Shropshire,14/03091/OUT,"""Shropshire Building Supplies, New Road, Ludlow, Shropshire, SY8 2LS""",3897818.072,-184996.0107,https://shropshire.maps.arcgis.com/apps/webappviewer/index.html?id=25b8fd6ba2fb4c878775a1aaea210576,0.77,Not owned by a public authority,,Permissioned,,,,26,,,,,2017-12-22,2017-12-22,,,
,,,,,,,,,,,,,,,,,,,http://opendatacommunities.org/id/unitary-authority/shropshire,Shropshire,14/03475/OUT,"""Salop Music Centre, St Michaels Street, Shrewsbury, Shropshire, SY1 2DE""",3867461.493,-185656.6342,https://shropshire.maps.arcgis.com/apps/webappviewer/index.html?id=25b8fd6ba2fb4c878775a1aaea210576,0.31,Not owned by a public authority,,Permissioned,,,,24,,,,,2017-12-22,2017-12-22,,,
,,,,,,,,,,,,,,,,,,,http://opendatacommunities.org/id/unitary-authority/shropshire,Shropshire,14/04383/FUL,"""Princess House, The Square, Shrewsbury, Shropshire""",3868198.898,-186082.7475,https://shropshire.maps.arcgis.com/apps/webappviewer/index.html?id=25b8fd6ba2fb4c878775a1aaea210576,0.22,Not owned by a public authority,,Permissioned,,,,50,,,,,2017-12-22,2017-12-22,,,
,,,,,,,,,,,,,,,,,,,http://opendatacommunities.org/id/unitary-authority/shropshire,Shropshire,14/04772/OUT,"""Land North Of Robin Hill, Lower Road, Myddle, Shropshire""",3859069.204,-187599.6108,https://shropshire.maps.arcgis.com/apps/webappviewer/index.html?id=25b8fd6ba2fb4c878775a1aaea210576,0.39,Not owned by a public authority,,Permissioned,,,,5,,,,,2017-12-22,2017-12-22,,,
,,,,,,,,,,,,,,,,,,,http://opendatacommunities.org/id/unitary-authority/shropshire,Shropshire,14/04891/OUT,"""Rosewood Pet Products Ltd, 45 Coalport Road, Broseley, Shropshire, TF12 5AN""",3877655.286,-167246.829,https://shropshire.maps.arcgis.com/apps/webappviewer/index.html?id=25b8fd6ba2fb4c878775a1aaea210576,0.65,Not owned by a public authority,,Permissioned,,,,21,,,,,2017-12-22,2017-12-22,,,
,,,,,,,,,,,,,,,,,,,http://opendatacommunities.org/id/unitary-authority/shropshire,Shropshire,14/04926/OUT,"""Land Adjoining Towers Lawn, Market Drayton, Shropshire, TF9 3AA""",3851392.238,-167163.7136,https://shropshire.maps.arcgis.com/apps/webappviewer/index.html?id=25b8fd6ba2fb4c878775a1aaea210576,0.21,Not owned by a public authority,,Permissioned,,,,30,,,,,2017-12-22,2017-12-22,,,
,,,,,,,,,,,,,,,,,,,http://opendatacommunities.org/id/unitary-authority/shropshire,Shropshire,15/00415/OUT,"""Land At 18 Dutton Close, Stoke Heath, Market Drayton, Shropshire, TF9 2JN""",3854915.442,-170172.4436,https://shropshire.maps.arcgis.com/apps/webappviewer/index.html?id=25b8fd6ba2fb4c878775a1aaea210576,0.19,Not owned by a public authority,,Permissioned,,,,9,,,,"""The site has the benefit of an Outline planning permission. | Part of the site is brownfield (Approx 25%) and part is greenfield (Approx 75%). | The brownfield element of the site is approximately 0.19ha, whilst the total site size is some 0.76ha. | It is anticipated that the brownfield component of the site has a capacity for approximately 9 dwellings, whilst the total site capacity is some 25 dwellings. | The site is considered deliverable. | The map shows the full extent of the site and not only the brownfield area.""",2017-12-22,2017-12-22,,,
,,,,,,,,,,,,,,,,,,,http://opendatacommunities.org/id/unitary-authority/shropshire,Shropshire,15/00949/FUL,"""Ludford House, Overton Road, Ludford, Ludlow, SY8 1PJ""",3898724.994,-185018.6632,https://shropshire.maps.arcgis.com/apps/webappviewer/index.html?id=25b8fd6ba2fb4c878775a1aaea210576,0.25,Not owned by a public authority,,Permissioned,,,,7,,,,,2017-12-22,2017-12-22,,,
,,,,,,,,,,,,,,,,,,,http://opendatacommunities.org/id/unitary-authority/shropshire,Shropshire,15/01786/FUL,"""Prospect House, Belle Vue Road, Shrewsbury, Shropshire, SY3 7NR""",3868701.613,-185477.7048,https://shropshire.maps.arcgis.com/apps/webappviewer/index.html?id=25b8fd6ba2fb4c878775a1aaea210576,0.45,Not owned by a public authority,,Permissioned,,,,34,,,,,2017-12-22,2017-12-22,,,
,,,,,,,,,,,,,,,,,,,http://opendatacommunities.org/id/unitary-authority/shropshire,Shropshire,15/02536/FUL,"""36 Castle Street, Shrewsbury, Shropshire, SY1 2BW""",3868030.067,-185901.696,https://shropshire.maps.arcgis.com/apps/webappviewer/index.html?id=25b8fd6ba2fb4c878775a1aaea210576,0.01,Not owned by a public authority,,Permissioned,,,,5,,,,,2017-12-22,2017-12-22,,,
,,,,,,,,,,,,,,,,,,,http://opendatacommunities.org/id/unitary-authority/shropshire,Shropshire,15/02552/FUL,"""4 King Street, Ludlow, Shropshire, SY8 1AQ""",3898251.463,-185104.2285,https://shropshire.maps.arcgis.com/apps/webappviewer/index.html?id=25b8fd6ba2fb4c878775a1aaea210576,0.03,Not owned by a public authority,,Permissioned,,,,6,,,,,2017-12-22,2017-12-22,,,
,,,,,,,,,,,,,,,,,,,http://opendatacommunities.org/id/unitary-authority/shropshire,Shropshire,15/03969/OUT,"""Stoke Heath Camp, Warrant Road, Stoke Heath, Shropshire""",3855439.754,-170569.1024,https://shropshire.maps.arcgis.com/apps/webappviewer/index.html?id=25b8fd6ba2fb4c878775a1aaea210576,3.7,Not owned by a public authority,,Permissioned,,,,26,,,,"""The site has the benefit of an Outline planning permission. | Part of the site is brownfield (Approx 75%) and part is greenfield (Approx 25%). | The brownfield element of the site is approximately 3.70ha, whilst the total site size is some 5.08ha. | It is anticipated that the brownfield component of the site has a capacity for approximately 26 dwellings, whilst the total site capacity is some 38 dwellings. | The site is considered deliverable. | The map shows the full extent of the site and not only the brownfield area.""",2017-12-22,2017-12-22,,,
,,,,,,,,,,,,,,,,,,,http://opendatacommunities.org/id/unitary-authority/shropshire,Shropshire,15/04613/REM,"""Land North Of The Miners Arms, Morda Bank, Morda, Shropshire""",3855126.082,-206011.5796,https://shropshire.maps.arcgis.com/apps/webappviewer/index.html?id=25b8fd6ba2fb4c878775a1aaea210576,0.04,Not owned by a public authority,,Permissioned,,,,8,,,,"""The site has the benefit of an Reserved matters approval. | Part of the site is brownfield (Approx 65%) and part is greenfield (Approx 45%). | The brownfield element of the site is approximately 0.04ha, whilst the total site size is some 0.06ha. |  The development involves the creation of 12 apartments, referencing the land split, approximately 8 of these apartments are located on the brownfield element of the site. | The site is considered deliverable.  | The map shows the full extent of the site and not only the brownfield area.""",2017-12-22,2017-12-22,,,
,,,,,,,,,,,,,,,,,,,http://opendatacommunities.org/id/unitary-authority/shropshire,Shropshire,15/05307/REM,"""Gro Continental Ltd, Heathwood Road, Higher Heath, Whitchurch""",3849790.725,-178040.1359,https://shropshire.maps.arcgis.com/apps/webappviewer/index.html?id=25b8fd6ba2fb4c878775a1aaea210576,4.6,Not owned by a public authority,,Permissioned,,,,115,,,,,2017-12-22,2017-12-22,,,
,,,,,,,,,,,,,,,,,,,http://opendatacommunities.org/id/unitary-authority/shropshire,Shropshire,15/05357/OUT,"""Former Central Garage, Kidderminster Road, Alveley, Shropshire, WV15 6LL""",3891132.287,-159220.0593,https://shropshire.maps.arcgis.com/apps/webappviewer/index.html?id=25b8fd6ba2fb4c878775a1aaea210576,0.66,Not owned by a public authority,,Permissioned,,,,19,,,,,2017-12-22,2017-12-22,,,
,,,,,,,,,,,,,,,,,,,http://opendatacommunities.org/id/unitary-authority/shropshire,Shropshire,16/00725/FUL,"""Mytton Mill, Forton Heath, Montford Bridge, Shrewsbury, SY4 1HA""",3863933.073,-191048.4846,https://shropshire.maps.arcgis.com/apps/webappviewer/index.html?id=25b8fd6ba2fb4c878775a1aaea210576,0.46,Not owned by a public authority,,Permissioned,,,,10,,,,"""The site has the benefit of a Full planning permission. | Part of the site is brownfield (Approx 10%) and part is greenfield (Approx 90%). | The brownfield element of the site is approximately 0.46ha, whilst the total site size is some 4.62ha. | It is anticipated that the brownfield component of the site has a capacity for approximately 10 dwellings, whilst the total site capacity is some 12 dwellings. | The site is considered deliverable. | The map shows the full extent of the site and not only the brownfield area.""",2017-12-22,2017-12-22,,,
,,,,,,,,,,,,,,,,,,,http://opendatacommunities.org/id/unitary-authority/shropshire,Shropshire,16/00761/FUL,"""Harvest House, Portcullis Lane, Ludlow, Shropshire, SY8 1PZ""",3898048.132,-184993.0331,https://shropshire.maps.arcgis.com/apps/webappviewer/index.html?id=25b8fd6ba2fb4c878775a1aaea210576,0.36,Not owned by a public authority,,Permissioned,,,,11,,,,,2017-12-22,2017-12-22,,,
,,,,,,,,,,,,,,,,,,,http://opendatacommunities.org/id/unitary-authority/shropshire,Shropshire,16/00902/REM,"""Land Including Storage Buildings/Offices, Argoed Road, Kinnerley, Oswestry, Shropshire, SY10 8DH""",3861160.005,-201271.8987,https://shropshire.maps.arcgis.com/apps/webappviewer/index.html?id=25b8fd6ba2fb4c878775a1aaea210576,0.88,Not owned by a public authority,,Permissioned,,,,18,,,,,2017-12-22,2017-12-22,,,
,,,,,,,,,,,,,,,,,,,http://opendatacommunities.org/id/unitary-authority/shropshire,Shropshire,16/01651/OUT,"""Land Off Washford Road, Shrewsbury, Shropshire""",3869633.201,-187063.6993,https://shropshire.maps.arcgis.com/apps/webappviewer/index.html?id=25b8fd6ba2fb4c878775a1aaea210576,0.23,Not owned by a public authority,,Permissioned,,,,6,,,,,2017-12-22,2017-12-22,,,
,,,,,,,,,,,,,,,,,,,http://opendatacommunities.org/id/unitary-authority/shropshire,Shropshire,16/02684/FUL,"""Land At 67 Mytton Oak Road, Shrewsbury, SY3 8UQ""",3868141.648,-188357.8616,https://shropshire.maps.arcgis.com/apps/webappviewer/index.html?id=25b8fd6ba2fb4c878775a1aaea210576,0.17,Not owned by a public authority,,Permissioned,,,,9,,,,,2017-12-22,2017-12-22,,,
,,,,,,,,,,,,,,,,,,,http://opendatacommunities.org/id/unitary-authority/shropshire,Shropshire,16/03096/OUT,"""Land at Fishmore Road, Ludlow""",3897592.243,-185032.1669,https://shropshire.maps.arcgis.com/apps/webappviewer/index.html?id=25b8fd6ba2fb4c878775a1aaea210576,2.14,Not owned by a public authority,,Not permissioned,,,,74,,,,"""Outline Planning Permission previously granted on the 2011-12-21 (10/02056/OUT) for 94 dwellings. The application subsequently lapsed.|Outline Planning Application pending consideration (16/03096/OUT) for 74 dwellings.""",2017-12-22,2017-12-22,,,
,,,,,,,,,,,,,,,,,,,http://opendatacommunities.org/id/unitary-authority/shropshire,Shropshire,16/03659/FUL,"""Holland Broadbridge Agriculture House, 5 Barker Street, Shrewsbury, SY1 1QJ""",3868120.476,-186292.2092,https://shropshire.maps.arcgis.com/apps/webappviewer/index.html?id=25b8fd6ba2fb4c878775a1aaea210576,0.04,Not owned by a public authority,,Permissioned,,,,10,,,,,2017-12-22,2017-12-22,,,
,,,,,,,,,,,,,,,,,,,http://opendatacommunities.org/id/unitary-authority/shropshire,Shropshire,16/04426/FUL,"""The Smithfield Hotel, 1 Salop Road, Oswestry, SY11 2NR""",3853754.682,-205560.3518,https://shropshire.maps.arcgis.com/apps/webappviewer/index.html?id=25b8fd6ba2fb4c878775a1aaea210576,0.05,Not owned by a public authority,,Permissioned,,,,7,,,,,2017-12-22,2017-12-22,,,
,,,,,,,,,,,,,,,,,,,http://opendatacommunities.org/id/unitary-authority/shropshire,Shropshire,16/04846/FUL,"""Land At Former Garage Site, Manor Place, Higher Heath, Whitchurch, Shropshire""",3850255.894,-178358.6515,https://shropshire.maps.arcgis.com/apps/webappviewer/index.html?id=25b8fd6ba2fb4c878775a1aaea210576,0.14,Not owned by a public authority,,Permissioned,,,,5,,,,,2017-12-22,2017-12-22,,,
,,,,,,,,,,,,,,,,,,,http://opendatacommunities.org/id/unitary-authority/shropshire,Shropshire,ALB003,"""Caravan Storage, Station Road, Albrighton""",3875723.419,-153641.0911,https://shropshire.maps.arcgis.com/apps/webappviewer/index.html?id=25b8fd6ba2fb4c878775a1aaea210576,0.22,Not owned by a public authority,,Not permissioned,,,,10,,,,"""The site is being considered within the Strategic Land Availability Assessment (SLAA). | Site is considered suitable, likely to become available, achievable and viable.""",2017-12-22,2017-12-22,,,
,,,,,,,,,,,,,,,,,,,http://opendatacommunities.org/id/unitary-authority/shropshire,Shropshire,BRID001/BRID020b,"""Land North of Wenlock Road, Tasley, Bridgnorth""",3884028.189,-165856.7717,https://shropshire.maps.arcgis.com/apps/webappviewer/index.html?id=25b8fd6ba2fb4c878775a1aaea210576,3.35,Not owned by a public authority,,Not permissioned,,,,60,,,,"""The site is allocated within the SAMDev Plan. Part of the site is brownfield (Approx 30%) and part is greenfield (Approx 70%). The brownfield element of the site is approximately 3.35ha, whilst the total site size is some 11.8ha. It is anticipated that the brownfield component of the site has a capacity for some 60 dwellings, whilst the total site capacity is some 200 dwellings. | The site is considered deliverable. | The map shows the full extent of the site and not only the brownfield area.""",2017-12-22,2017-12-22,,,
,,,,,,,,,,,,,,,,,,,http://opendatacommunities.org/id/unitary-authority/shropshire,Shropshire,BUCK001,"""Timber/Station Yard, Bucknell""",3898397.621,-200517.348,https://shropshire.maps.arcgis.com/apps/webappviewer/index.html?id=25b8fd6ba2fb4c878775a1aaea210576,1.72,Not owned by a public authority,,Not permissioned,,,,50,,,,"""The site is allocated within the SAMDev Plan. Part of the site is brownfield (Approx 65%) and part is greenfield (Approx 35%). The brownfield element of the site is approximately 1.72ha, whilst the total site size is some 3.63ha. It is anticipated that the brownfield component of the site has a capacity for some 50 dwellings, whilst the total site capacity is some 70 dwellings. | A Planning Application (13/03241/FUL) is currently pending consideration on this site. The application primarily consists of brownfield land and covers all of the brownfield land within the site allocation. | Development of the site is linked to the delivery of employment on the adjacent allocated employment site. | The site is at least in part linked to planned improvements to the Clun Catchment sewerage treatment works programmed for 2018. | The site is considered deliverable. | The map shows the full extent of the site and not only the brownfield area.""",2017-12-22,2017-12-22,,,
,,,,,,,,,,,,,,,,,,,http://opendatacommunities.org/id/unitary-authority/shropshire,Shropshire,CRA001,"""Abbatoir Site, Corvedale Road, Craven Arms""",3891477.244,-192547.7958,https://shropshire.maps.arcgis.com/apps/webappviewer/index.html?id=25b8fd6ba2fb4c878775a1aaea210576,0.85,Not owned by a public authority,,Not permissioned,,,,10,,,,"""The site is being considered within the Strategic Land Availability Assessment (SLAA). | Site is considered suitable, likely to become available, achievable and viable.""",2017-12-22,2017-12-22,,,
,,,,,,,,,,,,,,,,,,,http://opendatacommunities.org/id/unitary-authority/shropshire,Shropshire,CRA029,"""GA Motor Services and Dawson Funeral Services, Corvedale Road, Craven Arms""",3891455.509,-192516.0089,https://shropshire.maps.arcgis.com/apps/webappviewer/index.html?id=25b8fd6ba2fb4c878775a1aaea210576,0.27,Not owned by a public authority,,Not permissioned,,,,10,,,,"""The site is being considered within the Strategic Land Availability Assessment (SLAA). | Site is considered suitable, likely to become available, achievable and viable.""",2017-12-22,2017-12-22,,,
,,,,,,,,,,,,,,,,,,,http://opendatacommunities.org/id/unitary-authority/shropshire,Shropshire,CST001,"""Church Stretton Car Sales, Burway Road, Church Stretton""",3882834.378,-190569.5249,https://shropshire.maps.arcgis.com/apps/webappviewer/index.html?id=25b8fd6ba2fb4c878775a1aaea210576,0.1,Not owned by a public authority,,Not permissioned,,,,8,,,,"""The site is being considered within the Strategic Land Availability Assessment (SLAA). | Site is considered suitable, likely to become available, achievable and viable.""",2017-12-22,2017-12-22,,,
,,,,,,,,,,,,,,,,,,,http://opendatacommunities.org/id/unitary-authority/shropshire,Shropshire,CST002,"""Crown Carpets, Burway Road, Church Stretton""",3882834.779,-190559.5297,https://shropshire.maps.arcgis.com/apps/webappviewer/index.html?id=25b8fd6ba2fb4c878775a1aaea210576,0.1,Not owned by a public authority,,Not permissioned,,,,8,,,,"""The site is being considered within the Strategic Land Availability Assessment (SLAA). | Site is considered suitable, likely to become available, achievable and viable.""",2017-12-22,2017-12-22,,,
,,,,,,,,,,,,,,,,,,,http://opendatacommunities.org/id/unitary-authority/shropshire,Shropshire,DUDH006,"""Ravenscroft Haulage Site, Dudleston Heath""",3848414.017,-197574.0653,https://shropshire.maps.arcgis.com/apps/webappviewer/index.html?id=25b8fd6ba2fb4c878775a1aaea210576,0.48,Not owned by a public authority,,Not permissioned,,,,7,,,,"""The site is allocated within the SAMDev Plan. Part of the site is brownfield (Approx 35%) and part is greenfield (Approx 65%). The brownfield element of the site is approximately 0.48ha, whilst the total site size is some 1.39ha. It is anticipated that the brownfield component of the site has a capacity for some 7 dwellings, whilst the total site capacity is some 20 dwellings. | The site is considered deliverable. | The map shows the full extent of the site and not only the brownfield area.""",2017-12-22,2017-12-22,,,
,,,,,,,,,,,,,,,,,,,http://opendatacommunities.org/id/unitary-authority/shropshire,Shropshire,IRN001,"""Former Ironbridge Power Station, Buildwas Road, Shropshire""",3875415.423,-170413.6948,https://shropshire.maps.arcgis.com/apps/webappviewer/index.html?id=25b8fd6ba2fb4c878775a1aaea210576,43.42,Not owned by a public authority,,Not permissioned,,,,200,,,,"""The site is a strategic site that has been identified within the Local Plan Review. | Part of the site is brownfield (Approx 30%) and part is greenfield (Approx 70%). | The brownfield element of the site is approximately ha, whilst the total site size is some 142ha. | It is anticipated that the brownfield component of the site has a capacity for around 200 dwellings, whilst the total site has capacity for around 1,000 dwellings. | Development of the site will involve significant employment development. | The site is considered deliverable in accordance with the timescales detailed in the Masterplan. | The map shows the full extent of the site and not only the brownfield area.""",2017-12-22,2017-12-22,,,
,,,,,,,,,,,,,,,,,,,http://opendatacommunities.org/id/unitary-authority/shropshire,Shropshire,LUD022,"""Morris Bufton, Galdeford, Ludlow""",3898146.538,-184770.2569,https://shropshire.maps.arcgis.com/apps/webappviewer/index.html?id=25b8fd6ba2fb4c878775a1aaea210576,1.36,Not owned by a public authority,,Not permissioned,,,,30,,,,"""Part of the site has recently been granted Planning Permission for a new commercial unit and associated infrastructure. | Much of the remainder of the site is currently occupied, however it is considered that the site will become available for residential development in the future. The site is considered suitable, achievable and viable"".",2017-12-22,2017-12-22,,,
,,,,,,,,,,,,,,,,,,,http://opendatacommunities.org/id/unitary-authority/shropshire,Shropshire,MDR001,"""77 - 83 Shropshire Street, Market Drayton""",3851724.086,-167424.5363,https://shropshire.maps.arcgis.com/apps/webappviewer/index.html?id=25b8fd6ba2fb4c878775a1aaea210576,0.08,Not owned by a public authority,,Not permissioned,,,,5,,,,"""The site is being considered within the Strategic Land Availability Assessment (SLAA). | Site is considered suitable, likely to become available, achievable and viable.""",2017-12-22,2017-12-22,,,
,,,,,,,,,,,,,,,,,,,http://opendatacommunities.org/id/unitary-authority/shropshire,Shropshire,MDR002,"""Car Sales Area, Salisbury Road, Market Drayton""",3851927.282,-168358.5159,https://shropshire.maps.arcgis.com/apps/webappviewer/index.html?id=25b8fd6ba2fb4c878775a1aaea210576,0.14,Not owned by a public authority,,Not permissioned,,,,5,,,,"""The site is being considered within the Strategic Land Availability Assessment (SLAA). | Site is considered suitable, likely to become available, achievable and viable.""",2017-12-22,2017-12-22,,,
,,,,,,,,,,,,,,,,,,,http://opendatacommunities.org/id/unitary-authority/shropshire,Shropshire,MDR003,"""Haulage Yard, Market Drayton""",3851094.076,-166056.2537,https://shropshire.maps.arcgis.com/apps/webappviewer/index.html?id=25b8fd6ba2fb4c878775a1aaea210576,0.19,Not owned by a public authority,,Not permissioned,,,,10,,,,"""The site is being considered within the Strategic Land Availability Assessment (SLAA). | Part of the site is brownfield (Approx 85%) and part is greenfield (Approx 15%). The brownfield element of the site is approximately 0.19ha, whilst the total site size is some 0.23ha. Redevelopment of the brownfield element of the site for around 10 dwellings, whilst the total site capacity is some 12 dwellings. |Site is considered suitable, likely to become available, achievable and viable.""",2017-12-22,2017-12-22,,,
,,,,,,,,,,,,,,,,,,,http://opendatacommunities.org/id/unitary-authority/shropshire,Shropshire,MDR004,"""Cricket Club, Betton Road, Market Drayton""",3851184.683,-166467.8086,https://shropshire.maps.arcgis.com/apps/webappviewer/index.html?id=25b8fd6ba2fb4c878775a1aaea210576,0.29,Not owned by a public authority,,Not permissioned,,,,11,,,,"""The site is being considered within the Strategic Land Availability Assessment (SLAA). | Site is considered suitable, likely to become available, achievable and viable.""",2017-12-22,2017-12-22,,,
,,,,,,,,,,,,,,,,,,,http://opendatacommunities.org/id/unitary-authority/shropshire,Shropshire,MDR026,"""Pet Market, Shrewsbury Road, Market Drayton""",3851793.383,-168100.5996,https://shropshire.maps.arcgis.com/apps/webappviewer/index.html?id=25b8fd6ba2fb4c878775a1aaea210576,0.14,Not owned by a public authority,,Not permissioned,,,,5,,,,"""The site is being considered within the Strategic Land Availability Assessment (SLAA). | Site is considered suitable, available, achievable and viable.""",2017-12-22,2017-12-22,,,
,,,,,,,,,,,,,,,,,,,http://opendatacommunities.org/id/unitary-authority/shropshire,Shropshire,MIN004,"""The Garage, Minsterley, Shrewsbury, Shropshire, SY5 0BW""",3873364.373,-197585.368,https://shropshire.maps.arcgis.com/apps/webappviewer/index.html?id=25b8fd6ba2fb4c878775a1aaea210576,0.56,Not owned by a public authority,,Not permissioned,,,,13,,,,"""The site is being considered within the Strategic Land Availability Assessment (SLAA). | Site is considered suitable, available, achievable and viable.""",2017-12-22,2017-12-22,,,
,,,,,,,,,,,,,,,,,,,http://opendatacommunities.org/id/unitary-authority/shropshire,Shropshire,MUW001,"""Smithfield Works, Much Wenlock""",3878670.089,-173552.2061,https://shropshire.maps.arcgis.com/apps/webappviewer/index.html?id=25b8fd6ba2fb4c878775a1aaea210576,0.55,Not owned by a public authority,,Not permissioned,,,,10,,,,"""The site is being considered within the Strategic Land Availability Assessment (SLAA). | Site is considered suitable, likely to become available, achievable and viable.""",2017-12-22,2017-12-22,,,
,,,,,,,,,,,,,,,,,,,http://opendatacommunities.org/id/unitary-authority/shropshire,Shropshire,OSW002,"""Health Centre/ Adult Training Centre, Victoria Rd, Oswestry""",3854067.737,-205421.1524,https://shropshire.maps.arcgis.com/apps/webappviewer/index.html?id=25b8fd6ba2fb4c878775a1aaea210576,0.73,Owned by a public authority,,Not permissioned,,,,22,,,,"""The site is being considered within the Strategic Land Availability Assessment (SLAA). | Site is considered suitable, available, achievable and viable.""",2017-12-22,2017-12-22,,,
,,,,,,,,,,,,,,,,,,,http://opendatacommunities.org/id/unitary-authority/shropshire,Shropshire,OSW005,"""Roy Evans Garage, Oak Street, Oswestry""",3853400.739,-206010.3924,https://shropshire.maps.arcgis.com/apps/webappviewer/index.html?id=25b8fd6ba2fb4c878775a1aaea210576,0.07,Not owned by a public authority,,Not permissioned,,,,5,,,,"""The site is being considered within the Strategic Land Availability Assessment (SLAA). | Site is considered suitable, likely to become available, achievable and viable.""",2017-12-22,2017-12-22,,,
,,,,,,,,,,,,,,,,,,,http://opendatacommunities.org/id/unitary-authority/shropshire,Shropshire,OSW006,"""Garages site, Whittington Road, Oswestry""",3853145.582,-204967.5936,https://shropshire.maps.arcgis.com/apps/webappviewer/index.html?id=25b8fd6ba2fb4c878775a1aaea210576,0.23,Not owned by a public authority,,Not permissioned,,,,7,,,,"""The site is being considered within the Strategic Land Availability Assessment (SLAA). | Site is considered suitable, likely to become available, achievable and viable.""",2017-12-22,2017-12-22,,,
,,,,,,,,,,,,,,,,,,,http://opendatacommunities.org/id/unitary-authority/shropshire,Shropshire,OSW042,"""Richard Burbidge, Oswestry""",3853196.466,-204780.2068,https://shropshire.maps.arcgis.com/apps/webappviewer/index.html?id=25b8fd6ba2fb4c878775a1aaea210576,4.25,Not owned by a public authority,,Permissioned,,,,183,,,,"""The site is brownfield and has been allocated within the SAMDev Plan. | Part of the site benefits from Planning Permission granted on the 18/02/2016 (15/03727/FUL) for 53 dwellings. |The remainder of the site does not yet have Planning Permission but has a capacity for around 130 dwellings. |All elements of the site are considered deliverable.""",2017-12-22,2017-12-22,,,
,,,,,,,,,,,,,,,,,,,http://opendatacommunities.org/id/unitary-authority/shropshire,Shropshire,SHF003,"""Former Magistrates Court and Fire Station, Shifnal""",3872821.727,-160704.8651,https://shropshire.maps.arcgis.com/apps/webappviewer/index.html?id=25b8fd6ba2fb4c878775a1aaea210576,0.09,Not owned by a public authority,,Permissioned,,,,7,,,,"""The site is being considered within the Strategic Land Availability Assessment (SLAA). | Site has recently been granted Full Planning Permission (17/01565/FUL) for the erection of 7 apartments (in 2 blocks). | Planning Permission was granted after 31st March 2017, the base date for the current Housing Land Supply. | Site is considered suitable, available, achievable and viable.""",2017-12-22,2017-12-22,,,
,,,,,,,,,,,,,,,,,,,http://opendatacommunities.org/id/unitary-authority/shropshire,Shropshire,SHF004,"""Land to the rear of Jaspers, Shrewsbury Road, Shifnal""",3872915.343,-160713.1395,https://shropshire.maps.arcgis.com/apps/webappviewer/index.html?id=25b8fd6ba2fb4c878775a1aaea210576,0.11,Not owned by a public authority,,Not permissioned,,,,5,,,,"""The site is being considered within the Strategic Land Availability Assessment (SLAA). | Site is considered suitable, likely to become available, achievable and viable.""",2017-12-22,2017-12-22,,,
,,,,,,,,,,,,,,,,,,,http://opendatacommunities.org/id/unitary-authority/shropshire,Shropshire,SHF027,"""Garage off Bradford Street, Shifnal""",3872890.744,-160519.0878,https://shropshire.maps.arcgis.com/apps/webappviewer/index.html?id=25b8fd6ba2fb4c878775a1aaea210576,0.23,Not owned by a public authority,,Not permissioned,,,,5,,,,"""The site is being considered within the Strategic Land Availability Assessment (SLAA). | Site is considered suitable, available, achievable and viable.""",2017-12-22,2017-12-22,,,
,,,,,,,,,,,,,,,,,,,http://opendatacommunities.org/id/unitary-authority/shropshire,Shropshire,SHR002,"""The Hollies, Sutton Road, Shrewsbury""",3868941.31,-184594.2413,https://shropshire.maps.arcgis.com/apps/webappviewer/index.html?id=25b8fd6ba2fb4c878775a1aaea210576,0.3,Not owned by a public authority,,Not permissioned,,,,18,,,,"""The site is being considered within the Strategic Land Availability Assessment (SLAA). | The site is considered suitable, available, achievable and viable for development. | Part of the site is brownfield (Approx 70%) and part is greenfield (Approx 30%). | The brownfield element of the site is approximately 0.30ha, whilst the total site size is some 0.42ha. | The site is located within a conservation area and contains an attractive older building, which it is anticipated would be retained and converted to dwellings. | It is anticipated that all the development would occur on the brownfield component of the site which has a capacity for around 18 dwellings. | The map shows the full extent of the site and not only the brownfield area.""",2017-12-22,2017-12-22,,,
,,,,,,,,,,,,,,,,,,,http://opendatacommunities.org/id/unitary-authority/shropshire,Shropshire,SHR003,"""Richmond House, Harlescott, Shrewsbury""",3865244.322,-184930.572,https://shropshire.maps.arcgis.com/apps/webappviewer/index.html?id=25b8fd6ba2fb4c878775a1aaea210576,0.4,Owned by a public authority,,Not permissioned,,,,16,,,,"""The site is being considered within the Strategic Land Availability Assessment (SLAA). | Site is considered suitable, likely to become available, achievable and viable.""",2017-12-22,2017-12-22,,,
,,,,,,,,,,,,,,,,,,,http://opendatacommunities.org/id/unitary-authority/shropshire,Shropshire,SHR008,"""Garages, Off Belvidere Lane, Shrewsbury""",3868066.396,-184101.2872,https://shropshire.maps.arcgis.com/apps/webappviewer/index.html?id=25b8fd6ba2fb4c878775a1aaea210576,0.2,Mixed ownership,,Not permissioned,,,,5,,,,"""The site is being considered within the Strategic Land Availability Assessment (SLAA). | Site is considered suitable, likely to become available, achievable and viable.""",2017-12-22,2017-12-22,,,
,,,,,,,,,,,,,,,,,,,http://opendatacommunities.org/id/unitary-authority/shropshire,Shropshire,SHR009,"""Shrewsbury Prison, Dana, Shrewsbury""",3867830.122,-185661.5049,https://shropshire.maps.arcgis.com/apps/webappviewer/index.html?id=25b8fd6ba2fb4c878775a1aaea210576,1.1,Not owned by a public authority,,Permissioned,,,,78,,,,"""The site is being considered within the Strategic Land Availability Assessment (SLAA). | Site has recently been granted Outline Planning Permission (17/02809/OUT) for a mixed use development, including the formation of 78 dwellings. | Planning Permission was granted after 31st March 2017, the base date for the current Housing Land Supply. | Site is considered suitable, available, achievable and viable.""",2017-12-22,2017-12-22,,,
,,,,,,,,,,,,,,,,,,,http://opendatacommunities.org/id/unitary-authority/shropshire,Shropshire,SHR014,"""New Zealand House, Abbey Foregate""",3868288.405,-185273.1132,https://shropshire.maps.arcgis.com/apps/webappviewer/index.html?id=25b8fd6ba2fb4c878775a1aaea210576,0.27,Not owned by a public authority,,Not permissioned,,,,30,,,,"""The site is being considered within the Strategic Land Availability Assessment (SLAA). | Site is considered suitable, available, achievable and viable.""",2017-12-22,2017-12-22,,,
,,,,,,,,,,,,,,,,,,,http://opendatacommunities.org/id/unitary-authority/shropshire,Shropshire,SHR015,"""Land at Whitehall, Shrewsbury""",3868214.509,-184947.2354,https://shropshire.maps.arcgis.com/apps/webappviewer/index.html?id=25b8fd6ba2fb4c878775a1aaea210576,0.9,Not owned by a public authority,,Not permissioned,,,,45,,,,"""The site is being considered within the Strategic Land Availability Assessment (SLAA). | Site is considered suitable, likely to become available, achievable and viable.""",2017-12-22,2017-12-22,,,
,,,,,,,,,,,,,,,,,,,http://opendatacommunities.org/id/unitary-authority/shropshire,Shropshire,SHR016,"""Shrewsbury Training and Development Centre, Racecourse Crescent, Shrewsbury""",3867747.079,-184722.732,https://shropshire.maps.arcgis.com/apps/webappviewer/index.html?id=25b8fd6ba2fb4c878775a1aaea210576,0.3,Owned by a public authority,,Not permissioned,,,,16,,,,"""The site is being considered within the Strategic Land Availability Assessment (SLAA). | Site is considered suitable, likely to become available, achievable and viable.""",2017-12-22,2017-12-22,,,
,,,,,,,,,,,,,,,,,,,http://opendatacommunities.org/id/unitary-authority/shropshire,Shropshire,TER001,"""Clive Barracks at Tern Hill, Shropshire""",3853873.563,-170721.6347,https://shropshire.maps.arcgis.com/apps/webappviewer/index.html?id=25b8fd6ba2fb4c878775a1aaea210576,50,Owned by a public authority,,Not permissioned,,,,500,,,,"""The site is a strategic site that has been identified within the Local Plan Review. | The majority of the 50ha site is brownfield. It is anticipated that it has capacity for around 500 dwellings; 12ha of employment land; and appropriate community and leisure facilities associated with a development of this scale.  | It is anticipated that much of the delivery on this site will occur beyond the next 15 years.""",2017-12-22,2017-12-22,,,
,,,,,,,,,,,,,,,,,,,http://opendatacommunities.org/id/unitary-authority/shropshire,Shropshire,WHT001,"""Garages on Wayland Close, Whitchurch""",3845601.546,-179686.5893,https://shropshire.maps.arcgis.com/apps/webappviewer/index.html?id=25b8fd6ba2fb4c878775a1aaea210576,0.06,Not owned by a public authority,,Not permissioned,,,,5,,,,"""The site is being considered within the Strategic Land Availability Assessment (SLAA). | Site is considered suitable, likely to become available, achievable and viable.""",2017-12-22,2017-12-22,,,
,,,,,,,,,,,,,,,,,,,http://opendatacommunities.org/id/unitary-authority/shropshire,Shropshire,WRN016,"""Land at the Sawmills, Rhoswiel""",3848652.718,-204888.7991,https://shropshire.maps.arcgis.com/apps/webappviewer/index.html?id=25b8fd6ba2fb4c878775a1aaea210576,1.2,Not owned by a public authority,,Not permissioned,,,,33,,,,"""The site is allocated within the SAMDev Plan. The site is 100% brownfield and has a capacity for some 33 dwellings. | The site is considered deliverable.""",2017-12-22,2017-12-22,,,
