address,address-text,deliverable,end-date,entry-date,hazardous-substances,hectares,latitude,longitude,maximum-net-dwellings,minimum-net-dwellings,notes,organisation,ownership-status,planning-permission-date,planning-permission-history,planning-permission-status,planning-permission-type,site,OrganisationURI,OrganisationLabel,SiteReference,SiteNameAddress,GeoX,GeoY,SiteplanURL,Hectares,OwnershipStatus,HazardousSubstances,PlanningStatus,PermissionType,PermissionDate,PlanningHistory,MinNetDwellings,NetDwellingsRangeFrom,NetDwellingsRangeTo,Deliverable,Notes,FirstAddedDate,LastUpdatedDate,EndDate,site-plan-url,start-date
,,,,,,,,,,,,,,,,,,,http://opendatacommunities.org/id/district-council/worcester,Worcester City Council,,Carden Street Opportunity Zone,52.19044,-2.215937,https://www.worcester.gov.uk/?option=com_fileman&view=file&routed=1&name=Carden%20Street%20Opportunity%20Zone%20-%20Site%20Plan.pdf&folder=PDF%20Documents%2FPlanning%2Fplanning_policy%2Fbrownfieldsites&container=fileman-files,3.9,mixed ownership,,not permissioned,,,,,,,,,04/08/2017,17/12/2019,,,
,,,,,,,,,,,,,,,,,,,http://opendatacommunities.org/id/district-council/worcester,Worcester City Council,,Shrub Hill Opportunity Zone,52.195266,-2.211276,https://www.worcester.gov.uk/?option=com_fileman&view=file&routed=1&name=Shrub%20Hill%20Opportunity%20Zone%20-%20Site%20Plan.pdf&folder=PDF%20Documents%2FPlanning%2Fplanning_policy%2Fbrownfieldsites&container=fileman-files,19.72,not owned by a public authority,,not permissioned,,,,,,,,,04/08/2017,17/12/2019,,,
,,,,,,,,,,,,,,,,,,,http://opendatacommunities.org/id/district-council/worcester,Worcester City Council,,23-24 Foregate Street,52.196156,-2.221975,https://www.worcester.gov.uk/?option=com_fileman&view=file&routed=1&name=23-24%20Foregate%20Street.pdf&folder=PDF%20Documents%2FPlanning%2Fplanning_policy%2Fbrownfieldsites&container=fileman-files,0.1,not owned by a public authority,,not permissioned,,,,10,,10,,,04/08/2017,17/12/2019,,,
,,,,,,,,,,,,,,,,,,,http://opendatacommunities.org/id/district-council/worcester,Worcester City Council,,"Commandery Coach Depot, Tolladine Road",52.207448,-2.180756,https://www.worcester.gov.uk/?option=com_fileman&view=file&routed=1&name=Commandery%20Coach%20Depot%2C%20Tolladine%20Road%20-%20Site%20Plan.pdf&folder=PDF%20Documents%2FPlanning%2Fplanning_policy%2Fbrownfieldsites&container=fileman-files,0.07,not owned by a public authority,,not permissioned,,,,7,,7,,,04/08/2017,17/12/2019,,,
,,,,,,,,,,,,,,,,,,,http://opendatacommunities.org/id/district-council/worcester,Worcester City Council,,Rose Avenue,52.198356,-2.201603,https://www.worcester.gov.uk/?option=com_fileman&view=file&routed=1&name=Rose%20Avenue%20-%20Site%20Plan.pdf&folder=PDF%20Documents%2FPlanning%2Fplanning_policy%2Fbrownfieldsites&container=fileman-files,0.18,not owned by a public authority,,not permissioned,,,,8,,8,,,04/08/2017,17/12/2019,,,
,,,,,,,,,,,,,,,,,,,http://opendatacommunities.org/id/district-council/worcester,Worcester City Council,,"The Bridge Inn, Lowesmoor Terrace",52.195967,-2.215645,https://www.worcester.gov.uk/?option=com_fileman&view=file&routed=1&name=The%20Bridge%20Inn%2C%20Lowesmoor%20Terrace%20-%20Site%20Plan.pdf&folder=PDF%20Documents%2FPlanning%2Fplanning_policy%2Fbrownfieldsites&container=fileman-files,0.1,not owned by a public authority,,not permissioned,,,,9,,9,,,04/08/2017,17/12/2019,,,
,,,,,,,,,,,,,,,,,,,http://opendatacommunities.org/id/district-council/worcester,Worcester City Council,,79 St Johns,52.186872,-2.235188,https://www.worcester.gov.uk/?option=com_fileman&view=file&routed=1&name=79%20St%20Johns%20-%20Site%20Plan.pdf&folder=PDF%20Documents%2FPlanning%2Fplanning_policy%2Fbrownfieldsites&container=fileman-files,0.05,not owned by a public authority,,pending decision,,,,10,,10,,,04/08/2017,17/12/2019,,,
,,,,,,,,,,,,,,,,,,,http://opendatacommunities.org/id/district-council/worcester,Worcester City Council,,"Former Club House, Tolladine Golf Course",52.199268,-2.188366,https://www.worcester.gov.uk/?option=com_fileman&view=file&routed=1&name=Former%20Club%20House%20Tolladine%20Golf%20Course%20-%20Site%20Plan.pdf&folder=PDF%20Documents%2FPlanning%2Fplanning_policy%2Fbrownfieldsites&container=fileman-files,0.5,not owned by a public authority,,not permissioned,,,,15,,15,,,04/08/2017,17/12/2019,,,
,,,,,,,,,,,,,,,,,,,http://opendatacommunities.org/id/district-council/worcester,Worcester City Council,,"Laugherne Garage, Bransford Road",52.183961,-2.253973,https://www.worcester.gov.uk/?option=com_fileman&view=file&routed=1&name=Bransford%20Road%20-%20Site%20Plan.pdf&folder=PDF%20Documents%2FPlanning%2Fplanning_policy%2Fbrownfieldsites&container=fileman-files,0.44,not owned by a public authority,,not permissioned,,,,10,,10,,,04/08/2017,17/12/2019,,,
,,,,,,,,,,,,,,,,,,,http://opendatacommunities.org/id/district-council/worcester,Worcester City Council,,"County Council Offices, Bilford Road",52.213017,-2.216007,https://www.worcester.gov.uk/?option=com_fileman&view=file&routed=1&name=Bilford%20Road%20-%20Site%20Plan.pdf&folder=PDF%20Documents%2FPlanning%2Fplanning_policy%2Fbrownfieldsites&container=fileman-files,0.67,owned by a public authority,,not permissioned,,,,20,,20,,,04/08/2017,17/12/2019,,,
,,,,,,,,,,,,,,,,,,,http://opendatacommunities.org/id/district-council/worcester,Worcester City Council,,"County Council Offices, Sherwood Lane",52.17502,-2.237981,https://www.worcester.gov.uk/?option=com_fileman&view=file&routed=1&name=Sherwood%20Lane%20-%20Site%20Plan.pdf&folder=PDF%20Documents%2FPlanning%2Fplanning_policy%2Fbrownfieldsites&container=fileman-files,0.5,owned by a public authority,,not permissioned,,,,30,,30,,,04/08/2017,17/12/2019,,,
,,,,,,,,,,,,,,,,,,,http://opendatacommunities.org/id/district-council/worcester,Worcester City Council,,"Malvern Gate, Bromwich Road",52.173761,-2.234108,https://www.worcester.gov.uk/?option=com_fileman&view=file&routed=1&name=Malvern%20Gate%20-%20Site%20Plan.pdf&folder=PDF%20Documents%2FPlanning%2Fplanning_policy%2Fbrownfieldsites&container=fileman-files,1.28,not owned by a public authority,,not permissioned,,,,55,,55,,,04/08/2017,17/12/2019,,,
,,,,,,,,,,,,,,,,,,,http://opendatacommunities.org/id/district-council/worcester,Worcester City Council,,Lowesmoor Wharf,52.195718,-2.216588,https://www.worcester.gov.uk/?option=com_fileman&view=file&routed=1&name=Lowesmoor%20Wharf%20-%20Site%20Plan.pdf&folder=PDF%20Documents%2FPlanning%2Fplanning_policy%2Fbrownfieldsites&container=fileman-files,1.14,not owned by a public authority,,not permissioned,,,,100,,100,,,04/08/2017,17/12/2019,,,
,,,,,,,,,,,,,,,,,,,http://opendatacommunities.org/id/district-council/worcester,Worcester City Council,,73-77 Bromwich Road,52.183613,-2.230961,https://www.worcester.gov.uk/?option=com_fileman&view=file&routed=1&name=Western%20Power%20Distribution%20Power%20Depot%20-%20Site%20Plan.pdf&folder=PDF%20Documents%2FPlanning%2Fplanning_policy%2Fbrownfieldsites&container=fileman-files,0.14,not owned by a public authority,,not permissioned,,,,11,,11,,,04/08/2017,17/12/2019,,,
,,,,,,,,,,,,,,,,,,,http://opendatacommunities.org/id/district-council/worcester,Worcester City Council,,"Old Brewery Service Station, Barbourne Road",52.202013,-2.2261,https://www.worcester.gov.uk/?option=com_fileman&view=file&routed=1&name=Old%20Brewery%20Service%20Station%20-%20Site%20Plan.pdf&folder=PDF%20Documents%2FPlanning%2Fplanning_policy%2Fbrownfieldsites&container=fileman-files,0.14,not owned by a public authority,,not permissioned,,,,18,,18,,,04/08/2017,17/12/2019,,,
,,,,,,,,,,,,,,,,,,,http://opendatacommunities.org/id/district-council/worcester,Worcester City Council,,Former Sansome Walk Swimming Pool,52.199018,-2.220537,https://www.worcester.gov.uk/?option=com_fileman&view=file&routed=1&name=Sansome%20Walk%20-%20Site%20Plan.pdf&folder=PDF%20Documents%2FPlanning%2Fplanning_policy%2Fbrownfieldsites&container=fileman-files,0.8,owned by a public authority,,not permissioned,,,,50,,35,,,04/08/2017,17/12/2019,,,
,,,,,,,,,,,,,,,,,,,http://opendatacommunities.org/id/district-council/worcester,Worcester City Council,,Ribble Close & Gas Holder Site,52.190268,-2.203305,https://www.worcester.gov.uk/?option=com_fileman&view=file&routed=1&name=Ribble%20Close%20-%20Site%20Plan.pdf&folder=PDF%20Documents%2FPlanning%2Fplanning_policy%2Fbrownfieldsites&container=fileman-files,1.2,not owned by a public authority,,not permissioned,,,,50,,50,,,04/08/2017,17/12/2019,,,
,,,,,,,,,,,,,,,,,,,http://opendatacommunities.org/id/district-council/worcester,Worcester City Council,,24a McIntrye Road,52.19055,-2.24061,https://www.worcester.gov.uk/?option=com_fileman&view=file&routed=1&name=24a%20McIntyre%20Road.pdf&folder=PDF%20Documents%2FPlanning%2Fplanning_policy%2Fbrownfieldsites&container=fileman-files,0.08,not owned by a public authority,,permissioned,,,,5,,5,,,20/12/2018,17/12/2019,,,
,,,,,,,,,,,,,,,,,,,http://opendatacommunities.org/id/district-council/worcester,Worcester City Council,,Former Worcester Fire Station,52.190562,-2.221496,https://www.worcester.gov.uk/?option=com_fileman&view=file&routed=1&name=Former%20Fire%20Station.pdf&folder=PDF%20Documents%2FPlanning%2Fplanning_policy%2Fbrownfieldsites&container=fileman-files,0.16,not owned by a public authority,,permissioned,,,,9,,9,,,20/12/2018,17/12/2019,,,
,,,,,,,,,,,,,,,,,,,http://opendatacommunities.org/id/district-council/worcester,Worcester City Council,,Land adjacent to 18-20 Silver Street,52.19416,-2.2183,https://www.worcester.gov.uk/?option=com_fileman&view=file&routed=1&name=Land%20adj%20to%2018-20%20Silver%20Street.pdf&folder=PDF%20Documents%2FPlanning%2Fplanning_policy%2Fbrownfieldsites&container=fileman-files,0.05,not owned by a public authority,,permissioned,,,,9,,10,,,20/12/2018,17/12/2019,,,
,,,,,,,,,,,,,,,,,,,http://opendatacommunities.org/id/district-council/worcester,Worcester City Council,,137 Bath Road,52.18174,-2.21696,https://www.worcester.gov.uk/?option=com_fileman&view=file&routed=1&name=137%20Bath%20Road.pdf&folder=PDF%20Documents%2FPlanning%2Fplanning_policy%2Fbrownfieldsites&container=fileman-files,0.13,not owned by a public authority,,permissioned,,,,5,,5,,,20/12/2018,17/12/2019,,,
,,,,,,,,,,,,,,,,,,,http://opendatacommunities.org/id/district-council/worcester,Worcester City Council,,Wyatt Guest House 40 Barbourne Road,52.20268,-2.22592,https://www.worcester.gov.uk/?option=com_fileman&view=file&routed=1&name=Wyatt%20Guest%20House%2040%20Barbourne%20Road.pdf&folder=PDF%20Documents%2FPlanning%2Fplanning_policy%2Fbrownfieldsites&container=fileman-files,0.02,not owned by a public authority,,permissioned,,,,6,,6,,,20/12/2018,17/12/2019,,,
,,,,,,,,,,,,,,,,,,,http://opendatacommunities.org/id/district-council/worcester,Worcester City Council,,"YMCA Hostel, Henwick Road",52.19297,-2.23613,https://www.worcester.gov.uk/?option=com_fileman&view=file&routed=1&name=YMCA%20Hostel%2C%20Henwick%20Road.pdf&folder=PDF%20Documents%2FPlanning%2Fplanning_policy%2Fbrownfieldsites&container=fileman-files,0.97,not owned by a public authority,,permissioned,,,,63,,87,,,20/12/2018,17/12/2019,,,
,,,,,,,,,,,,,,,,,,,http://opendatacommunities.org/id/district-council/worcester,Worcester City Council,,The Crown and Anchor 223 Hylton Road,52.1967,-2.23583,https://www.worcester.gov.uk/?option=com_fileman&view=file&routed=1&name=The%20Crown%20and%20Anchor%20223%20Hylton%20Road.pdf&folder=PDF%20Documents%2FPlanning%2Fplanning_policy%2Fbrownfieldsites&container=fileman-files,0.03,not owned by a public authority,,permissioned,,,,6,,6,,,20/12/2018,17/12/2019,,,
,,,,,,,,,,,,,,,,,,,http://opendatacommunities.org/id/district-council/worcester,Worcester City Council,,Jenkins House 15 Foregate Street,52.19535,-2.22191,https://www.worcester.gov.uk/?option=com_fileman&view=file&routed=1&name=Jenkins%20House%2015%20Foregate%20Street.pdf&folder=PDF%20Documents%2FPlanning%2Fplanning_policy%2Fbrownfieldsites&container=fileman-files,0.01,not owned by a public authority,,permissioned,,,,8,,8,,,20/12/2018,17/12/2019,,,
,,,,,,,,,,,,,,,,,,,http://opendatacommunities.org/id/district-council/worcester,Worcester City Council,,12 Sansome Place,52.19519,-2.21949,https://www.worcester.gov.uk/?option=com_fileman&view=file&routed=1&name=12%20Sansome%20Place.pdf&folder=PDF%20Documents%2FPlanning%2Fplanning_policy%2Fbrownfieldsites&container=fileman-files,0.01,not owned by a public authority,,permissioned,,,,6,,6,,,20/12/2018,17/12/2019,,,
,,,,,,,,,,,,,,,,,,,http://opendatacommunities.org/id/district-council/worcester,Worcester City Council,,5 Bull Ring,52.18843,-2.23301,https://www.worcester.gov.uk/?option=com_fileman&view=file&routed=1&name=5%20Bull%20Ring.pdf&folder=PDF%20Documents%2FPlanning%2Fplanning_policy%2Fbrownfieldsites&container=fileman-files,0.07,not owned by a public authority,,permissioned,,,,6,,6,,,20/12/2018,17/12/2019,,,
,,,,,,,,,,,,,,,,,,,http://opendatacommunities.org/id/district-council/worcester,Worcester City Council,,St Martins Quarter,52.19295,-2.21643,https://www.worcester.gov.uk/?option=com_fileman&view=file&routed=1&name=St%20Martins%20Quarter.pdf&folder=PDF%20Documents%2FPlanning%2Fplanning_policy%2Fbrownfieldsites&container=fileman-files,0.23,not owned by a public authority,,permissioned,,,,98,,98,,,20/12/2018,17/12/2019,,,
,,,,,,,,,,,,,,,,,,,http://opendatacommunities.org/id/district-council/worcester,Worcester City Council,,The Great Western Hotel,52.19451,-2.21188,https://www.worcester.gov.uk/?option=com_fileman&view=file&routed=1&name=P16D0146%20Great%20Western%20Hotel.pdf&folder=PDF%20Documents%2FPlanning%2Fplanning_policy%2Fbrownfieldsites&container=fileman-files,0.09,not owned by a public authority,,permissioned,,,,7,,7,,,17/12/2019,17/12/2019,,,
,,,,,,,,,,,,,,,,,,,http://opendatacommunities.org/id/district-council/worcester,Worcester City Council,,"14-20 Barbourne Road, Worcester",52.20171,-2.22524,https://www.worcester.gov.uk/?option=com_fileman&view=file&routed=1&name=P17A0348%2014-20%20Barbourne%20Road.pdf&folder=PDF%20Documents%2FPlanning%2Fplanning_policy%2Fbrownfieldsites&container=fileman-files,0.08,not owned by a public authority,,permissioned,,,,25,,25,,,17/12/2019,17/12/2019,,,
,,,,,,,,,,,,,,,,,,,http://opendatacommunities.org/id/district-council/worcester,Worcester City Council,,"land at Cranham Drive, Worcester, WR4 9PH",52.21365,-2.18767,https://www.worcester.gov.uk/?option=com_fileman&view=file&routed=1&name=P17N0594%20Land%20at%20Cranham%20Drive.pdf&folder=PDF%20Documents%2FPlanning%2Fplanning_policy%2Fbrownfieldsites&container=fileman-files,0.58,not owned by a public authority,,permissioned,,,,34,,34,,,17/12/2019,17/12/2019,,,
,,,,,,,,,,,,,,,,,,,http://opendatacommunities.org/id/district-council/worcester,Worcester City Council,,"UNITS 19-22Reindeer Court, Mealcheapen Street, Worcester, WR1 2DS",52.19236,-2.21911,https://www.worcester.gov.uk/?option=com_fileman&view=file&routed=1&name=P18D0483%20Units%2019-22%20Reindeer%20Court%2C%20Mealcheapen%20Street..pdf&folder=PDF%20Documents%2FPlanning%2Fplanning_policy%2Fbrownfieldsites&container=fileman-files,0.1,not owned by a public authority,,permissioned,,,,5,,5,,,17/12/2019,17/12/2019,,,
,,,,,,,,,,,,,,,,,,,http://opendatacommunities.org/id/district-council/worcester,Worcester City Council,,Sherriffe Gate,52.19452,-2.20723,https://www.worcester.gov.uk/?option=com_fileman&view=file&routed=1&name=P12G0199%20Sherriffe%20Gate.pdf&folder=PDF%20Documents%2FPlanning%2Fplanning_policy%2Fbrownfieldsites&container=fileman-files,4.3,not owned by a public authority,,permissioned,,,,396,,396,,,17/12/2019,17/12/2019,,,
,,,,,,,,,,,,,,,,,,,http://opendatacommunities.org/id/district-council/worcester,Worcester City Council,,"Worcestershire County Schools Library Service, Sherwood Lane Worcester,WR2 4NU",52.17502,-2.238,https://www.worcester.gov.uk/?option=com_fileman&view=file&routed=1&name=P18C0468%20WC%20Schools%20Library%20Service.pdf&folder=PDF%20Documents%2FPlanning%2Fplanning_policy%2Fbrownfieldsites&container=fileman-files,0.5,not owned by a public authority,,permissioned,,,,9,,9,,,17/12/2019,17/12/2019,,,
,,,,,,,,,,,,,,,,,,,http://opendatacommunities.org/id/district-council/worcester,Worcester City Council,,"Former car park and land to the rear of 1- 11 Cecil Road, Worcester",52.19169,-2.21236,https://www.worcester.gov.uk/?option=com_fileman&view=file&routed=1&name=P18D0101%20Former%20car%20park%20and%20land%20to%20the%20rear%20of%201-11%20Cecil%20Road.pdf&folder=PDF%20Documents%2FPlanning%2Fplanning_policy%2Fbrownfieldsites&container=fileman-files,0.1533,not owned by a public authority,,permissioned,,,,16,,16,,,17/12/2019,17/12/2019,,,
,,,,,,,,,,,,,,,,,,,http://opendatacommunities.org/id/district-council/worcester,Worcester City Council,,"8 Henwick Road, Worcester, WR2 5NR",52.18924,-2.23328,https://www.worcester.gov.uk/?option=com_fileman&view=file&routed=1&name=P17K0096%208%20Henwick%20Road.pdf&folder=PDF%20Documents%2FPlanning%2Fplanning_policy%2Fbrownfieldsites&container=fileman-files,0.0847,not owned by a public authority,,permissioned,,,,18,,18,,,17/12/2019,17/12/2019,,,
,,,,,,,,,,,,,,,,,,,http://opendatacommunities.org/id/district-council/worcester,Worcester City Council,,"Citation House, 39 Foregate Street, Worcester",52.19617,-2.22306,https://www.worcester.gov.uk/?option=com_fileman&view=file&routed=1&name=P18D0107%20Citation%20House.pdf&folder=PDF%20Documents%2FPlanning%2Fplanning_policy%2Fbrownfieldsites&container=fileman-files,0.0712,not owned by a public authority,,permissioned,,,,38,,38,,,17/12/2019,17/12/2019,,,
,,,,,,,,,,,,,,,,,,,http://opendatacommunities.org/id/district-council/worcester,Worcester City Council,,"112-118 and 155-161 Rose Avenue and Land Adjoining, Rose Avenue, Tolladine, Worcester",52.19832,-2.20128,https://www.worcester.gov.uk/?option=com_fileman&view=file&routed=1&name=P18H0280%20112-118%20and%20155-161%20Rose%20Avenue.pdf&folder=PDF%20Documents%2FPlanning%2Fplanning_policy%2Fbrownfieldsites&container=fileman-files,0.45,not owned by a public authority,,permissioned,,,,25,,25,,,17/12/2019,17/12/2019,,,
,,,,,,,,,,,,,,,,,,,http://opendatacommunities.org/id/district-council/worcester,Worcester City Council,,"Land adjacent to 99 St Georges Lane North
Worcester
WR1 1QS",52.20474,-2.22219,https://www.worcester.gov.uk/?option=com_fileman&view=file&routed=1&name=19-00069-FUL%20Land%20adjacent%20to%2099%20St%20Georges%20Lane%20North.pdf&folder=PDF%20Documents%2FPlanning%2Fplanning_policy%2Fbrownfieldsites&container=fileman-files,0.0585,not owned by a public authority,,permissioned,,,,7,,7,,,17/12/2019,17/12/2019,,,
,,,,,,,,,,,,,,,,,,,http://opendatacommunities.org/id/district-council/worcester,Worcester City Council,,"2 Stanley Road, Worcester, WR5 1BD",52.18975,-2.21086,https://www.worcester.gov.uk/?option=com_fileman&view=file&routed=1&name=P18D0107%20Citation%20House.pdf&folder=PDF%20Documents%2FPlanning%2Fplanning_policy%2Fbrownfieldsites&container=fileman-files,0.02,not owned by a public authority,,permissioned,,,,14,,14,,,17/12/2019,17/12/2019,,,
