address,address-text,deliverable,end-date,entry-date,hazardous-substances,hectares,latitude,longitude,maximum-net-dwellings,minimum-net-dwellings,notes,organisation,ownership-status,planning-permission-date,planning-permission-history,planning-permission-status,planning-permission-type,site,OrganisationURI,OrganisationLabel,SiteReference,SiteNameAddress,GeoX,GeoY,SiteplanURL,Hectares,OwnershipStatus,HazardousSubstances,PlanningStatus,PermissionType,PermissionDate,PlanningHistory,MinNetDwellings,NetDwellingsRangeFrom,NetDwellingsRangeTo,Deliverable,Notes,FirstAddedDate,LastUpdatedDate,EndDate,site-plan-url,start-date
,,,,,,,,,,,,,,,,,,,http://opendatacommunities.org/id/unitary-authority/blackpool,Blackpool Council,BR001,"76 and 76a Kent Road, Blackpool, FY1 5ET",53.809608,-3.047988,http://maps.blackpool.gov.uk/#zoom=3&lat=434255.06959&lon=333928.83324&layers=0BTFTFFFFFFFFFFFFFFFFFFFFFFFF,0.109622575,not owned by a public authority,,permissioned,,,,12,,0,,,15/12/2017,15/12/2017,,,
,,,,,,,,,,,,,,,,,,,http://opendatacommunities.org/id/unitary-authority/blackpool,Blackpool Council,BR002,"7-11 Alfred Street, Blackpool, FY1 4LH",53.817481,-3.048737,http://maps.blackpool.gov.uk/#zoom=3&lat=434255.06959&lon=333928.83324&layers=0BTFTFFFFFFFFFFFFFFFFFFFFFFFF,0.051554366,not owned by a public authority,,permissioned,,,,14,,0,,,15/12/2017,15/12/2017,,,
,,,,,,,,,,,,,,,,,,,http://opendatacommunities.org/id/unitary-authority/blackpool,Blackpool Council,BR006,"50 Bispham Road, Blackpool, FY2 0SX",53.836554,-3.030404,http://maps.blackpool.gov.uk/#zoom=3&lat=434255.06959&lon=333928.83324&layers=0BTFTFFFFFFFFFFFFFFFFFFFFFFFF,0.090475148,not owned by a public authority,,permissioned,,,,12,,0,,,15/12/2017,15/12/2017,,,
,,,,,,,,,,,,,,,,,,,http://opendatacommunities.org/id/unitary-authority/blackpool,Blackpool Council,BR007,"Former filling Station, Norbreck Castle, Blackpool, FY2 9AB",53.859272,-3.049057,http://maps.blackpool.gov.uk/#zoom=3&lat=434255.06959&lon=333928.83324&layers=0BTFTFFFFFFFFFFFFFFFFFFFFFFFF,0.147086633,not owned by a public authority,,permissioned,,,,15,,0,,,15/12/2017,15/12/2017,,,
,,,,,,,,,,,,,,,,,,,http://opendatacommunities.org/id/unitary-authority/blackpool,Blackpool Council,BR009,"Land at Station Road/Lytham Road, Blackpool, FY4 1EU",53.795852,-3.050645,http://maps.blackpool.gov.uk/#zoom=3&lat=434255.06959&lon=333928.83324&layers=0BTFTFFFFFFFFFFFFFFFFFFFFFFFF,0.133533531,not owned by a public authority,,not permissioned,,,,10,,13,,Site is in 2014 SHLAA. Site is vacant and has been cleared. Assumed density range 80 - 100 dph reflecting inner area location.,15/12/2017,15/12/2017,,,
,,,,,,,,,,,,,,,,,,,http://opendatacommunities.org/id/unitary-authority/blackpool,Blackpool Council,BR004,"""Former Revills Hotel, 190-194 Promenade, Blackpool, FY1 1RJ",53.821627,-3.054701,http://maps.blackpool.gov.uk/#zoom=3&lat=434255.06959&lon=333928.83324&layers=0BTFTFFFFFFFFFFFFFFFFFFFFFFFF,0.116166998,not owned by a public authority,,not permissioned,,,,9,,15,,Site is in 2014 SHLAA. Density maximum reflects withdrawn application 11/0056 for 15 flats and density minimum equates to 80 dph reflecting inner area location. Site is in use as a car park.,15/12/2017,15/12/2017,,,
,,,,,,,,,,,,,,,,,,,http://opendatacommunities.org/id/unitary-authority/blackpool,Blackpool Council,BR003,"Tram Depot, Rigby Road, Blackpool, FY1 5DD",53.806643,-3.05166,http://maps.blackpool.gov.uk/#zoom=3&lat=434255.06959&lon=333928.83324&layers=0BTFTFFFFFFFFFFFFFFFFFFFFFFFF,2.610607375,owned by a public authority,,not permissioned,,,,100,,183,,Site is in 2014 SHLAA. Currently in use by Blackpool Transport. Assumed density range up to 100 dph reflecting inner area location & assuming 70% developable area due to size of site.,15/12/2017,13/12/2018,,,
,,,,,,,,,,,,,,,,,,,http://opendatacommunities.org/id/unitary-authority/blackpool,Blackpool Council,BR008,"Former Mariners Public House, 8 Norbreck Road, Blackpool, FY5 1RP",53.857045,-3.049162,http://maps.blackpool.gov.uk/#zoom=3&lat=434255.06959&lon=333928.83324&layers=0BTFTFFFFFFFFFFFFFFFFFFFFFFFF,0.112495688,not owned by a public authority,,not permissioned,,,,10,,35,,Site is in 2014 SHLAA. Density maximum reflects application 11/0967 for for 35 flats (S106 unsigned) and density minimum equates to 50 dph reflecting outer area location. Site is vacant and has been cleared.,15/12/2017,13/12/2018,,,
,,,,,,,,,,,,,,,,,,,http://opendatacommunities.org/id/unitary-authority/blackpool,Blackpool Council,BR010,"Land at former Hawes Side Clinic, Hawes Side Lane, Blackpool, FY4 5AJ",53.790548,-3.027995,http://maps.blackpool.gov.uk/#zoom=3&lat=434255.06959&lon=333928.83324&layers=0BTFTFFFFFFFFFFFFFFFFFFFFFFFF,0.171963036,owned by a public authority,,permissioned,,,,8,,0,,,15/12/2017,15/12/2017,,,
,,,,,,,,,,,,,,,,,,,http://opendatacommunities.org/id/unitary-authority/blackpool,Blackpool Council,BR005,"Land at Coleridge Road/George Street, Blackpool, FY1 3RP",53.823605,-3.040363,http://maps.blackpool.gov.uk/#zoom=3&lat=434255.06959&lon=333928.83324&layers=0BTFTFFFFFFFFFFFFFFFFFFFFFFFF,0.136030241,not owned by a public authority,,not permissioned,,,,11,,14,,Site is in 2014 SHLAA. Site is vacant and has been cleared. Assumed density range 80 - 100 dph reflecting inner area location.,15/12/2017,15/12/2017,,,
,,,,,,,,,,,,,,,,,,,http://opendatacommunities.org/id/unitary-authority/blackpool,Blackpool Council,BR011,"585 - 593 Promenade & 1 Wimbourne Place, Blackpool,  FY4 1NQ",53.786012,-3.057272,http://maps.blackpool.gov.uk/#zoom=3&lat=434255.06959&lon=333928.83324&layers=0BTFTFFFFFFFFFFFFFFFFFFFFFFFF,0.369572336,not owned by a public authority,,permissioned,,,,88,,0,,,15/12/2017,15/12/2017,,,
,,,,,,,,,,,,,,,,,,,http://opendatacommunities.org/id/unitary-authority/blackpool,Blackpool Council,BR012,"Hoyle House, Argosy Avenue, Blackpool, FY3 7NN",53.833316,-3.021891,http://maps.blackpool.gov.uk/#zoom=3&lat=434255.06959&lon=333928.83324&layers=0BTFTFFFFFFFFFFFFFFFFFFFFFFFF,0.360766928,owned by a public authority,,permissioned,,,,18,,0,,Dwellings proposed are social rented housing.,15/12/2017,13/12/2018,,,
,,,,,,,,,,,,,,,,,,,http://opendatacommunities.org/id/unitary-authority/blackpool,Blackpool Council,BR013,"Anchorsholme Methodist Church, North Drive, Blackpool, FY5 3PG",53.870625,-3.033303,http://maps.blackpool.gov.uk/#zoom=3&lat=434255.06959&lon=333928.83324&layers=0BTFTFFFFFFFFFFFFFFFFFFFFFFFF,0.121591547,not owned by a public authority,,permissioned,,,,5,,0,,,15/12/2017,15/12/2017,,,
,,,,,,,,,,,,,,,,,,,http://opendatacommunities.org/id/unitary-authority/blackpool,Blackpool Council,BR014,"Kings Christian Centre, Warley Road, Blackpool, FY1 2JU",53.830924,-3.054228,http://maps.blackpool.gov.uk/#zoom=3&lat=434255.06959&lon=333928.83324&layers=0BTFTFFFFFFFFFFFFFFFFFFFFFFFF,0.121305118,not owned by a public authority,,permissioned,,,,15,,0,,,15/12/2017,15/12/2017,,,
,,,,,,,,,,,,,,,,,,,http://opendatacommunities.org/id/unitary-authority/blackpool,Blackpool Council,BR015,"Land off Hoo Hill Lane, Blackpool, FY3 7HJ",53.833259,-3.03154,http://maps.blackpool.gov.uk/#zoom=3&lat=434255.06959&lon=333928.83324&layers=0BTFTFFFFFFFFFFFFFFFFFFFFFFFF,0.243767981,not owned by a public authority,,not permissioned,,,,10,,12,,Assumed density range 40 - 50 dph reflecting outer area location.,13/12/2018,13/12/2018,,,
,,,,,,,,,,,,,,,,,,,http://opendatacommunities.org/id/unitary-authority/blackpool,Blackpool Council,BR016,"Former Dinmore Public House, Dinmore Avenue, Blackpool, FY3 7QW",53.829389,-3.013472,http://maps.blackpool.gov.uk/#zoom=3&lat=434255.06959&lon=333928.83324&layers=0BTFTFFFFFFFFFFFFFFFFFFFFFFFF,0.218464319,not owned by a public authority,,not permissioned,,,,9,,18,,Assumed density range 40 - 80 dph. Potential for a mixed housing/apartment scheme reflecting adjacent property.,13/12/2018,13/12/2018,,,
,,,,,,,,,,,,,,,,,,,http://opendatacommunities.org/id/unitary-authority/blackpool,Blackpool Council,BR017,"Land at the Junction of Coleridge Road and Talbot Road, Blackpool, FY1 3NR",53.824513,-3.042273,http://maps.blackpool.gov.uk/#zoom=3&lat=434255.06959&lon=333928.83324&layers=0BTFTFFFFFFFFFFFFFFFFFFFFFFFF,0.290171976,not owned by a public authority,,pending decision,,,,25,,29,,Assumed density range up to 100 dph reflecting inner area location.,13/12/2018,13/12/2018,,,
,,,,,,,,,,,,,,,,,,,http://opendatacommunities.org/id/unitary-authority/blackpool,Blackpool Council,BR018,"Blackpool Council Offices, South King Street, Blackpool, FY1 4PW",53.815729,-3.047564,http://maps.blackpool.gov.uk/#zoom=3&lat=434255.06959&lon=333928.83324&layers=0BTFTFFFFFFFFFFFFFFFFFFFFFFFF,0.652842,owned by a public authority,,not permissioned,,,,42,,52,,Assumed density range 80 to 100 dph reflecting inner area location & assuming 80% developable area due to size of site.,13/12/2018,13/12/2018,,,
,,,,,,,,,,,,,,,,,,,http://opendatacommunities.org/id/unitary-authority/blackpool,Blackpool Council,BR019,"Car Park, Bethesda Road, Blackpool, FY1 5DT",53.81118,-3.049083,http://maps.blackpool.gov.uk/#zoom=3&lat=434255.06959&lon=333928.83324&layers=0BTFTFFFFFFFFFFFFFFFFFFFFFFFF,0.127395425,owned by a public authority,,not permissioned,,,,10,,13,,Assumed density range 80 - 100 dph reflecting inner area location.,13/12/2018,13/12/2018,,,
,,,,,,,,,,,,,,,,,,,http://opendatacommunities.org/id/unitary-authority/blackpool,Blackpool Council,BR020,"Whitegate Manor, Whitegate Drive, Blackpool, FY3 9JL",53.807175,-3.031248,http://maps.blackpool.gov.uk/#zoom=3&lat=434255.06959&lon=333928.83324&layers=0BTFTFFFFFFFFFFFFFFFFFFFFFFFF,0.307514507,owned by a public authority,,not permissioned,,,,12,,16,,Assumed density range 40 - 50 dph reflecting outer area location.,13/12/2018,13/12/2018,,,
,,,,,,,,,,,,,,,,,,,http://opendatacommunities.org/id/unitary-authority/blackpool,Blackpool Council,BR021,"Land at former National Savings and Investment Site, Preston Road, Blackpool, FY3 9YP",53.80316,-2.994175,http://maps.blackpool.gov.uk/#zoom=3&lat=434255.06959&lon=333928.83324&layers=0BTFTFFFFFFFFFFFFFFFFFFFFFFFF,3.315495114,not owned by a public authority,,not permissioned,,,,90,,112,,Minimum density based upon capacity suggested by developer up to a maximum of 50 dph reflecting inner area location & assuming 70% developable area due to site size.,13/12/2018,13/12/2018,,,
,,,,,,,,,,,,,,,,,,,http://opendatacommunities.org/id/unitary-authority/blackpool,Blackpool Council,BR022,"Blackpool Trim Shops, Brun Grove, Blackpool, FY1 6PG",53.802255,-3.032994,http://maps.blackpool.gov.uk/#zoom=3&lat=434255.06959&lon=333928.83324&layers=0BTFTFFFFFFFFFFFFFFFFFFFFFFFF,0.179175636,not owned by a public authority,,permissioned,,,,10,,0,,,13/12/2018,13/12/2018,,,
