address,address-text,deliverable,end-date,entry-date,hazardous-substances,hectares,latitude,longitude,maximum-net-dwellings,minimum-net-dwellings,notes,organisation,ownership-status,planning-permission-date,planning-permission-history,planning-permission-status,planning-permission-type,site,OrganisationURI,OrganisationLabel,SiteReference,SiteNameAddress,GeoX,GeoY,SiteplanURL,Hectares,OwnershipStatus,HazardousSubstances,PlanningStatus,PermissionType,PermissionDate,PlanningHistory,MinNetDwellings,NetDwellingsRangeFrom,NetDwellingsRangeTo,Deliverable,Notes,FirstAddedDate,LastUpdatedDate,EndDate,site-plan-url,start-date
,,,,,,,,,,,,,,,,,,,http://opendatacommunities.org/doc/district-council/reigate-banstead,Reigate & Banstead Borough Council,RBBCBLR001,"NRT Electrical & Mechanical, Castle House, Park Road, Banstead",525916.00,525916.00,http://www.reigate-banstead.gov.uk/downloads/file/3819/rbbcblr001,0.18,Not owned by a public authority.,,Permissioned,,,,10,,,,,31/12/17,,,,
,,,,,,,,,,,,,,,,,,,http://opendatacommunities.org/doc/district-council/reigate-banstead,Reigate & Banstead Borough Council,RBBCBLR002,"Hengest Farm, Woodmansterne Lane, Banstead",526372.00,160059.00,http://www.reigate-banstead.gov.uk/downloads/file/3820/rbbcblr002,0.59,Not owned by a public authority.,,Permissioned,,,,7,,,,,31/12/17,,,,
,,,,,,,,,,,,,,,,,,,http://opendatacommunities.org/doc/district-council/reigate-banstead,Reigate & Banstead Borough Council,RBBCBLR003,"8 Brighton Road, Hooley",528831.00,156748.00,http://www.reigate-banstead.gov.uk/downloads/file/3822/rbbcblr003,0.10,Not owned by a public authority.,,Permissioned,,,,5,,,,,31/12/17,,,,
,,,,,,,,,,,,,,,,,,,http://opendatacommunities.org/doc/district-council/reigate-banstead,Reigate & Banstead Borough Council,RBBCBLR004,"Courtlands Farm, Park Road, Banstead",526616.00,159185.00,http://www.reigate-banstead.gov.uk/downloads/file/3825/rbbcblr004,2.50,Not owned by a public authority.,,Permissioned,,,,9,,,,,31/12/17,,,,
,,,,,,,,,,,,,,,,,,,http://opendatacommunities.org/doc/district-council/reigate-banstead,Reigate & Banstead Borough Council,RBBCBLR005,"Kingswood Station, Waterhouse Lane, Kingswood",524810.00,156592.00,http://www.reigate-banstead.gov.uk/downloads/file/3829/rbbcblr005,0.78,Not owned by a public authority.,,Permissioned,,,,18,,,,,31/12/17,,,,
,,,,,,,,,,,,,,,,,,,http://opendatacommunities.org/doc/district-council/reigate-banstead,Reigate & Banstead Borough Council,RBBCBLR006,"Land south of Margery Lane (Kingswood Hall Estate), Lower Kingswood",525180.00,152543.00,http://www.reigate-banstead.gov.uk/downloads/file/3830/rbbcblr006,0.36,Not owned by a public authority.,,Not permissioned,,,,7,,,,,31/12/17,,,,
,,,,,,,,,,,,,,,,,,,http://opendatacommunities.org/doc/district-council/reigate-banstead,Reigate & Banstead Borough Council,RBBCBLR007,"Frith Park Mansion, Sturts Lane, Walton on the Hill",521577.00,153806.00,http://www.reigate-banstead.gov.uk/downloads/file/3823/rbbcblr007,1.64,Not owned by a public authority.,,Permissioned,,,,37,,,,,31/12/17,,,,
,,,,,,,,,,,,,,,,,,,http://opendatacommunities.org/doc/district-council/reigate-banstead,Reigate & Banstead Borough Council,RBBCBLR008,"Hockley Business Centre, Hooley Lane, Redhill",527836.00,149721.00,http://www.reigate-banstead.gov.uk/downloads/file/3828/rbbcblr008,0.52,Not owned by a public authority.,,Permissioned,,,,50,,,,,31/12/17,,,,
,,,,,,,,,,,,,,,,,,,http://opendatacommunities.org/doc/district-council/reigate-banstead,Reigate & Banstead Borough Council,RBBCBLR009,"Redhill Aerodrome, Kings Mill, Lane, Redhill",530118.00,147960.00,http://www.reigate-banstead.gov.uk/downloads/file/3824/rbbcblr009,6.54,Not owned by a public authority.,,Not permissioned,,,,130,,,,"The site has been identified, as part of a wider site, in the Regulation 19 Development Management Plan as a safeguarding site.",31/12/17,,,,
,,,,,,,,,,,,,,,,,,,http://opendatacommunities.org/doc/district-council/reigate-banstead,Reigate & Banstead Borough Council,RBBCBLR010,"Units 1 & 2 and Land R/O 8-13 Maple Works, Redhill",527705.00,148025.00,http://www.reigate-banstead.gov.uk/downloads/file/3826/rbbcblr010,0.15,Not owned by a public authority.,,Permissioned,,,,6,,,,,31/12/17,,,,
,,,,,,,,,,,,,,,,,,,http://opendatacommunities.org/doc/district-council/reigate-banstead,Reigate & Banstead Borough Council,RBBCBLR011,"Merstham Library, Weldon Way, Merstham",529472.00,152743.00,http://www.reigate-banstead.gov.uk/downloads/file/3827/rbbcblr011,0.26,Owned by a public authority,,Not permissioned,,,,6,,,,"Borough Local Plan (2005) policy Cf1 resists the loss of community buildings unless it can be satisfied that there is no longer a need for them, or adequate alternative provision is to be made elsewhere in the locality; and no other community facility or service can make use of the premises or site. 
The library has recently closed following the re-location to the new Community Hub. 
The site has been identified in the Regulation 19 Development Management Plan for mixed-use development including housing and community/ faith facilities (RED5). 
The site is partially affected by flood risk (Zone 2 and 3).",31/12/17,,,,
,,,,,,,,,,,,,,,,,,,http://opendatacommunities.org/doc/district-council/reigate-banstead,Reigate & Banstead Borough Council,RBBCBLR012,"Former Oakley Centre, Radstock Way, Merstham",530403.00,153030.00,http://www.reigate-banstead.gov.uk/downloads/file/3821/rbbcblr012,0.58,Owned by a public authority,,Not permissioned,,,,10,,,,"Borough Local Plan Policy Cf1 resists the loss of community buildings unless there is no longer a need for them, or adequate alternative provision is to be made elsewhere in the locality and no other community facility or service can make use of the premises or site. 
The Oakley Centre has been closed for a number of years. 
A new community hub has recently opened in Merstham. 
During the course of the recent planning permission (15/02200/F) which was refused for other reasons, the loss of community uses was established. The site has been identified, as part of a wider site, for housing development in the Regulation 19 Development Management Plan (RED6).",31/12/17,,,,
,,,,,,,,,,,,,,,,,,,http://opendatacommunities.org/doc/district-council/reigate-banstead,Reigate & Banstead Borough Council,RBBCBLR013,"Oakley Farm, 143 Bletchingley Road, Merstham",530364.00,152802.00,http://www.reigate-banstead.gov.uk/downloads/file/3835/rbbcblr013,0.67,Not owned by a public authority.,,Not permissioned,,,,13,,,,"The site has been identified, as part of a wider site, as a Sustainable Urban Extension (ERM5) in the Regulation 19 Development Management Plan. 
Upon adoption, its delivery will be subject to phasing policy (MLS1).",31/12/17,,,,
,,,,,,,,,,,,,,,,,,,http://opendatacommunities.org/doc/district-council/reigate-banstead,Reigate & Banstead Borough Council,RBBCBLR014,"Bellway House, Station Road North, Merstham",529041.00,153423.00,http://www.reigate-banstead.gov.uk/downloads/file/3838/rbbcblr014,0.03,Not owned by a public authority.,,Permissioned,,,,15,,,,"The site has been identified, as part of a wider site (RED2), in the Development Management Plan for housing development.",31/12/17,,,,
,,,,,,,,,,,,,,,,,,,http://opendatacommunities.org/doc/district-council/reigate-banstead,Reigate & Banstead Borough Council,RBBCBLR015,"Portland Drive, Merstham",529493.00,152958.00,http://www.reigate-banstead.gov.uk/downloads/file/3845/rbbcblr015,0.95,Not owned by a public authority.,,Permissioned,,,,48,,,,,31/12/17,,,,
,,,,,,,,,,,,,,,,,,,http://opendatacommunities.org/doc/district-council/reigate-banstead,Reigate & Banstead Borough Council,RBBCBLR016,"Church of the Epiphany, Merstham",529758.00,153080.00,http://www.reigate-banstead.gov.uk/downloads/file/3836/rbbcblr016,0.32,Not owned by a public authority.,,Not permissioned,,,,10,,,,"Borough Local Plan Policy Cf1 resists the loss of community uses unless there is no longer a need for them, or adequate alternative provision is to be made elsewhere in the locality; and no other community facility or service can make use of the premises or site. 
The church has been closed for a number of years. 
There are a number of Anglican churches within the immediate locality.  
The site has been identified in the Regulation 19 Development Management Plan for housing development (RED4).",31/12/17,,,,
,,,,,,,,,,,,,,,,,,,http://opendatacommunities.org/doc/district-council/reigate-banstead,Reigate & Banstead Borough Council,RBBCBLR017,"23-27 Endsleigh Road, Merstham",529252.00,152633.00,http://www.reigate-banstead.gov.uk/downloads/file/3834/rbbcblr017,0.33,Not owned by a public authority.,,Permissioned,,,,6,,,,,31/12/17,,,,
,,,,,,,,,,,,,,,,,,,http://opendatacommunities.org/doc/district-council/reigate-banstead,Reigate & Banstead Borough Council,RBBCBLR018,"Elgar Works, Merstham",529101.00,152547.00,http://www.reigate-banstead.gov.uk/downloads/file/3833/rbbcblr018,0.42,Not owned by a public authority.,,Not permissioned,,,,14,,,,,31/12/17,,,,
,,,,,,,,,,,,,,,,,,,http://opendatacommunities.org/doc/district-council/reigate-banstead,Reigate & Banstead Borough Council,RBBCBLR019,"Redhill Railway Station, Princess Way, Redhill",528111.00,150596.00,http://www.reigate-banstead.gov.uk/downloads/file/3847/rbbcblr019,0.90,Not owned by a public authority.,,Not permissioned,,,,150,,,,The site previously had planning permission for mixed-use housing and retail development. This permission (13/00848/F) has since lapsed.,31/12/17,,,,
,,,,,,,,,,,,,,,,,,,http://opendatacommunities.org/doc/district-council/reigate-banstead,Reigate & Banstead Borough Council,RBBCBLR020,"Land at Marketfield Way/ High Street, Redhill",528011.00,150525.00,http://www.reigate-banstead.gov.uk/downloads/file/3848/rbbcblr020,0.65,Mixed,,Permissioned,,,,150,,,,,31/12/17,,,,
,,,,,,,,,,,,,,,,,,,http://opendatacommunities.org/doc/district-council/reigate-banstead,Reigate & Banstead Borough Council,RBBCBLR021,"Colebrook Centre, Noke Drive, Redhill",528349.73,150720.60,http://www.reigate-banstead.gov.uk/downloads/file/3844/rbbcblr021,1.30,Owned by a public authority,,Not permissioned,,,,110,,,,"Borough Local Plan (2005) policy Cf1 resists the loss of community buildings or uses unless there is no longer a need for them, or adequate alternative provision is to be made elsewhere in the locality; and no other community facility or service can make use of the premises or site. 
The site has been identified in the Regulation 19 Development Management Plan (RTC4) for mixed-use housing (potentially housing for older people) and community use.  
The site is situated in a highly accessible location, in close proximity to Redhill town centre and adjacent to the rail station. 
The site provides an opportunity for intensification of an existing previously developed site. 
The site is partially affected by Flood Zones 2 and 3a and there are a number of protected trees on the site.",31/12/17,,,,
,,,,,,,,,,,,,,,,,,,http://opendatacommunities.org/doc/district-council/reigate-banstead,Reigate & Banstead Borough Council,RBBCBLR022,"Reading Arch Road Industrial Estate, Redhill",527946.00,150246.00,http://www.reigate-banstead.gov.uk/downloads/file/3832/rbbcblr022,1.75,Mixed,,Not permissioned,,,,150,,,,"Borough Local Plan (2005) policy EM1A resists the loss of employment uses within areas identified for employment. 
The site in its current state is not considered to provide a fitting approach to the town centre gateway along the important approach route. 
The site also does not currently maximise the sites capacity potential. 
Redevelopment of the site would need to secure the relocation of the active uses to suitable alternative premises elsewhere in the Borough. 

The site has been identified in the Regulation 19 Development Management Plan for mixed-use development.   
Development of the site for retail uses would be dependent upon a full assessment of the impact on the town centre.  
The site partially falls within Flood Zones 2 and 3. 
The Redhill Brook is partially culverted under the site.",31/12/17,,,,
,,,,,,,,,,,,,,,,,,,http://opendatacommunities.org/doc/district-council/reigate-banstead,Reigate & Banstead Borough Council,RBBCBLR023,"Former Liquid & Envy, Redhill",528070.00,150534.00,http://www.reigate-banstead.gov.uk/downloads/file/3840/rbbcblr023,0.29,Not owned by a public authority.,,Permissioned,,,,133,,,,,31/12/17,,,,
,,,,,,,,,,,,,,,,,,,http://opendatacommunities.org/doc/district-council/reigate-banstead,Reigate & Banstead Borough Council,RBBCBLR024,"Former Copyhold Works, Nutfield Road, Redhill",528811.00,150392.00,http://www.reigate-banstead.gov.uk/downloads/file/3841/rbbcblr024,1.68,Not owned by a public authority.,,Not permissioned,,,,35,,,,"The site has been identified, as part of a wider site, as a  Sustainable Urban Extension (ERM 2/3) in the Regulation 19 Development Management Plan. 
Upon adoption, its delivery will be subject to phasing policy (MLS1).",31/12/17,,,,
,,,,,,,,,,,,,,,,,,,http://opendatacommunities.org/doc/district-council/reigate-banstead,Reigate & Banstead Borough Council,RBBCBLR025,"Quarryside Business Park, Thornton Side, Redhill",528946.00,152057.00,http://www.reigate-banstead.gov.uk/downloads/file/3852/rbbcblr025,1.20,Not owned by a public authority.,,Not permissioned,,,,60,,,,"Borough Local Plan Policy (2005) Em1a resists the loss of employment uses. 
The site has been identified for residential development in the Land at Holmethorpe Development Brief (2001). 
The site has been identified in the Regulation 19 Development Management Plan for mixed-use residential and community development (RED1).
Provision of community services would be dependent upon demand.   
The site is partially affected by surface water flooding.",31/12/17,,,,
,,,,,,,,,,,,,,,,,,,http://opendatacommunities.org/doc/district-council/reigate-banstead,Reigate & Banstead Borough Council,RBBCBLR026,"26-28 Station Road, Redhill",528003.00,150600.00,http://www.reigate-banstead.gov.uk/downloads/file/3849/rbbcblr026,0.26,Not owned by a public authority.,,Permissioned,,,,14,,,,,31/12/17,,,,
,,,,,,,,,,,,,,,,,,,http://opendatacommunities.org/doc/district-council/reigate-banstead,Reigate & Banstead Borough Council,RBBCBLR027,"Patteson Court, Nutfield Road, Redhill",529383.03,150303.39,http://www.reigate-banstead.gov.uk/downloads/file/3842/rbbcblr027,0.40,Not owned by a public authority.,,Permissioned,,,,10,,,,,31/12/17,,,,
,,,,,,,,,,,,,,,,,,,http://opendatacommunities.org/doc/district-council/reigate-banstead,Reigate & Banstead Borough Council,RBBCBLR028,"126 London Road, 2-10 Claremont Road and 1-11 Ranmore Close, Redhill",528167.00,151850.00,http://www.reigate-banstead.gov.uk/downloads/file/3837/rbbcblr028,0.52,Not owned by a public authority.,,Permissioned,,,,34,,,,,31/12/17,,,,
,,,,,,,,,,,,,,,,,,,http://opendatacommunities.org/doc/district-council/reigate-banstead,Reigate & Banstead Borough Council,RBBCBLR029,"Furness House, Brighton Road, Redhill",527786.00,150037.00,http://www.reigate-banstead.gov.uk/downloads/file/3843/rbbcblr029,0.30,Not owned by a public authority.,,Permissioned,,,,72,,,,,31/12/17,,,,
,,,,,,,,,,,,,,,,,,,http://opendatacommunities.org/doc/district-council/reigate-banstead,Reigate & Banstead Borough Council,RBBCBLR030,"Oakdene House, Oakdene Road, Redhill",527658.00,150360.00,http://www.reigate-banstead.gov.uk/downloads/file/3839/rbbcblr030,0.03,Not owned by a public authority.,,Permissioned,,,,5,,,,,31/12/17,,,,
,,,,,,,,,,,,,,,,,,,http://opendatacommunities.org/doc/district-council/reigate-banstead,Reigate & Banstead Borough Council,RBBCBLR031,"49 Ladbroke Road, Redhill",528127.00,150827.00,http://www.reigate-banstead.gov.uk/downloads/file/3850/rbbcblr031,0.04,Not owned by a public authority.,,Permissioned,,,,6,,,,,31/12/17,,,,
,,,,,,,,,,,,,,,,,,,http://opendatacommunities.org/doc/district-council/reigate-banstead,Reigate & Banstead Borough Council,RBBCBLR032,"Land at Cromwell Road/ Sincotts Road, Redhill",527851.00,150469.00,http://www.reigate-banstead.gov.uk/downloads/file/3846/rbbcblr032,0.08,Owned by a public authority,,Not permissioned,,,,32,,,,"The site forms part of the secondary shopping frontage and secondary shopping area. 
Borough Local Plan (2005) policy Sh7 resists the loss of retail uses.
Borough Local Plan (2005) policy Cf1 resists the loss of community uses. 
The current units are in a poor condition. 
There are a number of long-term vacant units within the frontage. 
The existing quality of the retail frontage does not provide an appropriate gateway into the town centre. 
The site has been identified in the Regulation 19 Development Management Plan for mixed-use development with retail/ commercial/ leisure uses on the ground floor (RTC2). 
The site is partially affected by surface water flooding.",31/12/17,,,,
,,,,,,,,,,,,,,,,,,,http://opendatacommunities.org/doc/district-council/reigate-banstead,Reigate & Banstead Borough Council,RBBCBLR033,"Land at Gloucester Road, Redhill",527888.00,150958.00,http://www.reigate-banstead.gov.uk/downloads/file/3851/rbbcblr033,0.76,Owned by a public authority,,Not permissioned,,,,60,,,,"The site has been identified in the Regulation 19 Development Management Plan for residential development, potentially as part of a mixed-use scheme with office accommodation (RTC6).  
The Core Strategy identifies the need to provide employment accommodation within Redhill town centre. 
The site is partially affected by surface water flooding. 
Loss of town centre car parking capacity would need to be fully assessed and retained or re-provided.",31/12/17,,,,
,,,,,,,,,,,,,,,,,,,http://opendatacommunities.org/doc/district-council/reigate-banstead,Reigate & Banstead Borough Council,RBBCBLR034,"Former Longmead Adult Education Centre, Redhill",527725.00,150494.00,http://www.reigate-banstead.gov.uk/downloads/file/3831/rbbcblr034,0.22,Owned by a public authority,,Not permissioned,,,,20,,,,"Borough Local Plan Policy (2005) Cf1 resists the loss of community uses unless there is no longer a need for them, or adequate alternative provision is to be made elsewhere in the locality; and no other community facility or service can make use of the premises or site. 
The site has been vacant for a number of years. 
The site provides the opportunity for intensification of an existing previously developed site. 
The site has been identified in the Regulation 19 Development Management Plan for residential development (RTC5). 
The site is largely affected by surface water flooding.",31/12/17,,,,
,,,,,,,,,,,,,,,,,,,http://opendatacommunities.org/doc/district-council/reigate-banstead,Reigate & Banstead Borough Council,RBBCBLR035,"Grosvenor House, London Road, Redhill",527981.00,151053.00,http://www.reigate-banstead.gov.uk/downloads/file/3856/rbbcblr035,0.45,Not owned by a public authority.,,Permissioned,,,,100,,,,,31/12/17,,,,
,,,,,,,,,,,,,,,,,,,http://opendatacommunities.org/doc/district-council/reigate-banstead,Reigate & Banstead Borough Council,RBBCBLR036,"Prospect Housing Association, 5 Gloucester Road, Redhill",527826.00,150855.00,http://www.reigate-banstead.gov.uk/downloads/file/3873/rbbcblr036,0.40,Not owned by a public authority.,,Permissioned,,,,9,,,,,31/12/17,,,,
,,,,,,,,,,,,,,,,,,,http://opendatacommunities.org/doc/district-council/reigate-banstead,Reigate & Banstead Borough Council,RBBCBLR037,"City Space Filestores, Lesbourne Road, Reigate",525724.00,149841.00,http://www.reigate-banstead.gov.uk/downloads/file/3857/rbbcblr037,0.04,Not owned by a public authority.,,Permissioned,,,,5,,,,,31/12/17,,,,
,,,,,,,,,,,,,,,,,,,http://opendatacommunities.org/doc/district-council/reigate-banstead,Reigate & Banstead Borough Council,RBBCBLR038,"Bourne House, Lesbourne Road, Redhill",525707.00,149831.00,http://www.reigate-banstead.gov.uk/downloads/file/3854/rbbcblr038,0.03,Not owned by a public authority.,,Permissioned,,,,13,,,,,31/12/17,,,,
,,,,,,,,,,,,,,,,,,,http://opendatacommunities.org/doc/district-council/reigate-banstead,Reigate & Banstead Borough Council,RBBCBLR039,"Garages Arbutus Road, Redhill",526479.00,149012.00,http://www.reigate-banstead.gov.uk/downloads/file/3859/rbbcblr039,0.20,Not owned by a public authority.,,Permissioned,,,,14,,,,,31/12/17,,,,
,,,,,,,,,,,,,,,,,,,http://opendatacommunities.org/doc/district-council/reigate-banstead,Reigate & Banstead Borough Council,RBBCBLR040,"Group House, Albion Road, Reigate",526036.00,149824.00,http://www.reigate-banstead.gov.uk/downloads/file/3861/rbbcblr040,0.07,Not owned by a public authority.,,Permissioned,,,,8,,,,,31/12/17,,,,
,,,,,,,,,,,,,,,,,,,http://opendatacommunities.org/doc/district-council/reigate-banstead,Reigate & Banstead Borough Council,RBBCBLR041,"Land at 50-52, Unit 54 and 61 Albert Road North, Reigate",524605.00,150911.00,http://www.reigate-banstead.gov.uk/downloads/file/3876/rbbcblr041,1.27,Not owned by a public authority.,,Not permissioned,,,,40,,,,"Borough Local Plan (2005) policy EM1a resists the loss of employment uses within designated employment areas. 
The site has been identified in the Regulation 19 Development Management Plan as there is conflict between the more intensive industrial uses on the site and the surrounding residential area. 
The site has been identified in the Regulation 19 Development Management Plan as part of a wider site for mixed-use redevelopment including employment and residential uses (REI3). 
The site is partially affected by surface water flooding risk.",31/12/17,,,,
,,,,,,,,,,,,,,,,,,,http://opendatacommunities.org/doc/district-council/reigate-banstead,Reigate & Banstead Borough Council,RBBCBLR042,"51-57 Albert Road North, Reigate",524649.00,150801.00,http://www.reigate-banstead.gov.uk/downloads/file/3868/rbbcblr042,0.59,Not owned by a public authority.,,Not permissioned,,,,20,,,,"Borough Local Plan (2005) policy EM1a resists the loss of employment uses within designated employment areas. 
The site has been identified in the Regulation 19 Development Management Plan as there is conflict between the more intensive industrial uses on the site and the surrounding residential area. 
The site has been identified in the Regulation 19 Development Management Plan as part of a wider site for mixed-use redevelopment including employment and residential uses (REI3). 
The site is partially affected by surface water flooding risk.",31/12/17,,,,
,,,,,,,,,,,,,,,,,,,http://opendatacommunities.org/doc/district-council/reigate-banstead,Reigate & Banstead Borough Council,RBBCBLR043,"Surrey Police Headquarters, Reigate Road, Reigate",526643.00,150197.00,http://www.reigate-banstead.gov.uk/downloads/file/3875/rbbcblr043,0.57,Owned by a public authority,,Not permissioned,,,,25,,,,Availability of the site for housing development will be dependent upon an alternative location for a police station being found. The landowner has indicated that this will be likely in the next 5-10 years.,31/12/17,,,,
,,,,,,,,,,,,,,,,,,,http://opendatacommunities.org/doc/district-council/reigate-banstead,Reigate & Banstead Borough Council,RBBCBLR044,"Former Priory Stables, Park Lane, Reigate",524969.00,150089.00,http://www.reigate-banstead.gov.uk/downloads/file/3864/rbbcblr044,0.09,Owned by a public authority,,Not permissioned,,,,5,,,,,31/12/17,,,,
,,,,,,,,,,,,,,,,,,,http://opendatacommunities.org/doc/district-council/reigate-banstead,Reigate & Banstead Borough Council,RBBCBLR045,"Town Hall, Castlefield Road, Reigate",525393.61,150426.18,http://www.reigate-banstead.gov.uk/downloads/file/3869/rbbcblr045,0.25,Owned by a public authority,,Not permissioned,,,,23,,,,"The site has been identified in the Regulation 19 Development Management Plan for housing or office development (REI2). The site is within the Reigate Town Centre Conservation Area. 
The site is adjacent to the Grade II Listed Town Hall, Scheduled Monument, Regionally Important Geological Site and Urban Open Space designation.",31/12/17,,,,
,,,,,,,,,,,,,,,,,,,http://opendatacommunities.org/doc/district-council/reigate-banstead,Reigate & Banstead Borough Council,RBBCBLR046,"Reigate Library, Bancroft Road, Reigate",525537.00,150157.00,http://www.reigate-banstead.gov.uk/downloads/file/3866/rbbcblr046,0.22,Owned by a public authority,,Not permissioned,,,,25,,,,"Borough Local Plan (2005) policy Cf1 resists the loss of community uses unless there is no longer a need for them, or adequate alternative provision is to be made elsewhere in the locality; and no other community facilities or service can make use of the premises or site. 
Development of the site would be dependent upon the reprovision of the community facilities or relocation to alternative suitable premises.   The site has been identified in the Regulation 19 Development Management Plan, as part of a wider site, as a potential town centre opportunity site for library, community uses, retail, commercial and residential development (REI1).
The site is partially affected by Flood Zones 2 and 3.",31/12/17,,,,
,,,,,,,,,,,,,,,,,,,http://opendatacommunities.org/doc/district-council/reigate-banstead,Reigate & Banstead Borough Council,RBBCBLR047,"Millennium House, 99 Bell Street, Reigate",525500.00,149903.00,http://www.reigate-banstead.gov.uk/downloads/file/3870/rbbcblr047,0.10,Not owned by a public authority.,,Permissioned,,,,19,,,,,31/12/17,,,,
,,,,,,,,,,,,,,,,,,,http://opendatacommunities.org/doc/district-council/reigate-banstead,Reigate & Banstead Borough Council,RBBCBLR048,"Park House, 77-83 Bell Street, Reigate",525482.00,149971.00,http://www.reigate-banstead.gov.uk/downloads/file/3867/rbbcblr048,0.06,Not owned by a public authority,,Permissioned,,,,13,,,,,31/12/17,,,,
,,,,,,,,,,,,,,,,,,,http://opendatacommunities.org/doc/district-council/reigate-banstead,Reigate & Banstead Borough Council,RBBCBLR049,"Castlefield House, 3-5 Castlefield Road, Reigate",525461.00,150469.00,http://www.reigate-banstead.gov.uk/downloads/file/3865/rbbcblr049,0.40,Not owned by a public authority,,Permissioned,,,,41,,,,,31/12/17,,,,
,,,,,,,,,,,,,,,,,,,http://opendatacommunities.org/doc/district-council/reigate-banstead,Reigate & Banstead Borough Council,RBBCBLR050,"Acacia House, Reigate Hill, Reigate",525458.00,151105.00,http://www.reigate-banstead.gov.uk/downloads/file/3880/rbbcblr050,0.29,Not owned by a public authority,,Permissioned,,,,22,,,,,31/12/17,,,,
,,,,,,,,,,,,,,,,,,,http://opendatacommunities.org/doc/district-council/reigate-banstead,Reigate & Banstead Borough Council,RBBCBLR051,"New Pond Farm, Woodhatch Road, Reigate",526779.00,148231.00,http://www.reigate-banstead.gov.uk/downloads/file/3882/rbbcblr051,1.22,Owned by a public authority,,Not permissioned,,,,30,,,,,31/12/17,,,,
,,,,,,,,,,,,,,,,,,,http://opendatacommunities.org/doc/district-council/reigate-banstead,Reigate & Banstead Borough Council,RBBCBLR052,"Hartswood Nursery, Dovers Green Road, Reigate",525530.00,147857.00,http://www.reigate-banstead.gov.uk/downloads/file/3871/rbbcblr052,0.04,Not owned by a public authority,,Not permissioned,,,,5,,,,"The site, as part of a wider site, has been identified in the Regulation 19 Development Management Plan as a Sustainable Urban Extension (SSW2). 
Upon adoption, its delivery will be subject to phasing policy (MLS1).",31/12/17,,,,
,,,,,,,,,,,,,,,,,,,http://opendatacommunities.org/doc/district-council/reigate-banstead,Reigate & Banstead Borough Council,RBBCBLR053,"Former Garage Block, Atherfield Road, Reigate",526162.00,148653.00,http://www.reigate-banstead.gov.uk/downloads/file/3878/rbbcblr053,0.03,Not owned by a public authority,,Not permissioned,,,,5,,,,,31/12/17,,,,
,,,,,,,,,,,,,,,,,,,http://opendatacommunities.org/doc/district-council/reigate-banstead,Reigate & Banstead Borough Council,RBBCBLR054,"High Street Car Park, Horley",528643.00,143075.00,http://www.reigate-banstead.gov.uk/downloads/file/3879/rbbcblr054,0.43,Owned by a public authority.,,Not permissioned,,,,30,,,,"The site has been allocated for development in the 2005 Borough Local Plan. 
The site has been identified in the Regulation 19 Development Management Plan for mixed-use retail/ leisure and residential development. 
Release of the site would be dependent upon public car parking needs within the town centre.",31/12/17,,,,
,,,,,,,,,,,,,,,,,,,http://opendatacommunities.org/doc/district-council/reigate-banstead,Reigate & Banstead Borough Council,RBBCBLR055,"Central Car Park, Consort Way East, Horley",528595.00,142997.00,http://www.reigate-banstead.gov.uk/downloads/file/3872/rbbcblr055,0.42,Owned by a public authority.,,Not permissioned,,,,30,,,,"Policy Hr28 of the Borough Local Plan (2005) retains the car park for parking uses. 
Release of the site would be dependent upon public car parking needs within the town centre.",31/12/17,,,,
,,,,,,,,,,,,,,,,,,,http://opendatacommunities.org/doc/district-council/reigate-banstead,Reigate & Banstead Borough Council,RBBCBLR056,"Horley Library, Kings Road, Horley",528345.00,143135.00,http://www.reigate-banstead.gov.uk/downloads/file/3877/rbbcblr056,0.35,Owned by a public authority.,,Not permissioned,,,,35,,,,"Borough Local Plan (2005) policy Cf1 resists the loss of community buildings or uses unless there is no longer a need for them, or adequate alternative provision is to be made elsewhere in the locality and no other community facility or service can make use of the premises or site. 
Surrey County Council has recently agreed to relocate the library to the former Newman House site. 
The site has been identified in the Regulation 19 Development Management Plan for mixed-use community, car parking and residential development (HOR5).
Land to the rear of the library is partially at risk of surface water flooding.",31/12/17,,,,
,,,,,,,,,,,,,,,,,,,http://opendatacommunities.org/doc/district-council/reigate-banstead,Reigate & Banstead Borough Council,RBBCBLR057,"Horley Police Station, Massetts Road, Horley",528438.00,142921.00,http://www.reigate-banstead.gov.uk/downloads/file/3874/rbbcblr057,0.15,Owned by a public authority.,,Not permissioned,,,,20,,,,"Borough Local Plan (2005) policy Cf1 resists the loss of community buildings or uses unless there is no longer a need for them, or adequate alternative provision is to be made elsewhere in the locality and no other community facility or service can make use of the premises or site. 
The site is owned by the Police Crime Commissioner for Surrey. The landowner has indicated that the site is no longer required for operational purposes. The site has been identified in the Regulation 19 Development Management Plan for housing development.",31/12/17,,,,
,,,,,,,,,,,,,,,,,,,http://opendatacommunities.org/doc/district-council/reigate-banstead,Reigate & Banstead Borough Council,RBBCBLR058,"T Northeast Ltd. 4 Station Road, Horley",528717.00,143204.00,http://www.reigate-banstead.gov.uk/downloads/file/3855/rbbcblr058,0.04,Not owned by a public authority,,Not permissioned,,,,6,,,,"The site lies within an Area for Small Business. 
Borough Local Plan (2005) policy Em6 requires proposals to complement the character of the area. The surrounding area is comprised of retail ground floor uses and residential on upper floors.",31/12/17,,,,
,,,,,,,,,,,,,,,,,,,http://opendatacommunities.org/doc/district-council/reigate-banstead,Reigate & Banstead Borough Council,RBBCBLR059,"R/O 43-49 High Street, Horley",528605.00,143141.00,http://www.reigate-banstead.gov.uk/downloads/file/3853/rbbcblr059,0.50,Not owned by a public authority,,Permissioned,,,,6,,,,,31/12/17,,,,
,,,,,,,,,,,,,,,,,,,http://opendatacommunities.org/doc/district-council/reigate-banstead,Reigate & Banstead Borough Council,RBBCBLR060,"Woodside Works, Horley",529666.00,142036.00,http://www.reigate-banstead.gov.uk/downloads/file/3860/rbbcblr060,0.66,Not owned by a public authority,,Not permissioned,,,,13,,,,"The site, as part of a wider site, has been identified in the Regulation 19 Development Management Plan as a Sustainable Urban Extension (SEH4). 
Upon adoption, its delivery will be subject to phasing policy (MLS1).",31/12/17,,,,
,,,,,,,,,,,,,,,,,,,http://opendatacommunities.org/doc/district-council/reigate-banstead,Reigate & Banstead Borough Council,RBBCBLR061,"Sangers House, Horley",528373.00,144059.00,http://www.reigate-banstead.gov.uk/downloads/file/3858/rbbcblr061,0.16,Not owned by a public authority,,Permissioned,,,,8,,,,,31/12/17,,,,
,,,,,,,,,,,,,,,,,,,http://opendatacommunities.org/doc/district-council/reigate-banstead,Reigate & Banstead Borough Council,RBBCBLR062,"The Gables, 17 Massetts Road, Horley",528472.00,144369.00,http://www.reigate-banstead.gov.uk/downloads/file/3858/rbbcblr061,0.15,Not owned by a public authority,,Permissioned,,,,25,,,,,31/12/17,,,,
,,,,,,,,,,,,,,,,,,,http://opendatacommunities.org/doc/district-council/reigate-banstead,Reigate & Banstead Borough Council,RBBCBLR063,"Don Ruffles, 138 Victoria Road, Horley",528093.00,143201.00,http://www.reigate-banstead.gov.uk/downloads/file/3863/rbbcblr063,0.04,Not owned by a public authority,,Permissioned,,,,5,,,,,31/12/17,,,,
,,,,,,,,,,,,,,,,,,,http://opendatacommunities.org/doc/district-council/reigate-banstead,Reigate & Banstead Borough Council,RBBCBLR064,"1 Yattendon Road, Horley",528637.97,143172.40,http://www.reigate-banstead.gov.uk/downloads/file/3862/rbbcblr064,0.02,Not owned by a public authority,,Permissioned,,,,5,,,,,31/12/17,,,,
