address,address-text,deliverable,end-date,entry-date,hazardous-substances,hectares,latitude,longitude,maximum-net-dwellings,minimum-net-dwellings,notes,organisation,ownership-status,planning-permission-date,planning-permission-history,planning-permission-status,planning-permission-type,site,OrganisationURI,OrganisationLabel,SiteReference,SiteNameAddress,GeoX,GeoY,SiteplanURL,Hectares,OwnershipStatus,HazardousSubstances,PlanningStatus,PermissionType,PermissionDate,PlanningHistory,MinNetDwellings,NetDwellingsRangeFrom,NetDwellingsRangeTo,Deliverable,Notes,FirstAddedDate,LastUpdatedDate,EndDate,site-plan-url,start-date
,,,,,,,,,,,,,,,,,,,http://opendatacommunities.org/id/metropolitan-district-council/sunderland,Sunderland,98,"Ayton Village Primary School, Dunlin Drive, Ayton",-1.55298026,54.88987304,https://www.sunderland.gov.uk/article/12739/Brownfield-Sites-Register,1.58,owned by a public authority,,not permissioned,,,,36,,,,"""Development Brief prepared and out to market""",30/06/2016,30/11/2018,,,
,,,,,,,,,,,,,,,,,,,http://opendatacommunities.org/id/metropolitan-district-council/sunderland,Sunderland,B056,"High Usworth School, Well Bank Road",-1.5334922,54.91835836,https://www.sunderland.gov.uk/article/12739/Brownfield-Sites-Register,0.65,mixed ownership,,permissioned,,,,14,,,,"""Permitted application ref. 16/02266/FU4""",30/06/2016,30/11/2018,,,
,,,,,,,,,,,,,,,,,,,http://opendatacommunities.org/id/metropolitan-district-council/sunderland,Sunderland,112,Site of former Broomhill Estate.,-1.4574217,54.83256475,https://www.sunderland.gov.uk/article/12739/Brownfield-Sites-Register,3.9,not owned by a public authority,,permissioned,,,,124,,,,"""Permitted application ref. 12/03140/FUL""",30/06/2016,30/11/2018,,,
,,,,,,,,,,,,,,,,,,,http://opendatacommunities.org/id/metropolitan-district-council/sunderland,Sunderland,312,"Former Junglerama, Victoria Road",-1.52253724,54.91205247,https://www.sunderland.gov.uk/article/12739/Brownfield-Sites-Register,0.29,mixed ownership,,permissioned,,,,12,,,,"""Permitted application ref. 16/00115/FU4""",30/06/2016,30/11/2018,,,
,,,,,,,,,,,,,,,,,,,http://opendatacommunities.org/id/metropolitan-district-council/sunderland,Sunderland,B448,Penshaw House,-1.49963232,54.8698234,https://www.sunderland.gov.uk/article/12739/Brownfield-Sites-Register,1.09,owned by a public authority,,pending decision,,,,9,,,,"""Development Brief prepared and out to market, with response to application ref. 10/02549/MNQ confirming residential development is acceptable in principle""",30/06/2016,30/11/2018,,,
,,,,,,,,,,,,,,,,,,,http://opendatacommunities.org/id/metropolitan-district-council/sunderland,Sunderland,B330A,Philadelphia Complex,-1.4782914,54.86449488,https://www.sunderland.gov.uk/article/12739/Brownfield-Sites-Register,17.29,not owned by a public authority,,permissioned,,,,250,,,,"""Permitted hybrid application ref. 14/00538/HYB - mixed-use development with Outline Planning Permission for up to 500 dwellings overall""",30/06/2016,30/11/2018,,,
,,,,,,,,,,,,,,,,,,,http://opendatacommunities.org/id/metropolitan-district-council/sunderland,Sunderland,660,63 Fawcett Street,-1.38227357,54.90722406,https://www.sunderland.gov.uk/article/12739/Brownfield-Sites-Register,0.02,not owned by a public authority,,permissioned,,,,7,,,,"""Permitted application ref. 14/02357/FUL. Part of Central Area Urban Design Strategy SPD""",30/06/2016,30/11/2018,,,
,,,,,,,,,,,,,,,,,,,http://opendatacommunities.org/id/metropolitan-district-council/sunderland,Sunderland,B062,Ryhope and Cherry Knowles Hospital,-1.37428107,54.86139677,https://www.sunderland.gov.uk/article/12739/Brownfield-Sites-Register,27.67,mixed ownership,,permissioned,,,,640,,,,"""Permitted hybrid application ref. 16/01524/HYB - Full Planning Permission for 304 dwellings, with Outline Planning Permission for 496 dwellings and an 80-bed care village. Part of South Sunderland Growth Area masterplan (Cherry Knowle) and draft SPD""",30/11/2017,30/11/2018,,,
,,,,,,,,,,,,,,,,,,,http://opendatacommunities.org/id/metropolitan-district-council/sunderland,Sunderland,B078,Farringdon Row Phase 2-4,-1.39311911,54.91201444,https://www.sunderland.gov.uk/article/12739/Brownfield-Sites-Register,1.99,mixed ownership,,not permissioned,,,,44,,,,"""Part of Farringdon Row Development Framework SPD and Central Area Urban Design Strategy SPD""",30/11/2017,30/11/2018,,,
,,,,,,,,,,,,,,,,,,,http://opendatacommunities.org/id/metropolitan-district-council/sunderland,Sunderland,B080C,Stadium Village Site C,-1.38558415,54.91105108,https://www.sunderland.gov.uk/article/12739/Brownfield-Sites-Register,0.92,mixed ownership,,not permissioned,,,,72,,,,"""Part of Stadium Village Development Framework SPD masterplan and Central Area Urban Design Strategy SPD""",30/11/2017,30/11/2018,,,
,,,,,,,,,,,,,,,,,,,http://opendatacommunities.org/id/metropolitan-district-council/sunderland,Sunderland,B091,"Southwick Primary School, Clarence Street",-1.40757931,54.92047903,https://www.sunderland.gov.uk/article/12739/Brownfield-Sites-Register,1.49,owned by a public authority,,not permissioned,,,,22,,,,,30/11/2017,30/11/2018,,,
,,,,,,,,,,,,,,,,,,,http://opendatacommunities.org/id/metropolitan-district-council/sunderland,Sunderland,B106,"High Ford Estate, Flodden Road",-1.43192785,54.90313516,https://www.sunderland.gov.uk/article/12739/Brownfield-Sites-Register,1.91,not owned by a public authority,,permissioned,,,,116,,,,"""Permitted application ref. 11/01794/FUL - under construction""",30/11/2017,30/11/2018,,,
,,,,,,,,,,,,,,,,,,,http://opendatacommunities.org/id/metropolitan-district-council/sunderland,Sunderland,B194A,"Lambton Lane, land at",-1.50473692,54.84998449,https://www.sunderland.gov.uk/article/12739/Brownfield-Sites-Register,4.63,mixed ownership,,pending decision,,,,36,,,,"""Live application pending ref. 17/00589/FUL - proposed combined total 271 dwellings""",30/11/2017,30/11/2018,,,
,,,,,,,,,,,,,,,,,,,http://opendatacommunities.org/id/metropolitan-district-council/sunderland,Sunderland,B194B,"Lambton Lane, land at",-1.50668692,54.8509989,https://www.sunderland.gov.uk/article/12739/Brownfield-Sites-Register,0.77,not owned by a public authority,,pending decision,,,,14,,,,"""Live application pending ref. 17/00589/FUL - proposed combined total 271 dwellings""",30/11/2017,30/11/2018,,,
,,,,,,,,,,,,,,,,,,,http://opendatacommunities.org/id/metropolitan-district-council/sunderland,Sunderland,B293A,"Low Moorsley, land at (Ennerdale Street)",-1.46332276,54.8101696,https://www.sunderland.gov.uk/article/12739/Brownfield-Sites-Register,3.19,not owned by a public authority,,pending decision,,,,59,,,,"""Live outline application ref. 14/01371/OUT - proposed 83 dwellings""",30/11/2017,30/11/2018,,,
,,,,,,,,,,,,,,,,,,,http://opendatacommunities.org/id/metropolitan-district-council/sunderland,Sunderland,B328A,Hetton Downs Phase 2,-1.44747519,54.83019248,https://www.sunderland.gov.uk/article/12739/Brownfield-Sites-Register,0.45,mixed ownership,,not permissioned,,,,9,,,,"""Development Brief Area Action Plan prepared""",30/11/2017,30/11/2018,,,
,,,,,,,,,,,,,,,,,,,http://opendatacommunities.org/id/metropolitan-district-council/sunderland,Sunderland,B328B,Hetton Downs Phase 2,-1.44751185,54.8263644,https://www.sunderland.gov.uk/article/12739/Brownfield-Sites-Register,3.31,owned by a public authority,,not permissioned,,,,81,,,,"""Development Brief Area Action Plan prepared""",30/11/2017,30/11/2018,,,
,,,,,,,,,,,,,,,,,,,http://opendatacommunities.org/id/metropolitan-district-council/sunderland,Sunderland,380,Grangetown Autos and land to the South. East side of Ryhope Road,-1.35934087,54.87614695,https://www.sunderland.gov.uk/article/12739/Brownfield-Sites-Register,1.27,not owned by a public authority,,permissioned,,,,46,,,,"""Permitted outline application ref. 15/01629/OUT, with live application pending ref. 17/00386/FUL for 48 units on land to the north""",30/11/2017,30/11/2018,,,
,,,,,,,,,,,,,,,,,,,http://opendatacommunities.org/id/metropolitan-district-council/sunderland,Sunderland,B413,"Seaburn Amusements, Whitburn Road",-1.37039891,54.9365764,https://www.sunderland.gov.uk/article/12739/Brownfield-Sites-Register,2.47,owned by a public authority,,permissioned,,,,140,,,,"""Live outline hybrid application pending ref. 16/02056/HY4 - proposed mixed-use development with up to 279 dwellings overall. Part of Seaburn Masterplan and Design Code SPD""",30/11/2017,30/11/2018,,,
,,,,,,,,,,,,,,,,,,,http://opendatacommunities.org/id/metropolitan-district-council/sunderland,Sunderland,B451,"Former Stannington Centre and adjoining greenspace, Hillview, Stannington Grove",-1.38133819,54.88583131,https://www.sunderland.gov.uk/article/12739/Brownfield-Sites-Register,0.81,owned by a public authority,,not permissioned,,,,18,,,,"""Enquiry ref. 10/02550/MNQ refused - interest in residential development""",30/11/2017,30/11/2018,,,
,,,,,,,,,,,,,,,,,,,http://opendatacommunities.org/id/metropolitan-district-council/sunderland,Sunderland,B467B,Thornbeck College site,-1.39546601,54.9271504,https://www.sunderland.gov.uk/article/12739/Brownfield-Sites-Register,0.37,not owned by a public authority,,not permissioned,,,,10,,,,"""Enquiry ref. 11/01303/MNQ - proposed extra care facilities""",30/11/2017,30/11/2018,,,
,,,,,,,,,,,,,,,,,,,http://opendatacommunities.org/id/metropolitan-district-council/sunderland,Sunderland,B565A,"Phoneix Tower Business Park, Castletown Way",-1.42245317,54.92227606,https://www.sunderland.gov.uk/article/12739/Brownfield-Sites-Register,0.42,not owned by a public authority,,permissioned,,,,14,,,,"""Permitted outline application ref. 14/00292/OUT - proposed 140 dwellings overall""",30/11/2017,30/11/2018,,,
,,,,,,,,,,,,,,,,,,,http://opendatacommunities.org/id/metropolitan-district-council/sunderland,Sunderland,B565B,"Phoneix Tower Business Park, Castletown Way",-1.4229512,54.92127197,https://www.sunderland.gov.uk/article/12739/Brownfield-Sites-Register,3.45,not owned by a public authority,,permissioned,,,,126,,,,"""Permitted outline application ref. 14/00292/OUT - proposed 140 dwellings overall""",30/11/2017,30/11/2018,,,
,,,,,,,,,,,,,,,,,,,http://opendatacommunities.org/id/metropolitan-district-council/sunderland,Sunderland,B678,South Hylton House,-1.44316362,54.90146185,https://www.sunderland.gov.uk/article/12739/Brownfield-Sites-Register,2.53,owned by a public authority,,not permissioned,,,,50,,,,,30/11/2017,30/11/2018,,,
,,,,,,,,,,,,,,,,,,,http://opendatacommunities.org/id/metropolitan-district-council/sunderland,Sunderland,18,42 to 45 Nile Street,-1.37647222,54.90617908,https://www.sunderland.gov.uk/article/12739/Brownfield-Sites-Register,0.06,not owned by a public authority,,permissioned,,,,54,,,,"""Permitted application ref. 16/00748/FU4. Part of Sunniside Planning & Design Framework SPD and Central Area Urban Design Strategy SPD""",30/11/2017,30/11/2018,,,
,,,,,,,,,,,,,,,,,,,http://opendatacommunities.org/id/metropolitan-district-council/sunderland,Sunderland,54,"Former Eagle Public House, Portsmouth Road",-1.44178261,54.89645015,https://www.sunderland.gov.uk/article/12739/Brownfield-Sites-Register,0.19,not owned by a public authority,,permissioned,,,,9,,,,"""Permitted application ref. 16/00509/FUL""",30/11/2017,30/11/2018,,,
,,,,,,,,,,,,,,,,,,,http://opendatacommunities.org/id/metropolitan-district-council/sunderland,Sunderland,70,"Site of Foundry (The Forge, Pallion)",-1.4110029,54.91039497,https://www.sunderland.gov.uk/article/12739/Brownfield-Sites-Register,1.32,not owned by a public authority,,permissioned,,,,22,,,,"""Permitted application ref. 15/02375/FUL""",30/11/2017,30/11/2018,,,
,,,,,,,,,,,,,,,,,,,http://opendatacommunities.org/id/metropolitan-district-council/sunderland,Sunderland,080A,"Stadium Village, Sheepfolds Central",-1.3865765,54.91246697,https://www.sunderland.gov.uk/article/12739/Brownfield-Sites-Register,1.25,mixed ownership,,not permissioned,,,,45,,,,"""Part of Stadium Village Development Framework SPD masterplan and Central Area Urban Design Strategy SPD""",30/11/2017,30/11/2018,,,
,,,,,,,,,,,,,,,,,,,http://opendatacommunities.org/id/metropolitan-district-council/sunderland,Sunderland,080B,"Stadium Village, Sheepfolds South",-1.38473121,54.9127722,https://www.sunderland.gov.uk/article/12739/Brownfield-Sites-Register,0.89,mixed ownership,,not permissioned,,,,63,,,,"""Part of Stadium Village Development Framework SPD masterplan and Central Area Urban Design Strategy SPD""",30/11/2017,30/11/2018,,,
,,,,,,,,,,,,,,,,,,,http://opendatacommunities.org/id/metropolitan-district-council/sunderland,Sunderland,85,"Former Groves Site, Woodbine Terrace, Pallion",-1.42470672,54.91413621,https://www.sunderland.gov.uk/article/12739/Brownfield-Sites-Register,31.21,not owned by a public authority,,pending decision,,,,630,,,,"""Part of Groves Development Framework. Intention for developer to submit planning application for 700 dwellings""",30/11/2017,30/11/2018,,,
,,,,,,,,,,,,,,,,,,,http://opendatacommunities.org/id/metropolitan-district-council/sunderland,Sunderland,86,Former Easington Lane Primary School Building,-1.43227437,54.80521179,https://www.sunderland.gov.uk/article/12739/Brownfield-Sites-Register,2.95,mixed ownership,,pending decision,,,,68,,,,"""Part of Easington Lane Development Framework SPD and Development Brief""",30/11/2017,30/11/2018,,,
,,,,,,,,,,,,,,,,,,,http://opendatacommunities.org/id/metropolitan-district-council/sunderland,Sunderland,104,"Carley Hill School, Emsworth Road",-1.3995792,54.92757509,https://www.sunderland.gov.uk/article/12739/Brownfield-Sites-Register,4.2,owned by a public authority,,not permissioned,,,,99,,,,"""Pre-application enquiry ref. 16/01431/P1""",30/11/2017,30/11/2018,,,
,,,,,,,,,,,,,,,,,,,http://opendatacommunities.org/id/metropolitan-district-council/sunderland,Sunderland,107,"Phases 2-6, Chester Road",-1.44509179,54.89278091,https://www.sunderland.gov.uk/article/12739/Brownfield-Sites-Register,16.72,mixed ownership,,pending decision,,,,450,,,,"""Withdrawn application ref. 10/01506/FUL (withdrawn July 2010) - redevelopment of Pennywell Phase 2 for 102 dwellings""",30/11/2017,30/11/2018,,,
,,,,,,,,,,,,,,,,,,,http://opendatacommunities.org/id/metropolitan-district-council/sunderland,Sunderland,109,Glebe Parkway,-1.52705832,54.89891417,https://www.sunderland.gov.uk/article/12739/Brownfield-Sites-Register,1.64,not owned by a public authority,,permissioned,,,,43,,,,"""Permitted application ref. 16/01045/FUL""",30/11/2017,30/11/2018,,,
,,,,,,,,,,,,,,,,,,,http://opendatacommunities.org/id/metropolitan-district-council/sunderland,Sunderland,469,Site of former Kentmere House,-1.48216864,54.85006132,https://www.sunderland.gov.uk/article/12739/Brownfield-Sites-Register,0.64,owned by a public authority,,permissioned,,,,19,,,,"""Pre-application ref. 13/01367/P7 - proposed 20 dwellings, development acceptable in principle. Concise brief prepared""",30/11/2017,30/11/2018,,,
,,,,,,,,,,,,,,,,,,,http://opendatacommunities.org/id/metropolitan-district-council/sunderland,Sunderland,470,Site of former Gilpin House,-1.48150741,54.85061566,https://www.sunderland.gov.uk/article/12739/Brownfield-Sites-Register,0.34,owned by a public authority,,not permissioned,,,,11,,,,"""Pre-application ref. 13/01367/P7 - proposed 12 dwellings, development acceptable in principle""",30/11/2017,30/11/2018,,,
,,,,,,,,,,,,,,,,,,,http://opendatacommunities.org/id/metropolitan-district-council/sunderland,Sunderland,502,"Vane Arms, Silksworth",-1.40231098,54.87273543,https://www.sunderland.gov.uk/article/12739/Brownfield-Sites-Register,0.09,not owned by a public authority,,permissioned,,,,7,,,,"""Permitted application ref. 17/01168/FUL - proposed conversion to 7 self-contained apartments""",30/11/2017,30/11/2018,,,
,,,,,,,,,,,,,,,,,,,http://opendatacommunities.org/id/metropolitan-district-council/sunderland,Sunderland,504,Doxford Park Phase 6,-1.41164471,54.86955514,https://www.sunderland.gov.uk/article/12739/Brownfield-Sites-Register,3.99,not owned by a public authority,,pending decision,,,,102,,,,"""Part of South Sunderland Growth Area masterplan and draft SPD""",30/11/2017,30/11/2018,,,
,,,,,,,,,,,,,,,,,,,http://opendatacommunities.org/id/metropolitan-district-council/sunderland,Sunderland,531,"Council Yard, North St, Silksworth",-1.40556678,54.87598657,https://www.sunderland.gov.uk/article/12739/Brownfield-Sites-Register,0.14,mixed ownership,,permissioned,,,,3,,,,"""Permitted application ref. 11/01908/FUL - under construction""",30/11/2017,30/11/2018,,,
,,,,,,,,,,,,,,,,,,,http://opendatacommunities.org/id/metropolitan-district-council/sunderland,Sunderland,537,Land at Redcar Road/Rawdon Rd,-1.42129921,54.9244093,https://www.sunderland.gov.uk/article/12739/Brownfield-Sites-Register,0.28,owned by a public authority,,permissioned,,,,10,,,,"""Pre-application enquiry ref. 10/00104/ENQ - proposed 8 bungalows and a core house, development acceptable in principle. Development Brief prepared""",30/11/2017,30/11/2018,,,
,,,,,,,,,,,,,,,,,,,http://opendatacommunities.org/id/metropolitan-district-council/sunderland,Sunderland,563,"Hylton Skills campus, north Hylton Road",-1.4176292,54.92355599,https://www.sunderland.gov.uk/article/12739/Brownfield-Sites-Register,3.55,mixed ownership,,not permissioned,,,,90,,,,"""Planning application ref. 13/00378/FUL (approved 21/05/2013) - proposed new College engineering academy building. Development Brief prepared""",30/11/2017,30/11/2018,,,
,,,,,,,,,,,,,,,,,,,http://opendatacommunities.org/id/metropolitan-district-council/sunderland,Sunderland,655,Galen Building,-1.38787322,54.90410701,https://www.sunderland.gov.uk/article/12739/Brownfield-Sites-Register,0.21,not owned by a public authority,,not permissioned,,,,115,,,,"""Permitted application ref. 14/02729/FUL""",30/11/2017,30/11/2018,,,
,,,,,,,,,,,,,,,,,,,http://opendatacommunities.org/id/metropolitan-district-council/sunderland,Sunderland,659,"Sunniside Central Area, Villiers Street",-1.37711028,54.9072787,https://www.sunderland.gov.uk/article/12739/Brownfield-Sites-Register,1.21,mixed ownership,,not permissioned,,,,18,,,,"""Part of Sunniside Planning & Design Framework SPD and Central Area Urban Design Strategy SPD""",30/11/2017,30/11/2018,,,
,,,,,,,,,,,,,,,,,,,http://opendatacommunities.org/id/metropolitan-district-council/sunderland,Sunderland,661,12 Fawcett Street,-1.38145487,54.90670768,https://www.sunderland.gov.uk/article/12739/Brownfield-Sites-Register,0.02,not owned by a public authority,,permissioned,,,,5,,,,"""Permitted application ref. 14/01962/FUL and 16/00357/FUL. Part of Sunniside Planning & Design Framework SPD and Central Area Urban Design Strategy SPD""",30/11/2017,30/11/2018,,,
,,,,,,,,,,,,,,,,,,,http://opendatacommunities.org/id/metropolitan-district-council/sunderland,Sunderland,687,"Former Hylton Castle Library, Cranleigh Road",-1.4467706,54.92274884,https://www.sunderland.gov.uk/article/12739/Brownfield-Sites-Register,0.18,not owned by a public authority,,permissioned,,,,9,,,,"""Permitted application ref. 17/00427/FU4""",30/11/2017,30/11/2018,,,
,,,,,,,,,,,,,,,,,,,http://opendatacommunities.org/id/metropolitan-district-council/sunderland,Sunderland,688,"Derwent House, Washington Town Centre",-1.53494034,54.89689563,https://www.sunderland.gov.uk/article/12739/Brownfield-Sites-Register,0.05,not owned by a public authority,,permissioned,,,,48,,,,"""Permitted Prior Notification application ref. 17/00087/PCJ""",30/11/2017,30/11/2018,,,
,,,,,,,,,,,,,,,,,,,http://opendatacommunities.org/id/metropolitan-district-council/sunderland,Sunderland,690,"First Floor,the Old Vestry, 23 Fawcett Street",-1.38114308,54.90568163,https://www.sunderland.gov.uk/article/12739/Brownfield-Sites-Register,0.02,not owned by a public authority,,permissioned,,,,12,,,,"""Permitted Prior Notification application ref. 16/02221/PCJ. Part of Sunniside Planning & Design Framework SPD and Central Area Urban Design Strategy SPD""",30/11/2017,30/11/2018,,,
,,,,,,,,,,,,,,,,,,,http://opendatacommunities.org/id/metropolitan-district-council/sunderland,Sunderland,693,"Former Cheadle Centre, Caithness Road, Hylton",-1.4557129,54.9237507,https://www.sunderland.gov.uk/article/12739/Brownfield-Sites-Register,0.52,owned by a public authority,,permissioned,,,,19,,,,,30/11/2017,30/11/2018,,,
,,,,,,,,,,,,,,,,,,,http://opendatacommunities.org/id/metropolitan-district-council/sunderland,Sunderland,698,"Gray Road, Hendon",-1.368075,54.899756,https://www.sunderland.gov.uk/article/12739/Brownfield-Sites-Register,0.03,not owned by a public authority,,permissioned,,,,8,,,,,30/11/2018,30/11/2018,,,
,,,,,,,,,,,,,,,,,,,http://opendatacommunities.org/id/metropolitan-district-council/sunderland,Sunderland,699,Upper floors 18 Fawcett Street,-1.381278,54.906178,https://www.sunderland.gov.uk/article/12739/Brownfield-Sites-Register,0.02,not owned by a public authority,,permissioned,,,,6,,,,,30/11/2018,30/11/2018,,,
,,,,,,,,,,,,,,,,,,,http://opendatacommunities.org/id/metropolitan-district-council/sunderland,Sunderland,701,67 John Street,-1.38106,54.907156,https://www.sunderland.gov.uk/article/12739/Brownfield-Sites-Register,0.02,not owned by a public authority,,permissioned,,,,9,,,,,30/11/2018,30/11/2018,,,
,,,,,,,,,,,,,,,,,,,http://opendatacommunities.org/id/metropolitan-district-council/sunderland,Sunderland,703,Westbourne Road,-1.395253,54.90508,https://www.sunderland.gov.uk/article/12739/Brownfield-Sites-Register,0.06,not owned by a public authority,,permissioned,,,,9,,,,,30/11/2018,30/11/2018,,,
,,,,,,,,,,,,,,,,,,,http://opendatacommunities.org/id/metropolitan-district-council/sunderland,Sunderland,704,"Fence Houses Comrades Club, Station Avenue North, Fence Houses",-1.504538,54.846093,https://www.sunderland.gov.uk/article/12739/Brownfield-Sites-Register,0.1,not owned by a public authority,,permissioned,,,,8,,,,,30/11/2018,30/11/2018,,,
,,,,,,,,,,,,,,,,,,,http://opendatacommunities.org/id/metropolitan-district-council/sunderland,Sunderland,705,2 Grange Crescent,-1.383635,54.899899,https://www.sunderland.gov.uk/article/12739/Brownfield-Sites-Register,0.02,not owned by a public authority,,permissioned,,,,6,,,,,30/11/2018,30/11/2018,,,
,,,,,,,,,,,,,,,,,,,http://opendatacommunities.org/id/metropolitan-district-council/sunderland,Sunderland,706,"Mayholme, 31 Sea View Road",-1.375046,54.887634,https://www.sunderland.gov.uk/article/12739/Brownfield-Sites-Register,0.08,not owned by a public authority,,permissioned,,,,7,,,,,30/11/2018,30/11/2018,,,
,,,,,,,,,,,,,,,,,,,http://opendatacommunities.org/id/metropolitan-district-council/sunderland,Sunderland,714,"Pennywell Business Centre, Pennywell",-1.439408,54.898048,https://www.sunderland.gov.uk/article/12739/Brownfield-Sites-Register,0.49,not owned by a public authority,,not permissioned,,,,27,,,,,30/11/2018,30/11/2018,,,
,,,,,,,,,,,,,,,,,,,http://opendatacommunities.org/id/metropolitan-district-council/sunderland,Sunderland,720,"Land at Dixon Square, Causeway",-1.378118,54.914842,https://www.sunderland.gov.uk/article/12739/Brownfield-Sites-Register,0.19,not owned by a public authority,,not permissioned,,,,9,,,,,30/11/2018,30/11/2018,,,
,,,,,,,,,,,,,,,,,,,http://opendatacommunities.org/id/metropolitan-district-council/sunderland,Sunderland,721,"The Ropery, Websters Bank",-1.402178,54.913462,https://www.sunderland.gov.uk/article/12739/Brownfield-Sites-Register,1.54,not owned by a public authority,,not permissioned,,,,43,,,,,30/11/2018,30/11/2018,,,
,,,,,,,,,,,,,,,,,,,http://opendatacommunities.org/id/metropolitan-district-council/sunderland,Sunderland,568,"Fulwell Fire Station, Station Road",-1.383924,54.928981,https://www.sunderland.gov.uk/article/12739/Brownfield-Sites-Register,0.27,owned by a public authority,,pending decision,,,,23,,,,,30/11/2018,30/11/2018,,,
,,,,,,,,,,,,,,,,,,,http://opendatacommunities.org/id/metropolitan-district-council/sunderland,Sunderland,B724,"Tatham Street Hostel, Tatham Street",-1.378075,54.902495,https://www.sunderland.gov.uk/article/12739/Brownfield-Sites-Register,0.04,not owned by a public authority,,permissioned,,,,50,,,,,30/11/2018,30/11/2018,,,
,,,,,,,,,,,,,,,,,,,http://opendatacommunities.org/id/metropolitan-district-council/sunderland,Sunderland,B725,12 - 13 Toward Road,-1.376187,54.904597,https://www.sunderland.gov.uk/article/12739/Brownfield-Sites-Register,0.15,not owned by a public authority,,permissioned,,,,12,,,,,30/11/2018,30/11/2018,,,
,,,,,,,,,,,,,,,,,,,http://opendatacommunities.org/id/metropolitan-district-council/sunderland,Sunderland,665,255 High Street West,-1.384552,54.90711,https://www.sunderland.gov.uk/article/12739/Brownfield-Sites-Register,0.04,not owned by a public authority,,permissioned,,,,9,,,,"""Permitted application ref.15/00344/FUL.Part of Central Area Urban Design Strategy SPD""",30/06/2016,30/11/2018,,,
