address,address-text,deliverable,end-date,entry-date,hazardous-substances,hectares,latitude,longitude,maximum-net-dwellings,minimum-net-dwellings,notes,organisation,ownership-status,planning-permission-date,planning-permission-history,planning-permission-status,planning-permission-type,site,OrganisationURI,OrganisationLabel,SiteReference,SiteNameAddress,GeoX,GeoY,SiteplanURL,Hectares,OwnershipStatus,HazardousSubstances,PlanningStatus,PermissionType,PermissionDate,PlanningHistory,MinNetDwellings,NetDwellingsRangeFrom,NetDwellingsRangeTo,Deliverable,Notes,FirstAddedDate,LastUpdatedDate,EndDate,site-plan-url,start-date
,,,,,,,,,,,,,,,,,,,http://opendatacommunities.org/id/unitary-authority/cheshire-west-and-chester,Cheshire West and Chester Council,,"""Land to rear of 21-33 Western Avenue, Blacon""",338165,367821,http://consult.cheshirewestandchester.gov.uk/file/4828177,0.29,not owned by a public authority,,not permissioned,,,,16,,,,,21/12/2017,,,,
,,,,,,,,,,,,,,,,,,,http://opendatacommunities.org/id/unitary-authority/cheshire-west-and-chester,Cheshire West and Chester Council,,"""Former Highfield Hotel, 99 Saughall Road, Blacon""",338232,367982,http://consult.cheshirewestandchester.gov.uk/file/4828178,0.4,not owned by a public authority,,permissioned,,,,21,,,,"16/01384/OUT
17/00253/REM (pending)",21/12/2017,,,,
,,,,,,,,,,,,,,,,,,,http://opendatacommunities.org/id/unitary-authority/cheshire-west-and-chester,Cheshire West and Chester Council,,"""27 Blacon Point Road, Blacon, Chester. CH1 5LD""",338590,367600,http://consult.cheshirewestandchester.gov.uk/file/4828179,0.17,not owned by a public authority,,permissioned,,,,6,,,,11/01876/FUL  12/02648/FUL,21/12/2017,,,,
,,,,,,,,,,,,,,,,,,,http://opendatacommunities.org/id/unitary-authority/cheshire-west-and-chester,Cheshire West and Chester Council,,"""King Edward Buildings/ Bensons site and surrounding land, Christleton""",342309,366168,http://consult.cheshirewestandchester.gov.uk/file/4828180,0.34,mixed ownership,,not permissioned,,,,11,,,,,21/12/2017,,,,
,,,,,,,,,,,,,,,,,,,http://opendatacommunities.org/id/unitary-authority/cheshire-west-and-chester,Cheshire West and Chester Council,,"""Former Deva Service Station, Whitchurch Road, Boughton, Chester""",342627,366138,http://consult.cheshirewestandchester.gov.uk/file/4828181,0.16,not owned by a public authority,,permissioned,,,,12,,,,"13/00343/FUL 14/02356/FUL
16/01706/S73",21/12/2017,,,,
,,,,,,,,,,,,,,,,,,,http://opendatacommunities.org/id/unitary-authority/cheshire-west-and-chester,Cheshire West and Chester Council,,"""Site of former Boughton St Pauls Infant School, adjacent to superstore, Boughton, Chester""",341411,366593,http://consult.cheshirewestandchester.gov.uk/file/4828182,0.58,not owned by a public authority,,not permissioned,,,,15,,,,,21/12/2017,,,,
,,,,,,,,,,,,,,,,,,,http://opendatacommunities.org/id/unitary-authority/cheshire-west-and-chester,Cheshire West and Chester Council,,"""City House, 36 City Road, Chester""",341240,366701,http://consult.cheshirewestandchester.gov.uk/file/4828183,0.32,not owned by a public authority,,pending decision,,,,23,,,,14/03412/FUL (pending),21/12/2017,,,,
,,,,,,,,,,,,,,,,,,,http://opendatacommunities.org/id/unitary-authority/cheshire-west-and-chester,Cheshire West and Chester Council,,"""Lead Shot Tower, former Calder Indutsrial Estates, Leadworks Lane, Chester""",341434,366688,http://consult.cheshirewestandchester.gov.uk/file/4828184,0.38,not owned by a public authority,,permissioned,,,,65,,,,04/01548/FUL    07/01274/FUL  12/01543/ful 16/00880/FUL,21/12/2017,,,,
,,,,,,,,,,,,,,,,,,,http://opendatacommunities.org/id/unitary-authority/cheshire-west-and-chester,Cheshire West and Chester Council,,"""Land at Premier House, Chaterhall Drive, Chester""",341522,366754,http://consult.cheshirewestandchester.gov.uk/file/4828185,2.48,not owned by a public authority,,permissioned,,,,200,,,,"12/04895/FUL  14/03317/REM
14/01799/NMA",21/12/2017,,,,
,,,,,,,,,,,,,,,,,,,http://opendatacommunities.org/id/unitary-authority/cheshire-west-and-chester,Cheshire West and Chester Council,,"""125-127 Boughton Chester Cheshire CH3 5BH """,341750,366537,http://consult.cheshirewestandchester.gov.uk/file/4828186,0.22,not owned by a public authority,,permissioned,,,,14,,,,16/01011/FUL,21/12/2017,,,,
,,,,,,,,,,,,,,,,,,,http://opendatacommunities.org/id/unitary-authority/cheshire-west-and-chester,Cheshire West and Chester Council,,"""Linenhall car park, Stanley Street, Chester, CH1 2LR""",340217,366302,http://consult.cheshirewestandchester.gov.uk/file/4828187,0.74,not owned by a public authority,,permissioned,,,,202,,,,"13/03210/FUL
17/00530/NMA",21/12/2017,,,,
,,,,,,,,,,,,,,,,,,,http://opendatacommunities.org/id/unitary-authority/cheshire-west-and-chester,Cheshire West and Chester Council,,"""Black Diamond Street and Hoole Way, Chester""",340980,367019,http://consult.cheshirewestandchester.gov.uk/file/4828188,0.3,not owned by a public authority,,not permissioned,,,,20,,,,,21/12/2017,,,,
,,,,,,,,,,,,,,,,,,,http://opendatacommunities.org/id/unitary-authority/cheshire-west-and-chester,Cheshire West and Chester Council,,"""Trafford Street Area, Chester""",340650,366981,http://consult.cheshirewestandchester.gov.uk/file/4828189,1.5,mixed ownership,,not permissioned,,,,42,,,,,21/12/2017,,,,
,,,,,,,,,,,,,,,,,,,http://opendatacommunities.org/id/unitary-authority/cheshire-west-and-chester,Cheshire West and Chester Council,,"""St Anne Street car park, Black Diamond Street, Chester""",340900,366936,http://consult.cheshirewestandchester.gov.uk/file/4828190,0.34,owned by a public authority,,not permissioned,,,,11,,,,,21/12/2017,,,,
,,,,,,,,,,,,,,,,,,,http://opendatacommunities.org/id/unitary-authority/cheshire-west-and-chester,Cheshire West and Chester Council,,"""Browns Yard Car Park""",340980,366500,http://consult.cheshirewestandchester.gov.uk/file/4828191,0.28,owned by a public authority,,not permissioned,,,,13,,,,,21/12/2017,,,,
,,,,,,,,,,,,,,,,,,,http://opendatacommunities.org/id/unitary-authority/cheshire-west-and-chester,Cheshire West and Chester Council,,"""Northgate Redevelopment Site: Land Bounded By Hunter Street, Northgate Street, Watergate Street And St Martins Way Chester Cheshire""",340355,366387,http://consult.cheshirewestandchester.gov.uk/file/4828192,5.68,mixed ownership,,permissioned,,,,70,,,,"02/00838/FUL   07/00061/S73 10/11534/EXT
16/02282/OUT",21/12/2017,,,,
,,,,,,,,,,,,,,,,,,,http://opendatacommunities.org/id/unitary-authority/cheshire-west-and-chester,Cheshire West and Chester Council,,"""New Crane Street Car Park, Chester""",340068,366225,http://consult.cheshirewestandchester.gov.uk/file/4828193,0.33,owned by a public authority,,not permissioned,,,,15,,,,,21/12/2017,,,,
,,,,,,,,,,,,,,,,,,,http://opendatacommunities.org/id/unitary-authority/cheshire-west-and-chester,Cheshire West and Chester Council,,"""Former car garage, Lower Bridge Street, Chester""",340661,365925,http://consult.cheshirewestandchester.gov.uk/file/4828194,0.22,not owned by a public authority,,not permissioned,,,,20,,,,,21/12/2017,,,,
,,,,,,,,,,,,,,,,,,,http://opendatacommunities.org/id/unitary-authority/cheshire-west-and-chester,Cheshire West and Chester Council,,"""Garden Lane Car Park, Chester""",340300,366806,http://consult.cheshirewestandchester.gov.uk/file/4828195,0.33,owned by a public authority,,not permissioned,,,,6,,,,,21/12/2017,,,,
,,,,,,,,,,,,,,,,,,,http://opendatacommunities.org/id/unitary-authority/cheshire-west-and-chester,Cheshire West and Chester Council,,"""BT Building and Newgate House, St John's Street, Chester""",340853,366258,http://consult.cheshirewestandchester.gov.uk/file/4828196,0.32,not owned by a public authority,,not permissioned,,,,29,,,,,21/12/2017,,,,
,,,,,,,,,,,,,,,,,,,http://opendatacommunities.org/id/unitary-authority/cheshire-west-and-chester,Cheshire West and Chester Council,,"""Loves Garage, Garden Lane, Chester""",340244,366772,http://consult.cheshirewestandchester.gov.uk/file/4828197,0.14,not owned by a public authority,,not permissioned,,,,6,,,,,21/12/2017,,,,
,,,,,,,,,,,,,,,,,,,http://opendatacommunities.org/id/unitary-authority/cheshire-west-and-chester,Cheshire West and Chester Council,,"""Land at corner of Bollands Court / Commonhall Street. Chester""",340438,366145,http://consult.cheshirewestandchester.gov.uk/file/4828198,0.3,not owned by a public authority,,permissioned,,,,15,,,,01/01507/FUL  14/03728/FUL,21/12/2017,,,,
,,,,,,,,,,,,,,,,,,,http://opendatacommunities.org/id/unitary-authority/cheshire-west-and-chester,Cheshire West and Chester Council,,"""34 Cuppin Street, Chester CH1 2BN""",340415,366040,http://consult.cheshirewestandchester.gov.uk/file/4828199,0.05,not owned by a public authority,,permissioned,,,,13,,,,16/03684/PDO,21/12/2017,,,,
,,,,,,,,,,,,,,,,,,,http://opendatacommunities.org/id/unitary-authority/cheshire-west-and-chester,Cheshire West and Chester Council,,"""14 - 20 Watergate Street, Chester (within boundary of CHC/0008/H)""",340469,366301,http://consult.cheshirewestandchester.gov.uk/file/4828200,0.1,mixed ownership,,pending decision,,,,23,,,,16/00580/FUL (pending),21/12/2017,,,,
,,,,,,,,,,,,,,,,,,,http://opendatacommunities.org/id/unitary-authority/cheshire-west-and-chester,Cheshire West and Chester Council,,"""Clemence House St Werburgh Street Chester Cheshire CH1 2DY """,340524,366412,http://consult.cheshirewestandchester.gov.uk/file/4828201,0.03,not owned by a public authority,,permissioned,,,,8,,,,16/00844/FUL,21/12/2017,,,,
,,,,,,,,,,,,,,,,,,,http://opendatacommunities.org/id/unitary-authority/cheshire-west-and-chester,Cheshire West and Chester Council,,"""Car park off Hunter Street, Chester""",340258,366507,http://consult.cheshirewestandchester.gov.uk/file/4828202,0.08,not owned by a public authority,,permissioned,,,,70,,,,15/04014/FUL,21/12/2017,,,,
,,,,,,,,,,,,,,,,,,,http://opendatacommunities.org/id/unitary-authority/cheshire-west-and-chester,Cheshire West and Chester Council,,"""White Lane Depot, White Lane, Christleton""",343635,365547,http://consult.cheshirewestandchester.gov.uk/file/4828203,0.26,not owned by a public authority,,not permissioned,,,,7,,,,,21/12/2017,,,,
,,,,,,,,,,,,,,,,,,,http://opendatacommunities.org/id/unitary-authority/cheshire-west-and-chester,Cheshire West and Chester Council,,"""The Moorings, Rowton Bridge Road, G716Christleton, CH3 7AE""",344325,365129,http://consult.cheshirewestandchester.gov.uk/file/4828204,0.23,not owned by a public authority,,permissioned,,,,5,,,,13/00999/FUL,21/12/2017,,,,
,,,,,,,,,,,,,,,,,,,http://opendatacommunities.org/id/unitary-authority/cheshire-west-and-chester,Cheshire West and Chester Council,,"""Land at 44 Church Street, Shipbrook Road, Davenham""",366428,371202,http://consult.cheshirewestandchester.gov.uk/file/4828205,0.27,not owned by a public authority,,not permissioned,,,,27,,,,,21/12/2017,,,,
,,,,,,,,,,,,,,,,,,,http://opendatacommunities.org/id/unitary-authority/cheshire-west-and-chester,Cheshire West and Chester Council,,"""Land to rear of The Salt Museum, London Road, Northwich""",365796,373162,http://consult.cheshirewestandchester.gov.uk/file/4828206,0.26,owned by a public authority,,not permissioned,,,,18,,,,,21/12/2017,,,,
,,,,,,,,,,,,,,,,,,,http://opendatacommunities.org/id/unitary-authority/cheshire-west-and-chester,Cheshire West and Chester Council,,"""Land at 618 London Road, Davenham""",366095,370214,http://consult.cheshirewestandchester.gov.uk/file/4828207,0.73,not owned by a public authority,,not permissioned,,,,53,,,,,21/12/2017,,,,
,,,,,,,,,,,,,,,,,,,http://opendatacommunities.org/id/unitary-authority/cheshire-west-and-chester,Cheshire West and Chester Council,,"""Land at Decoy Farm, Lache Lane, Marlston cum Lache, Chester""",338052,362851,http://consult.cheshirewestandchester.gov.uk/file/4828208,1.13,not owned by a public authority,,permissioned,,,,24,,,,15/01429/OUT,21/12/2017,,,,
,,,,,,,,,,,,,,,,,,,http://opendatacommunities.org/id/unitary-authority/cheshire-west-and-chester,Cheshire West and Chester Council,,"""Balderton Saw Mill, Welsh Road, Doddleston""",337534,362142,http://consult.cheshirewestandchester.gov.uk/file/4828209,1.67,not owned by a public authority,,permissioned,,,,25,,,,13/04534/OUT,21/12/2017,,,,
,,,,,,,,,,,,,,,,,,,http://opendatacommunities.org/id/unitary-authority/cheshire-west-and-chester,Cheshire West and Chester Council,,"""93-99 Chester Road (Hartwell Garage),Huntington Road, Huntington""",342375,364483,http://consult.cheshirewestandchester.gov.uk/file/4828210,0.44,not owned by a public authority,,pending decision,,,,5,,,,17/00662/FUL|Site in outer hazaed zone,21/12/2017,,,,
,,,,,,,,,,,,,,,,,,,http://opendatacommunities.org/id/unitary-authority/cheshire-west-and-chester,Cheshire West and Chester Council,,"""Land at Marina Drive (upper floors of retail centre), Ellesmere Port""",339966,376014,http://consult.cheshirewestandchester.gov.uk/file/4828211,1.17,not owned by a public authority,,not permissioned,,,,33,,,,,21/12/2017,,,,
,,,,,,,,,,,,,,,,,,,http://opendatacommunities.org/id/unitary-authority/cheshire-west-and-chester,Cheshire West and Chester Council,,"""The Wing Half, Alnwick Drive, Ellesmere Port CH65 9HE""",340917,374816,http://consult.cheshirewestandchester.gov.uk/file/4828212,0.13,not owned by a public authority,,permissioned,,,,6,,,,14/01081/FUL,21/12/2017,,,,
,,,,,,,,,,,,,,,,,,,http://opendatacommunities.org/id/unitary-authority/cheshire-west-and-chester,Cheshire West and Chester Council,,"""64 Whitby Road, Ellesmere Port CH65 0AA""",340034,376209,http://consult.cheshirewestandchester.gov.uk/file/4828213,0.03,not owned by a public authority,,permissioned,,,,5,,,,14/03263/PDJ,21/12/2017,,,,
,,,,,,,,,,,,,,,,,,,http://opendatacommunities.org/id/unitary-authority/cheshire-west-and-chester,Cheshire West and Chester Council,,"""CROMWELL ROAD - Phase 1b and 2 - Land north of Cromwell Road, Ellesmere Port (adjacent site EPT0092)""",340601,376357,http://consult.cheshirewestandchester.gov.uk/file/4828214,4.76,not owned by a public authority,,permissioned,,,,149,,,,"14/00041/OUT, 16/05392/REM (pending)",21/12/2017,,,,
,,,,,,,,,,,,,,,,,,,http://opendatacommunities.org/id/unitary-authority/cheshire-west-and-chester,Cheshire West and Chester Council,,"""CROMWELL ROAD - Land north of Cromwell Road, Ellesmere Port (former HH Robertsons / DSM Resins)""",340804,376301,http://consult.cheshirewestandchester.gov.uk/file/4828215,4.59,not owned by a public authority,,permissioned,,,,350,,,,14/00041/OUT,21/12/2017,,,,
,,,,,,,,,,,,,,,,,,,http://opendatacommunities.org/id/unitary-authority/cheshire-west-and-chester,Cheshire West and Chester Council,,"""Wellington Road car park, rear of 89 - 109 Cambridge Road, Ellesmere Port""",340525,376222,http://consult.cheshirewestandchester.gov.uk/file/4828216,0.82,owned by a public authority,,not permissioned,,,,26,,,,Site in Middle;Outer hazard zone,21/12/2017,,,,
,,,,,,,,,,,,,,,,,,,http://opendatacommunities.org/id/unitary-authority/cheshire-west-and-chester,Cheshire West and Chester Council,,"""The Knot PH, Whitby Road, Ellesmere Port""",340180,376243,http://consult.cheshirewestandchester.gov.uk/file/4828217,0.24,not owned by a public authority,,not permissioned,,,,9,,,,,21/12/2017,,,,
,,,,,,,,,,,,,,,,,,,http://opendatacommunities.org/id/unitary-authority/cheshire-west-and-chester,Cheshire West and Chester Council,,"""Wellington Road car park, Ellesmere Port Cheshire """,340078,375598,http://consult.cheshirewestandchester.gov.uk/file/4828218,0.18,owned by a public authority,,permissioned,,,,10,,,,16/04482/FUL,21/12/2017,,,,
,,,,,,,,,,,,,,,,,,,http://opendatacommunities.org/id/unitary-authority/cheshire-west-and-chester,Cheshire West and Chester Council,,"""Land at Coronation Road (site of former leisure centre and office building), Stanney Lane, Ellesmere Port""",340032,375660,http://consult.cheshirewestandchester.gov.uk/file/4828219,2.02,owned by a public authority,,not permissioned,,,,30,,,,,21/12/2017,,,,
,,,,,,,,,,,,,,,,,,,http://opendatacommunities.org/id/unitary-authority/cheshire-west-and-chester,Cheshire West and Chester Council,,"""Land south of Cromwell  Road (former PZ Cussons), Ellesmere Port""",340891,376085,http://consult.cheshirewestandchester.gov.uk/file/4828220,1.54,not owned by a public authority,,not permissioned,,,,71,,,,P/08/745   P/2008/102/ST/745,21/12/2017,,,,
,,,,,,,,,,,,,,,,,,,http://opendatacommunities.org/id/unitary-authority/cheshire-west-and-chester,Cheshire West and Chester Council,,"""Stoak Lodge, Stoak Gardens, Ellesmere Port CH65 0DW""",340417,375868,http://consult.cheshirewestandchester.gov.uk/file/4828221,0.19,not owned by a public authority,,permissioned,,,,6,,,,"16/00281/FUL
16/04087/NMA
16/05378/DEM",21/12/2017,,,,
,,,,,,,,,,,,,,,,,,,http://opendatacommunities.org/id/unitary-authority/cheshire-west-and-chester,Cheshire West and Chester Council,,"""Land adjacent to 43 Malvern Avenue, Ellesmere Port CH65 5AG""",340515,375455,http://consult.cheshirewestandchester.gov.uk/file/4828222,0.12,not owned by a public authority,,permissioned,,,,5,,,,16/00280/FUL,21/12/2017,,,,
,,,,,,,,,,,,,,,,,,,http://opendatacommunities.org/id/unitary-authority/cheshire-west-and-chester,Cheshire West and Chester Council,,"""53 Whitby Road, Ellesmere Port CH65 8AB""",340150,376238,http://consult.cheshirewestandchester.gov.uk/file/4828223,0.05,not owned by a public authority,,permissioned,,,,10,,,,16/02077/FUL,21/12/2017,,,,
,,,,,,,,,,,,,,,,,,,http://opendatacommunities.org/id/unitary-authority/cheshire-west-and-chester,Cheshire West and Chester Council,,"""Grosvenor Estate Yard, Middle Lane, Aldford, Chester CH3 6JA""",341982,359202,http://consult.cheshirewestandchester.gov.uk/file/4828224,0.66,not owned by a public authority,,not permissioned,,,,8,,,,08/01294/FUL  11/04335/EXT,21/12/2017,,,,
,,,,,,,,,,,,,,,,,,,http://opendatacommunities.org/id/unitary-authority/cheshire-west-and-chester,Cheshire West and Chester Council,,"""The Forge, Ship Street, Frodsham Cheshire WA6 7NZ """,351820,378182,http://consult.cheshirewestandchester.gov.uk/file/4828225,0.07,not owned by a public authority,,permissioned,,,,10,,,,"11/01221/OUT  14/02461/OUT
16/01411/FUL",21/12/2017,,,,
,,,,,,,,,,,,,,,,,,,http://opendatacommunities.org/id/unitary-authority/cheshire-west-and-chester,Cheshire West and Chester Council,,"""3 - 15 Bridge Lane, Frodsham""",352315,378195,http://consult.cheshirewestandchester.gov.uk/file/4828226,0.16,mixed ownership,,not permissioned,,,,6,,,,,21/12/2017,,,,
,,,,,,,,,,,,,,,,,,,http://opendatacommunities.org/id/unitary-authority/cheshire-west-and-chester,Cheshire West and Chester Council,,"""Land off Greenfield Lane, Frodsham""",351641,378004,http://consult.cheshirewestandchester.gov.uk/file/4828227,0.37,not owned by a public authority,,not permissioned,,,,11,,,,Site in Outer hazard zone,21/12/2017,,,,
,,,,,,,,,,,,,,,,,,,http://opendatacommunities.org/id/unitary-authority/cheshire-west-and-chester,Cheshire West and Chester Council,,"""Mersey View Club, Overton Hill, Bellemonte Road, Frodsham Cheshire WA6 6HH """,351768,376834,http://consult.cheshirewestandchester.gov.uk/file/4828228,1.39,not owned by a public authority,,permissioned,,,,12,,,,14/03835/OUT,21/12/2017,,,,
,,,,,,,,,,,,,,,,,,,http://opendatacommunities.org/id/unitary-authority/cheshire-west-and-chester,Cheshire West and Chester Council,,"""Former Frodsham library site, High Street, Frodsham""",351868,378091,http://consult.cheshirewestandchester.gov.uk/file/4828229,0.08,not owned by a public authority,,pending decision,,,,14,,,,17/00268/FUL (pending),21/12/2017,,,,
,,,,,,,,,,,,,,,,,,,http://opendatacommunities.org/id/unitary-authority/cheshire-west-and-chester,Cheshire West and Chester Council,,"""Land to rear of Crane Bank Garage, Chester""",339822,366411,http://consult.cheshirewestandchester.gov.uk/file/4828230,0.18,not owned by a public authority,,not permissioned,,,,12,,,,Site in Middle;Outer hazard zone,21/12/2017,,,,
,,,,,,,,,,,,,,,,,,,http://opendatacommunities.org/id/unitary-authority/cheshire-west-and-chester,Cheshire West and Chester Council,,"""Southern Tail development (remaining part of allocation), New Crane Street""",339830,366318,http://consult.cheshirewestandchester.gov.uk/file/4828231,0.66,not owned by a public authority,,not permissioned,,,,31,,,,,21/12/2017,,,,
,,,,,,,,,,,,,,,,,,,http://opendatacommunities.org/id/unitary-authority/cheshire-west-and-chester,Cheshire West and Chester Council,,"""Land at Arthur Street, Chester""",339539,366913,http://consult.cheshirewestandchester.gov.uk/file/4828232,0.56,not owned by a public authority,,not permissioned,,,,18,,,,,21/12/2017,,,,
,,,,,,,,,,,,,,,,,,,http://opendatacommunities.org/id/unitary-authority/cheshire-west-and-chester,Cheshire West and Chester Council,,"""Land off New Crane Street / Kitchen Street, Chester""",339887,366277,http://consult.cheshirewestandchester.gov.uk/file/4828233,0.35,not owned by a public authority,,not permissioned,,,,18,,,,,21/12/2017,,,,
,,,,,,,,,,,,,,,,,,,http://opendatacommunities.org/id/unitary-authority/cheshire-west-and-chester,Cheshire West and Chester Council,,"""Raymond House and Diocesan House, Raymond Street, Chester""",340076,366630,http://consult.cheshirewestandchester.gov.uk/file/4828234,0.05,not owned by a public authority,,permissioned,,,,10,,,,15/02650/FUL,21/12/2017,,,,
,,,,,,,,,,,,,,,,,,,http://opendatacommunities.org/id/unitary-authority/cheshire-west-and-chester,Cheshire West and Chester Council,,"""Council depot and garage court off Sutton Way, Ellesmere Port""",339391,375938,http://consult.cheshirewestandchester.gov.uk/file/4828235,0.38,owned by a public authority,,not permissioned,,,,12,,,,,21/12/2017,,,,
,,,,,,,,,,,,,,,,,,,http://opendatacommunities.org/id/unitary-authority/cheshire-west-and-chester,Cheshire West and Chester Council,,"""Former school site (The Acorns Primary and Nursery), Pooltown Road, Ellesmere Port""",338914,376353,http://consult.cheshirewestandchester.gov.uk/file/4828236,0.46,owned by a public authority,,not permissioned,,,,59,,,,,21/12/2017,,,,
,,,,,,,,,,,,,,,,,,,http://opendatacommunities.org/id/unitary-authority/cheshire-west-and-chester,Cheshire West and Chester Council,,"""Sutton Way, land adjacent to West Cheshire College, Regent Street, Ellesmere Port""",339626,376115,http://consult.cheshirewestandchester.gov.uk/file/4828237,3.59,not owned by a public authority,,permissioned,,,,140,,,,"12/00424/OUT  
13/03858/S73
16/02739/FUL",21/12/2017,,,,
,,,,,,,,,,,,,,,,,,,http://opendatacommunities.org/id/unitary-authority/cheshire-west-and-chester,Cheshire West and Chester Council,,"""Beechmoor Garden Centre / Shed sales, Whitchurch Road, Chester, Cheshire, CH3 5QD""",343084,365866,http://consult.cheshirewestandchester.gov.uk/file/4828238,0.93,not owned by a public authority,,not permissioned,,,,22,,,,,21/12/2017,,,,
,,,,,,,,,,,,,,,,,,,http://opendatacommunities.org/id/unitary-authority/cheshire-west-and-chester,Cheshire West and Chester Council,,"""Foxwood, Caldy Valley Road, Great Boughton Chester Cheshire CH3 5PR""",342924,365914,http://consult.cheshirewestandchester.gov.uk/file/4828239,0.2,not owned by a public authority,,permissioned,,,,7,,,,15/01278/FUL,21/12/2017,,,,
,,,,,,,,,,,,,,,,,,,http://opendatacommunities.org/id/unitary-authority/cheshire-west-and-chester,Cheshire West and Chester Council,,"""176 and 178 Chester Road, Northwich, CW8 4AL""",364487,372982,http://consult.cheshirewestandchester.gov.uk/file/4828240,0.1,not owned by a public authority,,not permissioned,,,,10,,,,13/02368/OUT,21/12/2017,,,,
,,,,,,,,,,,,,,,,,,,http://opendatacommunities.org/id/unitary-authority/cheshire-west-and-chester,Cheshire West and Chester Council,,"""Land to rear of 45-51 Percy Road / 15-17 Eaton Road, Handbridge""",340828,365335,http://consult.cheshirewestandchester.gov.uk/file/4828241,0.29,mixed ownership,,not permissioned,,,,8,,,,,21/12/2017,,,,
,,,,,,,,,,,,,,,,,,,http://opendatacommunities.org/id/unitary-authority/cheshire-west-and-chester,Cheshire West and Chester Council,,"""Land to rear of 2 -14 Bradford Street, Handbridge, Chester""",340881,365427,http://consult.cheshirewestandchester.gov.uk/file/4828242,0.14,not owned by a public authority,,permissioned,,,,5,,,,08/02031/FUL 13/02232/EXT,21/12/2017,,,,
,,,,,,,,,,,,,,,,,,,http://opendatacommunities.org/id/unitary-authority/cheshire-west-and-chester,Cheshire West and Chester Council,,"""Watertower off Eaton Mews, Handbridge""",340652,365278,http://consult.cheshirewestandchester.gov.uk/file/4828243,0.33,not owned by a public authority,,not permissioned,,,,7,,,,,21/12/2017,,,,
,,,,,,,,,,,,,,,,,,,http://opendatacommunities.org/id/unitary-authority/cheshire-west-and-chester,Cheshire West and Chester Council,,"""The Chase (Helsby) - Former Horse And Jockey Chester Road Helsby Frodsham Cheshire """,349327,375936,http://consult.cheshirewestandchester.gov.uk/file/4828244,0.32,not owned by a public authority,,permissioned,,,,14,,,,"16/03313/FUL - pending
14/03769/FUL
09/02434/FUL",21/12/2017,,,,
,,,,,,,,,,,,,,,,,,,http://opendatacommunities.org/id/unitary-authority/cheshire-west-and-chester,Cheshire West and Chester Council,,"""INEOS Compounds UK Limited, Chester Road, Helsby""",348259,374598,http://consult.cheshirewestandchester.gov.uk/file/4828245,1.88,not owned by a public authority,,permissioned,,,,69,,,,"13/02503/OUT 
16/05566/REM",21/12/2017,,,,
,,,,,,,,,,,,,,,,,,,http://opendatacommunities.org/id/unitary-authority/cheshire-west-and-chester,Cheshire West and Chester Council,,"""MERE'S EDGE (Phase 4) site of existing Helsby Community Sports Club, between chester Road and Hornsmill Brook, Heslby""",348335,374371,http://consult.cheshirewestandchester.gov.uk/file/4828246,1.6,not owned by a public authority,,permissioned,,,,120,,,,08/02901/OUM 14/04044/OUT,21/12/2017,,,,
,,,,,,,,,,,,,,,,,,,http://opendatacommunities.org/id/unitary-authority/cheshire-west-and-chester,Cheshire West and Chester Council,,"""Hoole Lawn Tennis Club, Fairfield Road, Chester CH2 3RN""",342059,367773,http://consult.cheshirewestandchester.gov.uk/file/4828247,0.4,not owned by a public authority,,permissioned,,,,8,,,,15/00269/OUT,21/12/2017,,,,
,,,,,,,,,,,,,,,,,,,http://opendatacommunities.org/id/unitary-authority/cheshire-west-and-chester,Cheshire West and Chester Council,,"""Hoole Road Enterprise Centre, Chester""",341328,367110,http://consult.cheshirewestandchester.gov.uk/file/4828248,0.71,owned by a public authority,,not permissioned,,,,32,,,,,21/12/2017,,,,
,,,,,,,,,,,,,,,,,,,http://opendatacommunities.org/id/unitary-authority/cheshire-west-and-chester,Cheshire West and Chester Council,,"""Land between Lightfoot Street/ Thomas Brassery Court / railway line, Hoole, Chester""",341574,366971,http://consult.cheshirewestandchester.gov.uk/file/4828249,0.4,mixed ownership,,not permissioned,,,,18,,,,,21/12/2017,,,,
,,,,,,,,,,,,,,,,,,,http://opendatacommunities.org/id/unitary-authority/cheshire-west-and-chester,Cheshire West and Chester Council,,"""Former car sales garage and public house, Hoole Bridge, Hoole Road, Hoole, Chester""",341201,367182,http://consult.cheshirewestandchester.gov.uk/file/4828250,0.46,mixed ownership,,not permissioned,,,,7,,,,,21/12/2017,,,,
,,,,,,,,,,,,,,,,,,,http://opendatacommunities.org/id/unitary-authority/cheshire-west-and-chester,Cheshire West and Chester Council,,"""The Grange, 1 Hoole Road, Chester CH2 3NQ""",341278,367151,http://consult.cheshirewestandchester.gov.uk/file/4828251,0.09,not owned by a public authority,,permissioned,,,,6,,,,16/03189/FUL,21/12/2017,,,,
,,,,,,,,,,,,,,,,,,,http://opendatacommunities.org/id/unitary-authority/cheshire-west-and-chester,Cheshire West and Chester Council,,"""Haulage Yard, High Street, Norley, Northwich""",356695,372385,http://consult.cheshirewestandchester.gov.uk/file/4828252,0.3,not owned by a public authority,,pending decision,,,,12,,,,15/01749/OUT (pending),21/12/2017,,,,
,,,,,,,,,,,,,,,,,,,http://opendatacommunities.org/id/unitary-authority/cheshire-west-and-chester,Cheshire West and Chester Council,,"""Crowton Mill, Ainsworth Lane, Crowton, Northwich CW8 2RS""",357900,374753,http://consult.cheshirewestandchester.gov.uk/file/4828253,0.3,not owned by a public authority,,permissioned,,,,15,,,,"14/02553/OUT
16/01033/REM",21/12/2017,,,,
,,,,,,,,,,,,,,,,,,,http://opendatacommunities.org/id/unitary-authority/cheshire-west-and-chester,Cheshire West and Chester Council,,"""Great Western House, The Sidings, Chester St, Saltney,""",338615,364994,http://consult.cheshirewestandchester.gov.uk/file/4828254,0.5,not owned by a public authority,,not permissioned,,,,16,,,,,21/12/2017,,,,
,,,,,,,,,,,,,,,,,,,http://opendatacommunities.org/id/unitary-authority/cheshire-west-and-chester,Cheshire West and Chester Council,,"""Red Hill House, Hope Street, Saltney""",338776,364938,http://consult.cheshirewestandchester.gov.uk/file/4828255,0.96,not owned by a public authority,,not permissioned,,,,30,,,,,21/12/2017,,,,
,,,,,,,,,,,,,,,,,,,http://opendatacommunities.org/id/unitary-authority/cheshire-west-and-chester,Cheshire West and Chester Council,,"""726 Chester Road, Ellesmere Port""",337567,375492,http://consult.cheshirewestandchester.gov.uk/file/4828256,0.31,not owned by a public authority,,not permissioned,,,,10,,,,,21/12/2017,,,,
,,,,,,,,,,,,,,,,,,,http://opendatacommunities.org/id/unitary-authority/cheshire-west-and-chester,Cheshire West and Chester Council,,"""Romney Close garage site, Neston CH63 9RJ""",329462,377066,http://consult.cheshirewestandchester.gov.uk/file/4828257,0.18,owned by a public authority,,permissioned,,,,8,,,,16/03082/FUL,21/12/2017,,,,
,,,,,,,,,,,,,,,,,,,http://opendatacommunities.org/id/unitary-authority/cheshire-west-and-chester,Cheshire West and Chester Council,,"""New Farm Court, Tilston Road, Overton, Malpas SY14 7DF""",348261,348056,http://consult.cheshirewestandchester.gov.uk/file/4828258,0.35,not owned by a public authority,,permissioned,,,,6,,,,"14/02639/OUT
16/01179/FUL
17/01102/NMA",21/12/2017,,,,
,,,,,,,,,,,,,,,,,,,http://opendatacommunities.org/id/unitary-authority/cheshire-west-and-chester,Cheshire West and Chester Council,,"""Canal Bridge House, 47 Chapel Street, Wincham, Northwich CW9 6DA""",367478,375272,http://consult.cheshirewestandchester.gov.uk/file/4828259,0.12,not owned by a public authority,,permissioned,,,,7,,,,09/02524/FUL  14/02588/FUL,21/12/2017,,,,
,,,,,,,,,,,,,,,,,,,http://opendatacommunities.org/id/unitary-authority/cheshire-west-and-chester,Cheshire West and Chester Council,,"""Land north of Chapel Street, Wincham""",367384,375267,http://consult.cheshirewestandchester.gov.uk/file/4828260,1.97,not owned by a public authority,,not permissioned,,,,55,,,,,21/12/2017,,,,
,,,,,,,,,,,,,,,,,,,http://opendatacommunities.org/id/unitary-authority/cheshire-west-and-chester,Cheshire West and Chester Council,,"""7 Tunnel Road (land and buildings), Barnton, Northwich""",,,http://consult.cheshirewestandchester.gov.uk/file/4828261,,not owned by a public authority,,not permissioned,,,,13,,,,08-2090-FUM 11/03583/EXT,21/12/2017,,,,
,,,,,,,,,,,,,,,,,,,http://opendatacommunities.org/id/unitary-authority/cheshire-west-and-chester,Cheshire West and Chester Council,,"""Brown Owl PH car park, Church Road, Barnton, Northwich""",363723,374933,http://consult.cheshirewestandchester.gov.uk/file/4828262,0.37,not owned by a public authority,,not permissioned,,,,15,,,,,21/12/2017,,,,
,,,,,,,,,,,,,,,,,,,http://opendatacommunities.org/id/unitary-authority/cheshire-west-and-chester,Cheshire West and Chester Council,,"""Malvern House  (adjacent to Daisy Bank), Old Road, Anderton with Marbury, Northwich. CW9 6AG""",364523,375311,http://consult.cheshirewestandchester.gov.uk/file/4828263,0.63,not owned by a public authority,,permissioned,,,,9,,,,15/01549/OUT,21/12/2017,,,,
,,,,,,,,,,,,,,,,,,,http://opendatacommunities.org/id/unitary-authority/cheshire-west-and-chester,Cheshire West and Chester Council,,"""The Homestead, Linnards Lane, Wincham, Northwich, Cheshire, CW9 6ED""",368906,376388,http://consult.cheshirewestandchester.gov.uk/file/4828264,0.18,not owned by a public authority,,permissioned,,,,5,,,,09/01521/OUT   12/03054/REM,21/12/2017,,,,
,,,,,,,,,,,,,,,,,,,http://opendatacommunities.org/id/unitary-authority/cheshire-west-and-chester,Cheshire West and Chester Council,,"""Former Fiveways Dairy, Liverpool Road, Neston""",329861,379022,http://consult.cheshirewestandchester.gov.uk/file/4828265,0.43,not owned by a public authority,,permissioned,,,,10,,,,"13/01904/OUT
15/05041/REM
17/00481/NMA",21/12/2017,,,,
,,,,,,,,,,,,,,,,,,,http://opendatacommunities.org/id/unitary-authority/cheshire-west-and-chester,Cheshire West and Chester Council,,"""Hinderton Hall, Chester High Road, Neston CH64 7TS""",330623,378477,http://consult.cheshirewestandchester.gov.uk/file/4828266,0.95,not owned by a public authority,,permissioned,,,,5,,,,16/01511/FUL,21/12/2017,,,,
,,,,,,,,,,,,,,,,,,,http://opendatacommunities.org/id/unitary-authority/cheshire-west-and-chester,Cheshire West and Chester Council,,"""8 to 30 Brook Street, Neston""",329242,377513,http://consult.cheshirewestandchester.gov.uk/file/4828267,0.14,mixed ownership,,not permissioned,,,,10,,,,,21/12/2017,,,,
,,,,,,,,,,,,,,,,,,,http://opendatacommunities.org/id/unitary-authority/cheshire-west-and-chester,Cheshire West and Chester Council,,"""Land at Rivacre Academy, Forest Road, Ellesmere Port CH66 1JY""",338425,377338,http://consult.cheshirewestandchester.gov.uk/file/4828268,0.22,owned by a public authority,,permissioned,,,,22,,,,"14/01287/OUT
16/02289/REM
17/00535/S73 - pending",21/12/2017,,,,
,,,,,,,,,,,,,,,,,,,http://opendatacommunities.org/id/unitary-authority/cheshire-west-and-chester,Cheshire West and Chester Council,,"""Land off Netherpool Road, Ellesmere Port""",338731,377633,http://consult.cheshirewestandchester.gov.uk/file/4828269,0.38,not owned by a public authority,,not permissioned,,,,126,,,,,21/12/2017,,,,
,,,,,,,,,,,,,,,,,,,http://opendatacommunities.org/id/unitary-authority/cheshire-west-and-chester,Cheshire West and Chester Council,,"""Site of former Foxfields Public House, Poole Hall Road, Ellesmere Port""",338765,377910,http://consult.cheshirewestandchester.gov.uk/file/4828270,0.71,owned by a public authority,,not permissioned,,,,19,,,,,21/12/2017,,,,
,,,,,,,,,,,,,,,,,,,http://opendatacommunities.org/id/unitary-authority/cheshire-west-and-chester,Cheshire West and Chester Council,,"""Garage off Grange Road, Upton, Chester""",340584,367697,http://consult.cheshirewestandchester.gov.uk/file/4828271,0.31,not owned by a public authority,,not permissioned,,,,10,,,,,21/12/2017,,,,
,,,,,,,,,,,,,,,,,,,http://opendatacommunities.org/id/unitary-authority/cheshire-west-and-chester,Cheshire West and Chester Council,,"""Land off Liverpool Road, Chester""",340324,368050,http://consult.cheshirewestandchester.gov.uk/file/4828272,0.35,not owned by a public authority,,not permissioned,,,,9,,,,,21/12/2017,,,,
,,,,,,,,,,,,,,,,,,,http://opendatacommunities.org/id/unitary-authority/cheshire-west-and-chester,Cheshire West and Chester Council,,"""Bus depot, Liverpool Road, Chester""",340402,367011,http://consult.cheshirewestandchester.gov.uk/file/4828273,0.42,not owned by a public authority,,not permissioned,,,,19,,,,,21/12/2017,,,,
,,,,,,,,,,,,,,,,,,,http://opendatacommunities.org/id/unitary-authority/cheshire-west-and-chester,Cheshire West and Chester Council,,"""24-28 Bridge Street, Neston CH64 9UJ""",329272,377355,http://consult.cheshirewestandchester.gov.uk/file/4828274,0.09,not owned by a public authority,,permissioned,,,,10,,,,15/02292/FUL,21/12/2017,,,,
,,,,,,,,,,,,,,,,,,,http://opendatacommunities.org/id/unitary-authority/cheshire-west-and-chester,Cheshire West and Chester Council,,"""Rossfield Park Development (Sites 2C, 3 and 4), Rossfield Road, Ellesmere Port""",339694,376721,http://consult.cheshirewestandchester.gov.uk/file/4828275,5.64,not owned by a public authority,,permissioned,,,,233,,,,"P/02/929 
13/01365/EXT (pending)
16/03098/CWC (pending)",21/12/2017,,,,
,,,,,,,,,,,,,,,,,,,http://opendatacommunities.org/id/unitary-authority/cheshire-west-and-chester,Cheshire West and Chester Council,,"""Land at Crescent Road, off Meadow Lane, Ellesmere Port""",340615,376694,http://consult.cheshirewestandchester.gov.uk/file/4828276,0.7,owned by a public authority,,not permissioned,,,,22,,,,Site in Middle;Outer hazard zone,21/12/2017,,,,
,,,,,,,,,,,,,,,,,,,http://opendatacommunities.org/id/unitary-authority/cheshire-west-and-chester,Cheshire West and Chester Council,,"""Former British Gas And Part Of Former Gulf Oil Sites Land Bounded By Rossfield Road North, Poole Hall Road And Rossmore Road East Ellesmere Port Cheshire""",339429,377520,http://consult.cheshirewestandchester.gov.uk/file/4828277,7.82,not owned by a public authority,,permissioned,,,,280,,,,"10/02062/OUT
14/05347/NMA
15/04631/S73
16/02022/REM
17/00129/NMA - pending",21/12/2017,,,,
,,,,,,,,,,,,,,,,,,,http://opendatacommunities.org/id/unitary-authority/cheshire-west-and-chester,Cheshire West and Chester Council,,"""Rossfield Park Development (Site 5:Rossbank Road), Ellesmere Port (Persimmon)""",339437,377063,http://consult.cheshirewestandchester.gov.uk/file/4828278,4.87,not owned by a public authority,,permissioned,,,,190,,,,P/02/929  10/00636/OUT,21/12/2017,,,,
,,,,,,,,,,,,,,,,,,,http://opendatacommunities.org/id/unitary-authority/cheshire-west-and-chester,Cheshire West and Chester Council,,"""Land at Rosswood Road / Rossfield Road, Ellesmere Port""",339404,376819,http://consult.cheshirewestandchester.gov.uk/file/4828279,0.65,not owned by a public authority,,not permissioned,,,,20,,,,,21/12/2017,,,,
,,,,,,,,,,,,,,,,,,,http://opendatacommunities.org/id/unitary-authority/cheshire-west-and-chester,Cheshire West and Chester Council,,"""Land at Rossmore Road East / Rossfield Road North, Ellesmere Port""",339502,377310,http://consult.cheshirewestandchester.gov.uk/file/4828280,1.39,not owned by a public authority,,not permissioned,,,,70,,,,,21/12/2017,,,,
,,,,,,,,,,,,,,,,,,,http://opendatacommunities.org/id/unitary-authority/cheshire-west-and-chester,Cheshire West and Chester Council,,"""Land south of Meadow Lane (former Van Leer / Hansteen site), Ellesmere Port""",340678,376570,http://consult.cheshirewestandchester.gov.uk/file/4828281,3.94,not owned by a public authority,,permissioned,,,,179,,,,P/2009/102/WE/156  12/04513/EXT,21/12/2017,,,,
,,,,,,,,,,,,,,,,,,,http://opendatacommunities.org/id/unitary-authority/cheshire-west-and-chester,Cheshire West and Chester Council,,"""Rear of 70-88 Grace Road, New Grosvenor Road, Ellesmere Port""",339993,377017,http://consult.cheshirewestandchester.gov.uk/file/4828282,0.42,not owned by a public authority,,not permissioned,,,,13,,,,,21/12/2017,,,,
,,,,,,,,,,,,,,,,,,,http://opendatacommunities.org/id/unitary-authority/cheshire-west-and-chester,Cheshire West and Chester Council,,"""Land adjacent to Mollington Banastre Hotel, Parkgate Road, Mollington""",338748,369297,http://consult.cheshirewestandchester.gov.uk/file/4828283,0.31,not owned by a public authority,,permissioned,,,,5,,,,16/01181/FUL,21/12/2017,,,,
,,,,,,,,,,,,,,,,,,,http://opendatacommunities.org/id/unitary-authority/cheshire-west-and-chester,Cheshire West and Chester Council,,"""413 Manchester Road, Lostock Gralam, Northwich""",369051,374999,http://consult.cheshirewestandchester.gov.uk/file/4828284,0.53,not owned by a public authority,,not permissioned,,,,14,,,,,21/12/2017,,,,
,,,,,,,,,,,,,,,,,,,http://opendatacommunities.org/id/unitary-authority/cheshire-west-and-chester,Cheshire West and Chester Council,,"""Land to rear of 226-250 Manchester Road, Lostock Gralam""",368742,374744,http://consult.cheshirewestandchester.gov.uk/file/4828285,0.11,not owned by a public authority,,not permissioned,,,,26,,,,,21/12/2017,,,,
,,,,,,,,,,,,,,,,,,,http://opendatacommunities.org/id/unitary-authority/cheshire-west-and-chester,Cheshire West and Chester Council,,"""Goostrey Business Park, New Platt Lane, Allostock, Northwich CW4 8NN""",374854,370286,http://consult.cheshirewestandchester.gov.uk/file/4828286,0.36,not owned by a public authority,,permissioned,,,,5,,,,"16/03425/FUL
15/04269/OUT",21/12/2017,,,,
,,,,,,,,,,,,,,,,,,,http://opendatacommunities.org/id/unitary-authority/cheshire-west-and-chester,Cheshire West and Chester Council,,"""Eccleston Avenue (garage court), Ellesmere Port""",338457,376207,http://consult.cheshirewestandchester.gov.uk/file/4828287,0.24,owned by a public authority,,not permissioned,,,,9,,,,,21/12/2017,,,,
,,,,,,,,,,,,,,,,,,,http://opendatacommunities.org/id/unitary-authority/cheshire-west-and-chester,Cheshire West and Chester Council,,"""Overpool Road (garage court), Ellesmere Port""",338451,376485,http://consult.cheshirewestandchester.gov.uk/file/4828288,0.23,owned by a public authority,,not permissioned,,,,8,,,,,21/12/2017,,,,
,,,,,,,,,,,,,,,,,,,http://opendatacommunities.org/id/unitary-authority/cheshire-west-and-chester,Cheshire West and Chester Council,,"""The Sutton Way PH, Sutton Way, Ellesmere Port""",338337,375869,http://consult.cheshirewestandchester.gov.uk/file/4828289,0.28,not owned by a public authority,,not permissioned,,,,14,,,,,21/12/2017,,,,
,,,,,,,,,,,,,,,,,,,http://opendatacommunities.org/id/unitary-authority/cheshire-west-and-chester,Cheshire West and Chester Council,,"""Sutton High School, Woodchurch Lane /Mill Lane, Ellesmere Port""",338260,376480,http://consult.cheshirewestandchester.gov.uk/file/4828290,1.39,owned by a public authority,,not permissioned,,,,19,,,,,21/12/2017,,,,
,,,,,,,,,,,,,,,,,,,http://opendatacommunities.org/id/unitary-authority/cheshire-west-and-chester,Cheshire West and Chester Council,,"""Station Road (garage / shop), Little Sutton""",337275,376940,http://consult.cheshirewestandchester.gov.uk/file/4828291,0.26,not owned by a public authority,,not permissioned,,,,8,,,,,21/12/2017,,,,
,,,,,,,,,,,,,,,,,,,http://opendatacommunities.org/id/unitary-authority/cheshire-west-and-chester,Cheshire West and Chester Council,,"""Land to rear of 6-12 Heathlands Road, Little Sutton, Ellesmere Port""",336771,377006,http://consult.cheshirewestandchester.gov.uk/file/4828292,0.11,not owned by a public authority,,not permissioned,,,,19,,,,,21/12/2017,,,,
,,,,,,,,,,,,,,,,,,,http://opendatacommunities.org/id/unitary-authority/cheshire-west-and-chester,Cheshire West and Chester Council,,"""Land at Chester Road, Ellesmere Port, CH66 3RJ""",337319,376453,http://consult.cheshirewestandchester.gov.uk/file/4828293,0.26,not owned by a public authority,,not permissioned,,,,8,,,,,21/12/2017,,,,
,,,,,,,,,,,,,,,,,,,http://opendatacommunities.org/id/unitary-authority/cheshire-west-and-chester,Cheshire West and Chester Council,,"""Rivacre Business Centre, Mill Lane, Great Sutton, Ellesmere Port CH66 3TL""",338294,376322,http://consult.cheshirewestandchester.gov.uk/file/4828294,1.37,owned by a public authority,,not permissioned,,,,38,,,,,21/12/2017,,,,
,,,,,,,,,,,,,,,,,,,http://opendatacommunities.org/id/unitary-authority/cheshire-west-and-chester,Cheshire West and Chester Council,,"""Chester Road (Garden centre), Great Sutton, Ellesmere Port""",338237,374016,http://consult.cheshirewestandchester.gov.uk/file/4828295,1.17,not owned by a public authority,,not permissioned,,,,28,,,,,21/12/2017,,,,
,,,,,,,,,,,,,,,,,,,http://opendatacommunities.org/id/unitary-authority/cheshire-west-and-chester,Cheshire West and Chester Council,,"""Garage Court, Carlyle Crescent, Ellesmere Port""",338367,375617,http://consult.cheshirewestandchester.gov.uk/file/4828296,0.28,not owned by a public authority,,not permissioned,,,,10,,,,,21/12/2017,,,,
,,,,,,,,,,,,,,,,,,,http://opendatacommunities.org/id/unitary-authority/cheshire-west-and-chester,Cheshire West and Chester Council,,"""Land adjacent 41 By Pass Road, Tarvin, Chester""",348876,367093,http://consult.cheshirewestandchester.gov.uk/file/4828297,0.13,not owned by a public authority,,permissioned,,,,4,,,,15/04393/ful,21/12/2017,,,,
,,,,,,,,,,,,,,,,,,,http://opendatacommunities.org/id/unitary-authority/cheshire-west-and-chester,Cheshire West and Chester Council,,"""Land at former Haulage Yard site, Chester Road, Oakmere, Northwich""",356524,368587,http://consult.cheshirewestandchester.gov.uk/file/4828298,1.14,not owned by a public authority,,permissioned,,,,27,,,,10/01939/FUL,21/12/2017,,,,
,,,,,,,,,,,,,,,,,,,http://opendatacommunities.org/id/unitary-authority/cheshire-west-and-chester,Cheshire West and Chester Council,,"""Land at former Haulage Yard site, off Shakerley Close, Oakmere, Northwich""",356545,368646,http://consult.cheshirewestandchester.gov.uk/file/4828299,0.28,not owned by a public authority,,permissioned,,,,5,,,,15/03652/OUT,21/12/2017,,,,
,,,,,,,,,,,,,,,,,,,http://opendatacommunities.org/id/unitary-authority/cheshire-west-and-chester,Cheshire West and Chester Council,,"""Land at former Marley Tile Works site, Station Road, Oakemere, Northwich""",355933,370046,http://consult.cheshirewestandchester.gov.uk/file/4828300,7.11,not owned by a public authority,,permissioned,,,,166,,,,"14/01086/OUT
17/01539/REM (pending)",21/12/2017,,,,
,,,,,,,,,,,,,,,,,,,http://opendatacommunities.org/id/unitary-authority/cheshire-west-and-chester,Cheshire West and Chester Council,,"""Yong Sing Restaurant Ltd, Former court and Police Station, Chester Road, Northwich. CW8 2HB""",356535,368706,http://consult.cheshirewestandchester.gov.uk/file/4828301,0.41,not owned by a public authority,,permissioned,,,,19,,,,"12/00182/FUL
16/04979/S73
16/04843/DEM",21/12/2017,,,,
,,,,,,,,,,,,,,,,,,,http://opendatacommunities.org/id/unitary-authority/cheshire-west-and-chester,Cheshire West and Chester Council,,"""Montrose, Chester Road, Kelsall, CW6 0RJ""",351683,368010,http://consult.cheshirewestandchester.gov.uk/file/4828302,0.38,not owned by a public authority,,permissioned,,,,7,,,,14/01308/OUT,21/12/2017,,,,
,,,,,,,,,,,,,,,,,,,http://opendatacommunities.org/id/unitary-authority/cheshire-west-and-chester,Cheshire West and Chester Council,,"""Ottersbank Farm Fishpool Road Delamere Northwich Cheshire CW8 2HP""",356793,367098,http://consult.cheshirewestandchester.gov.uk/file/4828303,0.14,not owned by a public authority,,permissioned,,,,7,,,,"13/04028/FUL     13/03068/FUL
16/00218/FUL",21/12/2017,,,,
,,,,,,,,,,,,,,,,,,,http://opendatacommunities.org/id/unitary-authority/cheshire-west-and-chester,Cheshire West and Chester Council,,"""The Gables, Chester Road, Oakmere, Northwich CW8 2HB""",356474,368653,http://consult.cheshirewestandchester.gov.uk/file/4828304,0.32,not owned by a public authority,,permissioned,,,,5,,,,15/04214/OUT,21/12/2017,,,,
,,,,,,,,,,,,,,,,,,,http://opendatacommunities.org/id/unitary-authority/cheshire-west-and-chester,Cheshire West and Chester Council,,"""Former Royal British Legion site (Legion Hall), High Street, Tarporley""",355541,362387,http://consult.cheshirewestandchester.gov.uk/file/4828305,0.25,not owned by a public authority,,pending decision,,,,10,,,,17/00760/FUL (pending),21/12/2017,,,,
,,,,,,,,,,,,,,,,,,,http://opendatacommunities.org/id/unitary-authority/cheshire-west-and-chester,Cheshire West and Chester Council,,"""Arderne Hall Farm, Walkers Lane, Tarporley""",356107,362244,http://consult.cheshirewestandchester.gov.uk/file/4828306,0.86,not owned by a public authority,,not permissioned,,,,40,,,,,21/12/2017,,,,
,,,,,,,,,,,,,,,,,,,http://opendatacommunities.org/id/unitary-authority/cheshire-west-and-chester,Cheshire West and Chester Council,,"""Beeston Cattle Auction site, Whitchurch Road, Beeston, Chester Cheshire""",355287,359688,http://consult.cheshirewestandchester.gov.uk/file/4828307,4.72,not owned by a public authority,,permissioned,,,,103,,,,13/04149/OUT,21/12/2017,,,,
,,,,,,,,,,,,,,,,,,,http://opendatacommunities.org/id/unitary-authority/cheshire-west-and-chester,Cheshire West and Chester Council,,"""Blackham Reclamation Yard, Tattenhall Road, Newton by Tattenhall, Chester, CH3 9QQ""",349493,360302,http://consult.cheshirewestandchester.gov.uk/file/4828308,0.48,not owned by a public authority,,permissioned,,,,25,,,,"13/02120/OUT
16/03089/REM",21/12/2017,,,,
,,,,,,,,,,,,,,,,,,,http://opendatacommunities.org/id/unitary-authority/cheshire-west-and-chester,Cheshire West and Chester Council,,"""Flute Buildings, Waste Hill Road Land At School Lane And Land At Harthill Road, Burwardsley,  Cheshire""",351538,356780,http://consult.cheshirewestandchester.gov.uk/file/4828309,0.2,not owned by a public authority,,permissioned,,,,5,,,,14/00738/FUL,21/12/2017,,,,
,,,,,,,,,,,,,,,,,,,http://opendatacommunities.org/id/unitary-authority/cheshire-west-and-chester,Cheshire West and Chester Council,,"""Land at The Oak Room, Tattenhall Road, Newton by Tattenhall, CH3 9BD""",349338,360316,http://consult.cheshirewestandchester.gov.uk/file/4828310,0.78,not owned by a public authority,,permissioned,,,,31,,,,12/02283/FUL,21/12/2017,,,,
,,,,,,,,,,,,,,,,,,,http://opendatacommunities.org/id/unitary-authority/cheshire-west-and-chester,Cheshire West and Chester Council,,"""The former Oak Room Public House, Tattenhall Road, Newton By Tattenhall Chester""",349364,360294,http://consult.cheshirewestandchester.gov.uk/file/4828311,0.16,not owned by a public authority,,permissioned,,,,5,,,,15/03391/FUL,21/12/2017,,,,
,,,,,,,,,,,,,,,,,,,http://opendatacommunities.org/id/unitary-authority/cheshire-west-and-chester,Cheshire West and Chester Council,,"""Former The Gamekeeper PH,  (Plush Spice) Newhall Road, Upton, Chester, CH2 1TB""",341345,368947,http://consult.cheshirewestandchester.gov.uk/file/4828312,0.13,not owned by a public authority,,permissioned,,,,12,,,,"13/03014/OUT
16/05308/REM (pending)",21/12/2017,,,,
,,,,,,,,,,,,,,,,,,,http://opendatacommunities.org/id/unitary-authority/cheshire-west-and-chester,Cheshire West and Chester Council,,"""UPTON DENE (Phase 3): Land off Upton Grange, Liverpool Road, Chester""",339943,368775,http://consult.cheshirewestandchester.gov.uk/file/4828313,3.11,not owned by a public authority,,pending decision,,,,74,,,,"14/05171/OUT (pending)
17/01543/FUL (pending)",21/12/2017,,,,
,,,,,,,,,,,,,,,,,,,http://opendatacommunities.org/id/unitary-authority/cheshire-west-and-chester,Cheshire West and Chester Council,,"""Briar Lane (garage court), Weaverham""",362008,373345,http://consult.cheshirewestandchester.gov.uk/file/4828314,0.26,not owned by a public authority,,not permissioned,,,,9,,,,,21/12/2017,,,,
,,,,,,,,,,,,,,,,,,,http://opendatacommunities.org/id/unitary-authority/cheshire-west-and-chester,Cheshire West and Chester Council,,"""Land to rear of 250 Chester Road, Ellesmere Port""",339287,374183,http://consult.cheshirewestandchester.gov.uk/file/4828315,0.51,not owned by a public authority,,not permissioned,,,,16,,,,,21/12/2017,,,,
,,,,,,,,,,,,,,,,,,,http://opendatacommunities.org/id/unitary-authority/cheshire-west-and-chester,Cheshire West and Chester Council,,"""Royal British Legion and land to rear, Stanney Lane, Whitby, Ellesmere Port""",340129,375321,http://consult.cheshirewestandchester.gov.uk/file/4828316,1.27,not owned by a public authority,,not permissioned,,,,30,,,,,21/12/2017,,,,
,,,,,,,,,,,,,,,,,,,http://opendatacommunities.org/id/unitary-authority/cheshire-west-and-chester,Cheshire West and Chester Council,,"""St Thomas House Whitby Road Ellesmere Port CH65 6TU """,339679,375855,http://consult.cheshirewestandchester.gov.uk/file/4828317,0.14,not owned by a public authority,,permissioned,,,,13,,,,16/04329/FUL,21/12/2017,,,,
,,,,,,,,,,,,,,,,,,,http://opendatacommunities.org/id/unitary-authority/cheshire-west-and-chester,Cheshire West and Chester Council,,"""Land adjacent 7A Chester Road, Ellesmere Port""",339527,375638,http://consult.cheshirewestandchester.gov.uk/file/4828318,0.03,not owned by a public authority,,not permissioned,,,,,,,,,21/12/2017,,,,
,,,,,,,,,,,,,,,,,,,http://opendatacommunities.org/id/unitary-authority/cheshire-west-and-chester,Cheshire West and Chester Council,,"""Land east of Winnington Avenue, Winnington""",364062,373301,http://consult.cheshirewestandchester.gov.uk/file/4828319,6.02,not owned by a public authority,,not permissioned,,,,180,,,,,21/12/2017,,,,
,,,,,,,,,,,,,,,,,,,http://opendatacommunities.org/id/unitary-authority/cheshire-west-and-chester,Cheshire West and Chester Council,,"""Land south of Northway / Winnington Cistern, Winnington""",364996,374305,http://consult.cheshirewestandchester.gov.uk/file/4828320,2.23,not owned by a public authority,,not permissioned,,,,40,,,,,21/12/2017,,,,
,,,,,,,,,,,,,,,,,,,http://opendatacommunities.org/id/unitary-authority/cheshire-west-and-chester,Cheshire West and Chester Council,,"""Land at Lock Street, Northwich""",365629,373901,http://consult.cheshirewestandchester.gov.uk/file/4828321,0.21,multiple ownership,,not permissioned,,,,8,,,,,21/12/2017,,,,
,,,,,,,,,,,,,,,,,,,http://opendatacommunities.org/id/unitary-authority/cheshire-west-and-chester,Cheshire West and Chester Council,,"""British Waterways site, Navigation Road, Northwich""",365610,373472,http://consult.cheshirewestandchester.gov.uk/file/4828322,1.26,not owned by a public authority,,not permissioned,,,,40,,,,,21/12/2017,,,,
,,,,,,,,,,,,,,,,,,,http://opendatacommunities.org/id/unitary-authority/cheshire-west-and-chester,Cheshire West and Chester Council,,"""Land at Weaver Shipyard, Saxons Lane, Northwich""",365230,372480,http://consult.cheshirewestandchester.gov.uk/file/4828323,2.98,not owned by a public authority,,not permissioned,,,,72,,,,,21/12/2017,,,,
,,,,,,,,,,,,,,,,,,,http://opendatacommunities.org/id/unitary-authority/cheshire-west-and-chester,Cheshire West and Chester Council,,"""Land at Winnington Works, Northwich""",364835,374723,http://consult.cheshirewestandchester.gov.uk/file/4828324,58.55,multiple ownership,,not permissioned,,,,602,,,,,21/12/2017,,,,
,,,,,,,,,,,,,,,,,,,http://opendatacommunities.org/id/unitary-authority/cheshire-west-and-chester,Cheshire West and Chester Council,,"""Land at Winnington Business Park, Winnington Avenue, Northwich""",364202,373494,http://consult.cheshirewestandchester.gov.uk/file/4828325,6.15,multiple ownership,,pending decision,,,,160,,,,17/01965/OUT (pending)|Site in outer hazard zone,21/12/2017,,,,
,,,,,,,,,,,,,,,,,,,http://opendatacommunities.org/id/unitary-authority/cheshire-west-and-chester,Cheshire West and Chester Council,,"""Castleleigh Centre, David Street, Northwich""",365316,373172,http://consult.cheshirewestandchester.gov.uk/file/4828326,0.62,owned by a public authority,,not permissioned,,,,22,,,,,21/12/2017,,,,
,,,,,,,,,,,,,,,,,,,http://opendatacommunities.org/id/unitary-authority/cheshire-west-and-chester,Cheshire West and Chester Council,,"""Land to the north of Watling Street, Northwich""",365882,373928,http://consult.cheshirewestandchester.gov.uk/file/4828327,2.28,multiple ownership,,not permissioned,,,,73,,,,,21/12/2017,,,,
,,,,,,,,,,,,,,,,,,,http://opendatacommunities.org/id/unitary-authority/cheshire-west-and-chester,Cheshire West and Chester Council,,"""Land at Station Road, Northwich""",366636,373990,http://consult.cheshirewestandchester.gov.uk/file/4828328,1.78,not owned by a public authority,,not permissioned,,,,60,,,,,21/12/2017,,,,
,,,,,,,,,,,,,,,,,,,http://opendatacommunities.org/id/unitary-authority/cheshire-west-and-chester,Cheshire West and Chester Council,,"""Land south of Chester Road, Northwich""",366854,374091,http://consult.cheshirewestandchester.gov.uk/file/4828329,0.73,not owned by a public authority,,not permissioned,,,,44,,,,,21/12/2017,,,,
,,,,,,,,,,,,,,,,,,,http://opendatacommunities.org/id/unitary-authority/cheshire-west-and-chester,Cheshire West and Chester Council,,"""Watling Street (Council offices), Northwich""",365875,373820,http://consult.cheshirewestandchester.gov.uk/file/4828330,0.7,owned by a public authority,,not permissioned,,,,25,,,,pending,21/12/2017,,,,
,,,,,,,,,,,,,,,,,,,http://opendatacommunities.org/id/unitary-authority/cheshire-west-and-chester,Cheshire West and Chester Council,,"""Weaver Shopping extension, Chester Way, Northwich""",366070,373950,http://consult.cheshirewestandchester.gov.uk/file/4828331,0.72,multiple ownership,,not permissioned,,,,26,,,,,21/12/2017,,,,
,,,,,,,,,,,,,,,,,,,http://opendatacommunities.org/id/unitary-authority/cheshire-west-and-chester,Cheshire West and Chester Council,,"""Land to west of Warrington Street, Northwich""",366359,374171,http://consult.cheshirewestandchester.gov.uk/file/4828332,3.17,not owned by a public authority,,not permissioned,,,,89,,,,,21/12/2017,,,,
,,,,,,,,,,,,,,,,,,,http://opendatacommunities.org/id/unitary-authority/cheshire-west-and-chester,Cheshire West and Chester Council,,"""Land at Leicester Street,  Northwich""",366547,374178,http://consult.cheshirewestandchester.gov.uk/file/4828333,1.81,multiple ownership,,not permissioned,,,,51,,,,,21/12/2017,,,,
,,,,,,,,,,,,,,,,,,,http://opendatacommunities.org/id/unitary-authority/cheshire-west-and-chester,Cheshire West and Chester Council,,"""Land adjacent Dane County, Manchester Road, Northwich""",367566,374288,http://consult.cheshirewestandchester.gov.uk/file/4828334,1.56,not owned by a public authority,,not permissioned,,,,30,,,,Site in Middle hazard zone,21/12/2017,,,,
,,,,,,,,,,,,,,,,,,,http://opendatacommunities.org/id/unitary-authority/cheshire-west-and-chester,Cheshire West and Chester Council,,"""Land west of Queen Street, Northwich""",365745,373511,http://consult.cheshirewestandchester.gov.uk/file/4828335,1.12,not owned by a public authority,,not permissioned,,,,20,,,,,21/12/2017,,,,
,,,,,,,,,,,,,,,,,,,http://opendatacommunities.org/id/unitary-authority/cheshire-west-and-chester,Cheshire West and Chester Council,,"""Land at Chester Way, Victoria Bridge, Northwich""",365914,373740,http://consult.cheshirewestandchester.gov.uk/file/4828336,0.29,not owned by a public authority,,permissioned,,,,52,,,,08-1854-FUM 10/00991/ful,21/12/2017,,,,
,,,,,,,,,,,,,,,,,,,http://opendatacommunities.org/id/unitary-authority/cheshire-west-and-chester,Cheshire West and Chester Council,,"""
Dane House Chester Way Northwich Cheshire CW9 5JG  """,365921,373704,http://consult.cheshirewestandchester.gov.uk/file/4828337,0.11,not owned by a public authority,,permissioned,,,,15,,,,16/05245/PDO,21/12/2017,,,,
,,,,,,,,,,,,,,,,,,,http://opendatacommunities.org/id/unitary-authority/cheshire-west-and-chester,Cheshire West and Chester Council,,"""Lostock Works House, Works Lane, Northwich""",368274,374381,http://consult.cheshirewestandchester.gov.uk/file/4828338,1.7,not owned by a public authority,,not permissioned,,,,41,,,,,21/12/2017,,,,
,,,,,,,,,,,,,,,,,,,http://opendatacommunities.org/id/unitary-authority/cheshire-west-and-chester,Cheshire West and Chester Council,,"""School Road North (former coal yard), Rudheath""",368287,372754,http://consult.cheshirewestandchester.gov.uk/file/4828339,0.19,not owned by a public authority,,not permissioned,,,,18,,,,,21/12/2017,,,,
,,,,,,,,,,,,,,,,,,,http://opendatacommunities.org/id/unitary-authority/cheshire-west-and-chester,Cheshire West and Chester Council,,"""Land off Griffiths Road, Rudheath""",368349,373788,http://consult.cheshirewestandchester.gov.uk/file/4828340,0.22,not owned by a public authority,,not permissioned,,,,64,,,,,21/12/2017,,,,
,,,,,,,,,,,,,,,,,,,http://opendatacommunities.org/id/unitary-authority/cheshire-west-and-chester,Cheshire West and Chester Council,,"""Land to the rear of Farmers Arms PH, Middlewich Road, Northwich (Phase II)""",367665,373541,http://consult.cheshirewestandchester.gov.uk/file/4828341,2.47,not owned by a public authority,,not permissioned,,,,20,,,,,21/12/2017,,,,
,,,,,,,,,,,,,,,,,,,http://opendatacommunities.org/id/unitary-authority/cheshire-west-and-chester,Cheshire West and Chester Council,,"""Land Adjacent To 49 Edward Street Northwich Cheshire  """,367539,373566,http://consult.cheshirewestandchester.gov.uk/file/4828342,0.15,not owned by a public authority,,permissioned,,,,5,,,,16/04334/FUL,21/12/2017,,,,
,,,,,,,,,,,,,,,,,,,http://opendatacommunities.org/id/unitary-authority/cheshire-west-and-chester,Cheshire West and Chester Council,,"""Cane House, Waterworks Lane, Hooton, Ellesmere Port""",335020,378271,http://consult.cheshirewestandchester.gov.uk/file/4828343,0.3,not owned by a public authority,,permissioned,,,,24,,,,14/02291/OUT,21/12/2017,,,,
,,,,,,,,,,,,,,,,,,,http://opendatacommunities.org/id/unitary-authority/cheshire-west-and-chester,Cheshire West and Chester Council,,"""Land at Hooton Road, Willaston, Neston, CH64 1SJ""",333132,377774,http://consult.cheshirewestandchester.gov.uk/file/4828344,0.25,not owned by a public authority,,not permissioned,,,,7,,,,,21/12/2017,,,,
,,,,,,,,,,,,,,,,,,,http://opendatacommunities.org/id/unitary-authority/cheshire-west-and-chester,Cheshire West and Chester Council,,"""Rofton Works, Hooton Road, Hooton, Ellesmere Port""",334821,377942,http://consult.cheshirewestandchester.gov.uk/file/4828345,17.67,not owned by a public authority,,permissioned,,,,265,,,,"11/03802/OUT
16/03214/REM",21/12/2017,,,,
,,,,,,,,,,,,,,,,,,,http://opendatacommunities.org/id/unitary-authority/cheshire-west-and-chester,Cheshire West and Chester Council,,"""Securicor Ltd, Wharton Road, Winsford CW7 3AP""",366165,367137,http://consult.cheshirewestandchester.gov.uk/file/4828346,0.34,not owned by a public authority,,permissioned,,,,14,,,,"09/02249/OUT
15/05130/OUT",21/12/2017,,,,
,,,,,,,,,,,,,,,,,,,http://opendatacommunities.org/id/unitary-authority/cheshire-west-and-chester,Cheshire West and Chester Council,,"""Caravan Park off Rilshaw Lane, (Phase 1), Winsford""",367095,365874,http://consult.cheshirewestandchester.gov.uk/file/4828347,0.35,not owned by a public authority,,not permissioned,,,,15,,,,,21/12/2017,,,,
,,,,,,,,,,,,,,,,,,,http://opendatacommunities.org/id/unitary-authority/cheshire-west-and-chester,Cheshire West and Chester Council,,"""476 Rookery Rise, Station Road, Winsford""",366828,366008,http://consult.cheshirewestandchester.gov.uk/file/4828348,0.49,not owned by a public authority,,not permissioned,,,,13,,,,,21/12/2017,,,,
,,,,,,,,,,,,,,,,,,,http://opendatacommunities.org/id/unitary-authority/cheshire-west-and-chester,Cheshire West and Chester Council,,"""Land at Brighton Belle Public House, Station Road, Winsford""",367084,366144,http://consult.cheshirewestandchester.gov.uk/file/4828349,1.05,not owned by a public authority,,not permissioned,,,,5,,,,,21/12/2017,,,,
,,,,,,,,,,,,,,,,,,,http://opendatacommunities.org/id/unitary-authority/cheshire-west-and-chester,Cheshire West and Chester Council,,"""S Cooper and Sons Ltd, Warehouse One, Nat Lane, Winsford, CW7 3BS""",365982,366999,http://consult.cheshirewestandchester.gov.uk/file/4828350,4.94,not owned by a public authority,,permissioned,,,,161,,,,12/04804/OUT,21/12/2017,,,,
,,,,,,,,,,,,,,,,,,,http://opendatacommunities.org/id/unitary-authority/cheshire-west-and-chester,Cheshire West and Chester Council,,"""Wharton Road (Reposessions UK Ltd), Winsford. CW7 3BQ""",365975,366814,http://consult.cheshirewestandchester.gov.uk/file/4828351,4.4,not owned by a public authority,,permissioned,,,,150,,,,11/00558/OUT,21/12/2017,,,,
,,,,,,,,,,,,,,,,,,,http://opendatacommunities.org/id/unitary-authority/cheshire-west-and-chester,Cheshire West and Chester Council,,"""Land at Wharton Green, Deakins Road / Bostock Road, Winsford""",366262,367867,http://consult.cheshirewestandchester.gov.uk/file/4828352,1.2,not owned by a public authority,,not permissioned,,,,114,,,,,21/12/2017,,,,
,,,,,,,,,,,,,,,,,,,http://opendatacommunities.org/id/unitary-authority/cheshire-west-and-chester,Cheshire West and Chester Council,,"""Former coal yard site, Station Road, Winsford""",366979,366131,http://consult.cheshirewestandchester.gov.uk/file/4828353,0.23,not owned by a public authority,,not permissioned,,,,6,,,,,21/12/2017,,,,
,,,,,,,,,,,,,,,,,,,http://opendatacommunities.org/id/unitary-authority/cheshire-west-and-chester,Cheshire West and Chester Council,,"""Meadow Island, Bradford Road, Winsford""",365195,366931,http://consult.cheshirewestandchester.gov.uk/file/4828354,2.44,not owned by a public authority,,not permissioned,,,,30,,,,,21/12/2017,,,,
,,,,,,,,,,,,,,,,,,,http://opendatacommunities.org/id/unitary-authority/cheshire-west-and-chester,Cheshire West and Chester Council,,"""Handley Hill School, Beeston Drive, Winsford""",364033,365602,http://consult.cheshirewestandchester.gov.uk/file/4828355,1.09,owned by a public authority,,not permissioned,,,,71,,,,,21/12/2017,,,,
,,,,,,,,,,,,,,,,,,,http://opendatacommunities.org/id/unitary-authority/cheshire-west-and-chester,Cheshire West and Chester Council,,"""Land and buildings off Sadler Road, Winsford""",364910,366335,http://consult.cheshirewestandchester.gov.uk/file/4828356,0.57,not owned by a public authority,,not permissioned,,,,26,,,,,21/12/2017,,,,
,,,,,,,,,,,,,,,,,,,http://opendatacommunities.org/id/unitary-authority/cheshire-west-and-chester,Cheshire West and Chester Council,,"""Land north of Winsford Police Station, Sadler Close, Winsford""",364984,366483,http://consult.cheshirewestandchester.gov.uk/file/4828357,0.41,not owned by a public authority,,not permissioned,,,,14,,,,,21/12/2017,,,,
,,,,,,,,,,,,,,,,,,,http://opendatacommunities.org/id/unitary-authority/cheshire-west-and-chester,Cheshire West and Chester Council,,"""Land north of former Richmond Packaging, New Road, Winsford""",365288,366592,http://consult.cheshirewestandchester.gov.uk/file/4828358,0.81,not owned by a public authority,,not permissioned,,,,26,,,,,21/12/2017,,,,
,,,,,,,,,,,,,,,,,,,http://opendatacommunities.org/id/unitary-authority/cheshire-west-and-chester,Cheshire West and Chester Council,,"""Car park off Church Street, Winsford""",365381,366389,http://consult.cheshirewestandchester.gov.uk/file/4828359,0.43,owned by a public authority,,not permissioned,,,,26,,,,,21/12/2017,,,,
,,,,,,,,,,,,,,,,,,,http://opendatacommunities.org/id/unitary-authority/cheshire-west-and-chester,Cheshire West and Chester Council,,"""Land at Manchester House Carpets, 56 High Street, Winsford""",365293,366332,http://consult.cheshirewestandchester.gov.uk/file/4828360,0.13,not owned by a public authority,,not permissioned,,,,5,,,,,21/12/2017,,,,
,,,,,,,,,,,,,,,,,,,http://opendatacommunities.org/id/unitary-authority/cheshire-west-and-chester,Cheshire West and Chester Council,,"""Pimletts and adjacent car park, Church Street / High Street, Winsford""",365323,366347,http://consult.cheshirewestandchester.gov.uk/file/4828361,0.18,not owned by a public authority,,not permissioned,,,,6,,,,,21/12/2017,,,,
,,,,,,,,,,,,,,,,,,,http://opendatacommunities.org/id/unitary-authority/cheshire-west-and-chester,Cheshire West and Chester Council,,"""Sadler Road (Former Winsford Clio Centre), Winsford""",364835,366359,http://consult.cheshirewestandchester.gov.uk/file/4828362,0.12,not owned by a public authority,,not permissioned,,,,12,,,,09/00635/OUM  12/03149/EXT,21/12/2017,,,,
,,,,,,,,,,,,,,,,,,,http://opendatacommunities.org/id/unitary-authority/cheshire-west-and-chester,Cheshire West and Chester Council,,"""Meadow Home Park Mill Lane Whitegate Winsford Cheshire """,364958,368821,http://consult.cheshirewestandchester.gov.uk/file/4828363,0.47,not owned by a public authority,,permissioned,,,,7,,,,15/04548/FUL,21/12/2017,,,,
,,,,,,,,,,,,,,,,,,,http://opendatacommunities.org/id/unitary-authority/cheshire-west-and-chester,Cheshire West and Chester Council,,"""Former Drill Hall, Dingle Lane, Winsford CW7 1AB""",364776,366202,http://consult.cheshirewestandchester.gov.uk/file/4828364,0.25,not owned by a public authority,,permissioned,,,,31,,,,15/03878/FUL,21/12/2017,,,,
,,,,,,,,,,,,,,,,,,,http://opendatacommunities.org/id/unitary-authority/cheshire-west-and-chester,Cheshire West and Chester Council,,"""Winsford Shopping Centre, Dene's Drive, Winsford""",364776,366202,http://consult.cheshirewestandchester.gov.uk/file/4828365,3.15,not owned by a public authority,,not permissioned,,,,113,,,,,21/12/2017,,,,
,,,,,,,,,,,,,,,,,,,http://opendatacommunities.org/id/unitary-authority/cheshire-west-and-chester,Cheshire West and Chester Council,,"""Car park off Dene Street, Winsford""",364589,366209,http://consult.cheshirewestandchester.gov.uk/file/4828366,0.79,owned by a public authority,,not permissioned,,,,32,,,,,21/12/2017,,,,
,,,,,,,,,,,,,,,,,,,http://opendatacommunities.org/id/unitary-authority/cheshire-west-and-chester,Cheshire West and Chester Council,,"""Site of former Civic Hall, High Street, Winsford""",364656,366279,http://consult.cheshirewestandchester.gov.uk/file/4828367,0.25,owned by a public authority,,not permissioned,,,,10,,,,,21/12/2017,,,,
,,,,,,,,,,,,,,,,,,,http://opendatacommunities.org/id/unitary-authority/cheshire-west-and-chester,Cheshire West and Chester Council,,"""Winsford Library and Dingle Recreation Centre, High Street, Winsford""",364790,366286,http://consult.cheshirewestandchester.gov.uk/file/4828368,0.26,owned by a public authority,,not permissioned,,,,11,,,,,21/12/2017,,,,
,,,,,,,,,,,,,,,,,,,http://opendatacommunities.org/id/unitary-authority/cheshire-west-and-chester,Cheshire West and Chester Council,,"""Land at High Street / Dingle Lane, Winsford""",364907,366239,http://consult.cheshirewestandchester.gov.uk/file/4828369,0.27,not owned by a public authority,,not permissioned,,,,10,,,,,21/12/2017,,,,
,,,,,,,,,,,,,,,,,,,http://opendatacommunities.org/id/unitary-authority/cheshire-west-and-chester,Cheshire West and Chester Council,,"""Land to rear of Weaver Street, off Winnington Street, Winsford""",365325,366155,http://consult.cheshirewestandchester.gov.uk/file/4828370,0.36,not owned by a public authority,,not permissioned,,,,13,,,,,21/12/2017,,,,
,,,,,,,,,,,,,,,,,,,http://opendatacommunities.org/id/unitary-authority/cheshire-west-and-chester,Cheshire West and Chester Council,,"""The Hollies, Darnhall School Lane, Winsford CW7 1LH""",364328,364508,http://consult.cheshirewestandchester.gov.uk/file/4828371,0.17,not owned by a public authority,,permissioned,,,,14,,,,08-0824-FUM,21/12/2017,,,,
