address,address-text,deliverable,end-date,entry-date,hazardous-substances,hectares,latitude,longitude,maximum-net-dwellings,minimum-net-dwellings,notes,organisation,ownership-status,planning-permission-date,planning-permission-history,planning-permission-status,planning-permission-type,site,OrganisationURI,OrganisationLabel,SiteReference,SiteNameAddress,GeoX,GeoY,SiteplanURL,Hectares,OwnershipStatus,HazardousSubstances,PlanningStatus,PermissionType,PermissionDate,PlanningHistory,MinNetDwellings,NetDwellingsRangeFrom,NetDwellingsRangeTo,Deliverable,Notes,FirstAddedDate,LastUpdatedDate,EndDate,site-plan-url,start-date
,,,,,,,,,,,,,,,,,,,,,,"Coombe Valley Road, Dover",,,http://dover.gov.uk/Planning/Planning-Policy/Brownfield-Land-Register/Site-Plans/BR61-16.pdf,0.74,,,,,,,,,,,Under Construction - forms part of a wider allocated site (LA8 - land in Coombe Valley),20/06/2016,20/06/2016,,,
,,,,,,,,,,,,,,,,,,,,,,Land north of River Stour & including part of Sandwich Industrial Estate,,,http://dover.gov.uk/Planning/Planning-Policy/Brownfield-Land-Register/Site-Plans/BR68-16.pdf,12.2,,,,,,,,,,,Under Construction,20/06/2016,20/06/2016,,,
,,,,,,,,,,,,,,,,,,,,,,"Old Folkestone Road, Aycliffe",,,http://dover.gov.uk/Planning/Planning-Policy/Brownfield-Land-Register/Site-Plans/BR71-16.pdf,0.15,,,,,,,,,,,,20/06/2016,20/06/2016,,,
,,,,,,,,,,,,,,,,,,,,,,"Discovery Park, Ramsgate Road, Sandwich",,,http://dover.gov.uk/Planning/Planning-Policy/Brownfield-Land-Register/Site-Plans/BR87-16.pdf,72.3,,,,,,,,,,,Not Started - the housing on this site forms part of a wider mixed use application on a predominantly brownfield site. Expiry date extended from 3 years for approval of reserved matters to 10 years from date of decision,20/06/2016,20/06/2016,,,
,,,,,,,,,,,,,,,,,,,,,,"Former council yard, Molland Lea, Ash",,,http://dover.gov.uk/Planning/Planning-Policy/Brownfield-Land-Register/Site-Plans/BR89-16.pdf,0.16,,,,,,,,,,,,20/06/2016,20/06/2016,,,
,,,,,,,,,,,,,,,,,,,,,,"The Old Sorting Office, Charlton Green, Dover, CT16 1AP",,,http://dover.gov.uk/Planning/Planning-Policy/Brownfield-Land-Register/Site-Plans/BR129-16.pdf,0.69,,,,,,,,,,,Not Started,20/06/2016,20/06/2016,,,
,,,,,,,,,,,,,,,,,,,,,,"Albany Place Car Park, Dover",,,http://dover.gov.uk/Planning/Planning-Policy/Brownfield-Land-Register/Site-Plans/BR130-16.pdf,0.4,,,,,,,,,,,,20/06/2016,20/06/2016,,,
,,,,,,,,,,,,,,,,,,,,,,"Coombe Valley, Dover",,,http://dover.gov.uk/Planning/Planning-Policy/Brownfield-Land-Register/Site-Plans/BR133-16.pdf,6.78,,,,,,,,,,,Allocated site - part of the site has already been granted permission. See BR60-16 and BR61-16 below. A third application on the Former Motorline Line Site in Coombe Valley has been completed https://planning.dover.gov.uk/online-applications/applicationDetails.do?activeTab=summary&keyVal=DCAPR_213882. Min homes has been adjusted to take account of this.,20/06/2016,20/06/2016,,,
,,,,,,,,,,,,,,,,,,,,,,"Land off Dunedin Drive, Dover",,,http://dover.gov.uk/Planning/Planning-Policy/Brownfield-Land-Register/Site-Plans/BR135-16.pdf,0.26,,,,,,,,,,,,20/06/2016,20/06/2016,,,
,,,,,,,,,,,,,,,,,,,,,,"East Studdal Nursery, Downs Road, East Studdal",,,http://dover.gov.uk/Planning/Planning-Policy/Brownfield-Land-Register/Site-Plans/BR171-16.pdf,1,,,,,,,,,,,,20/06/2016,20/06/2016,,,
,,,,,,,,,,,,,,,,,,,,,,"Eastry Hospital, Mill Lane, Eastry",,,http://dover.gov.uk/Planning/Planning-Policy/Brownfield-Land-Register/Site-Plans/BR173-16.pdf,3.29,,,,,,,,,,,,20/06/2016,20/06/2016,,,
,,,,,,,,,,,,,,,,,,,,,,"The Old Chalk Pit, Heronden Road, Eastry",,,http://dover.gov.uk/Planning/Planning-Policy/Brownfield-Land-Register/Site-Plans/BR174-16.pdf,0.68,,,,,,,,,,,,20/06/2016,20/06/2016,,,
,,,,,,,,,,,,,,,,,,,,,,"Prima Windows, Easole Street, Nonington",,,http://dover.gov.uk/Planning/Planning-Policy/Brownfield-Land-Register/Site-Plans/BR181-16.pdf,1.14,,,,,,,,,,,,20/06/2016,20/06/2016,,,
,,,,,,,,,,,,,,,,,,,,,,"Connaught Barracks, Dover Road, Guston, CT16 1HL",,,http://dover.gov.uk/Planning/Planning-Policy/Brownfield-Land-Register/Site-Plans/BR219-16.pdf,10.12,,,,,,,,,,,Not Started,20/06/2016,20/06/2016,,,
,,,,,,,,,,,,,,,,,,,,,,"Former Connaught Barracks, Dover Road, Guston, CT16 1HL",,,http://dover.gov.uk/Planning/Planning-Policy/Brownfield-Land-Register/Site-Plans/BR225-17.pdf,2.38,,,,,,,,,,,Not Started - forms part of a wider allocated site (CP10) in the Core Strategy (2010),07/12/2017,07/12/2017,,,
,,,,,,,,,,,,,,,,,,,,,,"Buckland Paper Mill, Crabble Hill, Dover",,,http://dover.gov.uk/Planning/Planning-Policy/Brownfield-Land-Register/Site-Plans/BR220-16.pdf,4,,,,,,,,,,,Approx third of the site has the benefit of full planning permission (BR62-16). The remainder of the site is an allocated site.,20/06/2016,20/06/2016,,,
,,,,,,,,,,,,,,,,,,,,,,"Land at Salvatori, North and South of Grove Road, Preston, CT3 1EF",,,http://dover.gov.uk/Planning/Planning-Policy/Brownfield-Land-Register/Site-Plans/BR227-17.pdf,5.07,,,,,,,,,,,Under Construction,18/12/2017,18/12/2017,,,
,,,,,,,,,,,,,,,,,,,,,,"Southern Water Pumping Station, St Richards Road, Deal",,,http://dover.gov.uk/Planning/Planning-Policy/Brownfield-Land-Register/Site-Plans/BR229-17.pdf,0.33,,,,,,,,,,,Not Started,18/12/2017,18/12/2017,,,
,,,,,,,,,,,,,,,,,,,,,,"Ambulance Depot, Winchelsea Road, Dover, CT17 9TT",,,http://dover.gov.uk/Planning/Planning-Policy/Brownfield-Land-Register/Site-Plans/BR233-17.pdf,0.2,,,,,,,,,,,Not Started,18/12/2017,18/12/2017,,,
,,,,,,,,,,,,,,,,,,,,,,"1 Malvern Road, Dover",,,http://dover.gov.uk/Planning/Planning-Policy/Brownfield-Land-Register/Site-Plans/BR238-17.pdf,0.12,,,,,,,,,,,Not Started,18/12/2017,18/12/2017,,,
,,,,,,,,,,,,,,,,,,,,,,"Site rear of 162 Folkestone Road, Vale View Road, Dover, CT17 9NP",,,http://dover.gov.uk/Planning/Planning-Policy/Brownfield-Land-Register/Site-Plans/BR240-17.pdf,0.1,,,,,,,,,,,Not Started,18/12/2017,18/12/2017,,,
,,,,,,,,,,,,,,,,,,,,,,"Land off Ark Lane, Deal",,,https://www.dover.gov.uk/Planning/Planning-Policy-and-Regeneration/Regeneration-and-Development-Opportunities/Brownfield-Register.aspx,0.35,,,,,,,,,,,Not Started,30/11/2018,30/11/2018,,,
,,,,,,,,,,,,,,,,,,,,,,"Land at 191 and Forge Bungalow, London Road, Temple Ewell",,,https://www.dover.gov.uk/Planning/Planning-Policy-and-Regeneration/Regeneration-and-Development-Opportunities/Brownfield-Register.aspx,0.19,,,,,,,,,,,Under Construction,30/11/2018,30/11/2018,,,
,,,,,,,,,,,,,,,,,,,,,,"Land adjoining Mill Field, New Street, Ash, CT3 2BD",,,https://www.dover.gov.uk/Planning/Planning-Policy-and-Regeneration/Regeneration-and-Development-Opportunities/Brownfield-Register.aspx,0.36,,,,,,,,,,,Not Started,30/11/2018,30/11/2018,,,
,,,,,,,,,,,,,,,,,,,,,,"65 Folkestone Road, Dover, CT17 9RZ",,,https://www.dover.gov.uk/Planning/Planning-Policy-and-Regeneration/Regeneration-and-Development-Opportunities/Brownfield-Register.aspx,0.06,,,,,,,,,,,Not Started,30/11/2018,30/11/2018,,,
,,,,,,,,,,,,,,,,,,,,,,"Land south of New Dover Road, Capel-le-Ferne",,,https://www.dover.gov.uk/Planning/Planning-Policy-and-Regeneration/Regeneration-and-Development-Opportunities/Brownfield-Register.aspx,3,,,,,,,,,,,Under construction,30/11/2018,30/11/2018,,,
,,,,,,,,,,,,,,,,,,,,,,"Land on the West side of Albert Road, Deal, CT14 9RB",,,https://www.dover.gov.uk/Planning/Planning-Policy-and-Regeneration/Regeneration-and-Development-Opportunities/Brownfield-Register.aspx,4.7,,,,,,,,,,,Not started,30/11/2018,30/11/2018,,,
,,,,,,,,,,,,,,,,,,,,,,"Protea House, Waterloo Crescent, Dover, CT17 9BW",,,https://www.dover.gov.uk/Planning/Planning-Policy-and-Regeneration/Regeneration-and-Development-Opportunities/Brownfield-Register.aspx,0.06,,,,,,,,,,,Not Started,30/11/2018,30/11/2018,,,
,,,,,,,,,,,,,,,,,,,,,,"Bellrose Hotel 18-19, East Cliff, Dover",,,https://www.dover.gov.uk/Planning/Planning-Policy-and-Regeneration/Regeneration-and-Development-Opportunities/Brownfield-Register.aspx,0.0511,,,,,,,,,,,Not Started,30/11/2018,30/11/2018,,,
,,,,,,,,,,,,,,,,,,,,,,"Ryder House, 115-116 London Road, Dover",,,https://www.dover.gov.uk/Planning/Planning-Policy-and-Regeneration/Regeneration-and-Development-Opportunities/Brownfield-Register.aspx,0.132,,,,,,,,,,,Not Started,30/11/2018,30/11/2018,,,
,,,,,,,,,,,,,,,,,,,,,,"Anchor Works, West Street, Deal",,,https://www.dover.gov.uk/Planning/Planning-Policy-and-Regeneration/Regeneration-and-Development-Opportunities/Brownfield-Register.aspx,0.0605,,,,,,,,,,,Not Started,30/11/2018,30/11/2018,,,
,,,,,,,,,,,,,,,,,,,,,,"Three Tuns, The Street, Staple",,,https://www.dover.gov.uk/Planning/Planning-Policy-and-Regeneration/Regeneration-and-Development-Opportunities/Brownfield-Register.aspx,0.4822,,,,,,,,,,,Not Started,30/11/2018,30/11/2018,,,
,,,,,,,,,,,,,,,,,,,,,,"Railway Hotel, 85 Station Road, Walmer",,,https://www.dover.gov.uk/Planning/Planning-Policy-and-Regeneration/Regeneration-and-Development-Opportunities/Brownfield-Register.aspx,0.12,,,,,,,,,,,Under Construction,30/11/2018,30/11/2018,,,
,,,,,,,,,,,,,,,,,,,,,,"3 Market Square, Dover, CT16 1LZ",,,https://www.dover.gov.uk/Planning/Planning-Policy-and-Regeneration/Regeneration-and-Development-Opportunities/Brownfield-Register.aspx,0.016,,,,,,,,,,,Not Started,30/11/2018,30/11/2018,,,
,,,,,,,,,,,,,,,,,,,,,,"Snelgrove House, Harold Street, Dover",,,https://www.dover.gov.uk/Planning/Planning-Policy-and-Regeneration/Regeneration-and-Development-Opportunities/Brownfield-Register.aspx,0.31,,,,,,,,,,,Not Started,30/11/2018,30/11/2018,,,
,,,,,,,,,,,,,,,,,,,,,,"Dublin Man of War PH, Lower Road, River",,,https://www.dover.gov.uk/Planning/Planning-Policy-and-Regeneration/Regeneration-and-Development-Opportunities/Brownfield-Register.aspx,0.3,,,,,,,,,,,Not Started,30/11/2018,30/11/2018,,,
,,,,,,,,,,,,,,,,,,,,,,"Land at North Barrack Site, (East Section) Trafalgar Drive",,,https://www.dover.gov.uk/Planning/Planning-Policy-and-Regeneration/Regeneration-and-Development-Opportunities/Brownfield-Register.aspx,0.68,,,,,,,,,,,Under Construction,30/11/2018,30/11/2018,,,
,,,,,,,,,,,,,,,,,,,,,,"The Qube, St Radigunds Road, Dover",,,https://www.dover.gov.uk/Planning/Planning-Policy-and-Regeneration/Regeneration-and-Development-Opportunities/Brownfield-Register.aspx,0.38,,,,,,,,,,,Not Started,30/11/2018,30/11/2018,,,
,,,,,,,,,,,,,,,,,,,,,,"50 & 51 Biggin Street, Dover",,,https://www.dover.gov.uk/Planning/Planning-Policy-and-Regeneration/Regeneration-and-Development-Opportunities/Brownfield-Register.aspx,0.0212,,,,,,,,,,,Under Construction,30/11/2018,30/11/2018,,,
,,,,,,,,,,,,,,,,,,,,,,"2-9 Cambridge Terrace, Dover",,,https://www.dover.gov.uk/Planning/Planning-Policy-and-Regeneration/Regeneration-and-Development-Opportunities/Brownfield-Register.aspx,0.10985,,,,,,,,,,,Not Started,30/11/2018,30/11/2018,,,
,,,,,,,,,,,,,,,,,,,,,,"Delfbridge, 10 Dover Road, Sandwich",,,https://www.dover.gov.uk/Planning/Planning-Policy-and-Regeneration/Regeneration-and-Development-Opportunities/Brownfield-Register.aspx,0.4838,,,,,,,,,,,Not Started,30/11/2018,30/11/2018,,,
,,,,,,,,,,,,,,,,,,,,,,"1 & 2 Alphege Road, Dover",,,https://www.dover.gov.uk/Planning/Planning-Policy-and-Regeneration/Regeneration-and-Development-Opportunities/Brownfield-Register.aspx,0.65,,,,,,,,,,,Not Started,30/11/2018,30/11/2018,,,
,,,,,,,,,,,,,,,,,,,,,,"Plough Filling Station, Folkestone Road, Dover",,,https://www.dover.gov.uk/Planning/Planning-Policy-and-Regeneration/Regeneration-and-Development-Opportunities/Brownfield-Register.aspx,0.27,,,,,,,,,,,Not Started,30/11/2018,30/11/2018,,,
,,,,,,,,,,,,,,,,,,,,,,"Part of Wingham Court, Hawarden Place, Canterbury Road, Wingham",,,https://www.dover.gov.uk/Planning/Planning-Policy-and-Regeneration/Regeneration-and-Development-Opportunities/Brownfield-Register.aspx,0.97,,,,,,,,,,,Not Started,30/11/2018,30/11/2018,,,
