address,address-text,deliverable,end-date,entry-date,hazardous-substances,hectares,latitude,longitude,maximum-net-dwellings,minimum-net-dwellings,notes,organisation,ownership-status,planning-permission-date,planning-permission-history,planning-permission-status,planning-permission-type,site,OrganisationURI,OrganisationLabel,SiteReference,SiteNameAddress,GeoX,GeoY,SiteplanURL,Hectares,OwnershipStatus,HazardousSubstances,PlanningStatus,PermissionType,PermissionDate,PlanningHistory,MinNetDwellings,NetDwellingsRangeFrom,NetDwellingsRangeTo,Deliverable,Notes,FirstAddedDate,LastUpdatedDate,EndDate,site-plan-url,start-date
,,,,,,,,,,,,,,,,,,,http://opendatacommunities.org/id/unitary-authority/east-riding,,55,Land at Wolfreton Upper School,53.747617,-0.445073,https://newplanningaccess.eastriding.gov.uk/newplanningaccess/PLAN/16/04252/REG4,8.6,owned by a public authority,,permissioned,,,,,,207,,16/04252/REG4 - approximately 2.5ha is brownfield,2016-07-12,2018-03-31,,,
,,,,,,,,,,,,,,,,,,,http://opendatacommunities.org/id/unitary-authority/east-riding,,56,Bridgeview School Hessle,53.722677,-0.443386,https://newplanningaccess.eastriding.gov.uk/newplanningaccess/PLAN/17/03791/REM,1.35,owned by a public authority,,permissioned,,,,,,26,,17/03791/REM,2016-07-12,2018-03-31,,,
,,,,,,,,,,,,,,,,,,,http://opendatacommunities.org/id/unitary-authority/east-riding,,59,South of Lord Roberts Road,53.83986,-0.425809,http://www2.eastriding.gov.uk/environment/planning-and-building-control/east-riding-local-plan/housing-monitoring/#latest-shlaa-online,1,owned by a public authority,,not permissioned,,,,,,16,,BEV-N,2016-07-12,2018-03-31,,,
,,,,,,,,,,,,,,,,,,,http://opendatacommunities.org/id/unitary-authority/east-riding,,65,Land at Burlington Centre/Priory View,54.095766,-0.2029,http://www2.eastriding.gov.uk/environment/planning-and-building-control/east-riding-local-plan/housing-monitoring/#latest-shlaa-online,1.56,owned by a public authority,,not permissioned,,,,,,49,,BRID-D,2016-07-12,2018-03-31,,,
,,,,,,,,,,,,,,,,,,,http://opendatacommunities.org/id/unitary-authority/east-riding,,66,Land off Grange Road,53.700998,-0.883287,http://www2.eastriding.gov.uk/environment/planning-and-building-control/east-riding-local-plan/housing-monitoring/#latest-shlaa-online,3.04,mixed ownership,,not permissioned,,,,,,91,,GOO-F,2016-07-12,2018-03-31,,,
,,,,,,,,,,,,,,,,,,,http://opendatacommunities.org/id/unitary-authority/east-riding,,70,"Ted Nicholson (Garages) Ltd, Bridlington Road",54.010479,-0.426658,https://newplanningaccess.eastriding.gov.uk/newplanningaccess/PLAN/16/00139/PLF,0.21,not owned by a public authority,,permissioned,,,,,,9,,16/00139/PLF,2016-07-12,2018-03-31,,,
,,,,,,,,,,,,,,,,,,,http://opendatacommunities.org/id/unitary-authority/east-riding,,71,4 And 6 Londesborough Road,53.865894,-0.665737,https://newplanningaccess.eastriding.gov.uk/newplanningaccess/PLAN/15/01862/PLF,2.74,not owned by a public authority,,permissioned,,,,,,10,,15/01862/PLF,2016-07-12,2018-03-31,,,
,,,,,,,,,,,,,,,,,,,http://opendatacommunities.org/id/unitary-authority/east-riding,,85,Springfield Avenue,54.083988,-0.193798,http://www2.eastriding.gov.uk/environment/planning-and-building-control/east-riding-local-plan/housing-monitoring/#latest-shlaa-online,0.32,owned by a public authority,,not permissioned,,,,,,11,,BF85,2016-07-12,2018-03-31,,,
,,,,,,,,,,,,,,,,,,,http://opendatacommunities.org/id/unitary-authority/east-riding,,86,Hilderthorpe Road,54.082957,-0.192691,http://www2.eastriding.gov.uk/environment/planning-and-building-control/east-riding-local-plan/housing-monitoring/#latest-shlaa-online,0.58,owned by a public authority,,not permissioned,,,,,,11,,BF86,2016-07-12,2018-03-31,,,
,,,,,,,,,,,,,,,,,,,http://opendatacommunities.org/id/unitary-authority/east-riding,,90,Land South of Holme Church Lane,53.840743,-0.409113,http://www2.eastriding.gov.uk/environment/planning-and-building-control/east-riding-local-plan/housing-monitoring/#latest-shlaa-online,0.52,not owned by a public authority,,not permissioned,,,,,,16,,BEV-F,2016-07-12,2018-03-31,,,
,,,,,,,,,,,,,,,,,,,http://opendatacommunities.org/id/unitary-authority/east-riding,,91,Longcroft Lower School Church Road,53.851068,-0.451398,http://www2.eastriding.gov.uk/environment/planning-and-building-control/east-riding-local-plan/housing-monitoring/#latest-shlaa-online,2.27,owned by a public authority,,not permissioned,,,,,,68,,BEV-C,2016-07-12,2018-03-31,,,
,,,,,,,,,,,,,,,,,,,http://opendatacommunities.org/id/unitary-authority/east-riding,,92,Land West Of 9-17 Victoria Road,54.085539,-0.1934,https://newplanningaccess.eastriding.gov.uk/newplanningaccess/PLAN/15/02345/PLF,0.11,not owned by a public authority,,permissioned,,,,,,8,,15/02345/PLF,2016-07-12,2018-03-31,,,
,,,,,,,,,,,,,,,,,,,http://opendatacommunities.org/id/unitary-authority/east-riding,,93,Land at Station Road,53.78264,-0.405793,http://www2.eastriding.gov.uk/environment/planning-and-building-control/east-riding-local-plan/housing-monitoring/#latest-shlaa-online,2.04,not owned by a public authority,,permissioned,,,,,,70,,COT-E 17/02893/BPIP,2016-07-12,2018-03-31,,,
,,,,,,,,,,,,,,,,,,,http://opendatacommunities.org/id/unitary-authority/east-riding,,96,"Former Sugar Mill, Anderson Street",54.002541,-0.429581,http://www2.eastriding.gov.uk/environment/planning-and-building-control/east-riding-local-plan/housing-monitoring/#latest-shlaa-online,0.35,not owned by a public authority,,permissioned,,,,,,50,,DRF-G 17/02891/BPIP,2016-07-12,2018-03-31,,,
,,,,,,,,,,,,,,,,,,,http://opendatacommunities.org/id/unitary-authority/east-riding,,97,Alamein Barracks,53.995129,-0.464265,http://www2.eastriding.gov.uk/environment/planning-and-building-control/east-riding-local-plan/housing-monitoring/#latest-shlaa-online,27.88,not owned by a public authority,,not permissioned,,,,,,480,,DRF-I,2016-07-12,2018-03-31,,,
,,,,,,,,,,,,,,,,,,,http://opendatacommunities.org/id/unitary-authority/east-riding,,98,North of Exchange Street and East of Middle Street,54.006493,-0.437652,http://www2.eastriding.gov.uk/environment/planning-and-building-control/east-riding-local-plan/housing-monitoring/#latest-shlaa-online,1.24,not owned by a public authority,,not permissioned,,,,,,32,,DRF-L,2016-07-12,2018-03-31,,,
,,,,,,,,,,,,,,,,,,,http://opendatacommunities.org/id/unitary-authority/east-riding,,99,"Cattle Market, Beckside",54.005347,-0.435248,http://www2.eastriding.gov.uk/environment/planning-and-building-control/east-riding-local-plan/housing-monitoring/#latest-shlaa-online,2.36,mixed ownership,,not permissioned,,,,,,44,,DRF-M,2016-07-12,2018-03-31,,,
,,,,,,,,,,,,,,,,,,,http://opendatacommunities.org/id/unitary-authority/east-riding,,103,Hessle Dock Livingston Road,53.717391,-0.430724,http://www2.eastriding.gov.uk/environment/planning-and-building-control/east-riding-local-plan/housing-monitoring/#latest-shlaa-online,3.36,not owned by a public authority,,not permissioned,,,,,,35,,HES-H,2016-07-12,2018-03-31,,,
,,,,,,,,,,,,,,,,,,,http://opendatacommunities.org/id/unitary-authority/east-riding,,107,Land West of Parva Road,53.911874,-0.161117,http://www2.eastriding.gov.uk/environment/planning-and-building-control/east-riding-local-plan/housing-monitoring/#latest-shlaa-online,0.42,mixed ownership,,not permissioned,,,,,,13,,HOR-C,2016-07-12,2018-03-31,,,
,,,,,,,,,,,,,,,,,,,http://opendatacommunities.org/id/unitary-authority/east-riding,,108,Land South of Sands Lane,53.911123,-0.159268,http://www2.eastriding.gov.uk/environment/planning-and-building-control/east-riding-local-plan/housing-monitoring/#latest-shlaa-online,1.24,owned by a public authority,,not permissioned,,,,,,27,,HOR-E,2016-07-12,2018-03-31,,,
,,,,,,,,,,,,,,,,,,,http://opendatacommunities.org/id/unitary-authority/east-riding,,109,Land West of Thorpe Road,53.750717,-0.85027,https://newplanningaccess.eastriding.gov.uk/newplanningaccess/PLAN/16/03942/OUT,1.11,not owned by a public authority,,permissioned,,,,,,48,,16/03942/OUT,2016-07-12,2018-03-31,,,
,,,,,,,,,,,,,,,,,,,http://opendatacommunities.org/id/unitary-authority/east-riding,,110,Station Garage 48 & 50 Station Road,53.955119,-0.433457,http://www2.eastriding.gov.uk/environment/planning-and-building-control/east-riding-local-plan/housing-monitoring/#latest-shlaa-online,0.52,not owned by a public authority,,not permissioned,,,,,,14,,CRA-E,2016-07-12,2018-03-31,,,
,,,,,,,,,,,,,,,,,,,http://opendatacommunities.org/id/unitary-authority/east-riding,,122,Land South of Willow Park Road,53.946527,-0.881716,http://www2.eastriding.gov.uk/environment/planning-and-building-control/east-riding-local-plan/housing-monitoring/#latest-shlaa-online,1.52,not owned by a public authority,,permissioned,,,,,,25,,WIL-C 17/02899/BPIP,2016-07-12,2018-03-31,,,
,,,,,,,,,,,,,,,,,,,http://opendatacommunities.org/id/unitary-authority/east-riding,,124,The Pottery Piggy Lane,53.729309,0.033964,https://newplanningaccess.eastriding.gov.uk/newplanningaccess/PLAN/16/03886/REM,0.17,not owned by a public authority,,permissioned,,,,,,7,,16/03886/REM,2016-07-12,2018-03-31,,,
,,,,,,,,,,,,,,,,,,,http://opendatacommunities.org/id/unitary-authority/east-riding,,125,Land at the Car Park Station Road,53.728574,0.033766,http://www2.eastriding.gov.uk/environment/planning-and-building-control/east-riding-local-plan/housing-monitoring/#latest-shlaa-online,0.44,not owned by a public authority,,not permissioned,,,,,,13,,WITH-D,2016-07-12,2018-03-31,,,
,,,,,,,,,,,,,,,,,,,http://opendatacommunities.org/id/unitary-authority/east-riding,,129,Land At St Catherines Cottage And Jesfield Main Street,53.931097,-0.819615,https://newplanningaccess.eastriding.gov.uk/newplanningaccess/PLAN/12/01316/PLF,0.27,not owned by a public authority,,permissioned,,,,,,10,,12/01316/PLF,2016-07-12,2018-03-31,,,
,,,,,,,,,,,,,,,,,,,http://opendatacommunities.org/id/unitary-authority/east-riding,,131,Beverley College Gallows Lane,53.847425,-0.444109,https://newplanningaccess.eastriding.gov.uk/newplanningaccess/PLAN/14/00428/STREM,2.73,not owned by a public authority,,permissioned,,,,,,36,,14/00428/STREM,2016-07-12,2018-03-31,,,
,,,,,,,,,,,,,,,,,,,http://opendatacommunities.org/id/unitary-authority/east-riding,,136,25 Pinfold Street,54.095278,-0.202417,https://newplanningaccess.eastriding.gov.uk/newplanningaccess/PLAN/15/00202/PLF,0.24,not owned by a public authority,,permissioned,,,,,,5,,15/00202/PLF,2016-07-12,2018-03-31,,,
,,,,,,,,,,,,,,,,,,,http://opendatacommunities.org/id/unitary-authority/east-riding,,137,The Londesborough Hotel West Street Bridlington,54.08043,-0.19447,https://newplanningaccess.eastriding.gov.uk/newplanningaccess/PLAN/15/01663/PLF,0.07,not owned by a public authority,,permissioned,,,,,,11,,15/01663/PLF,2016-07-12,2018-03-31,,,
,,,,,,,,,,,,,,,,,,,http://opendatacommunities.org/id/unitary-authority/east-riding,,140,"Rustonville, Penny Lane",54.132584,-0.344298,https://newplanningaccess.eastriding.gov.uk/newplanningaccess/PLAN/15/01612/REM,0.13,not owned by a public authority,,permissioned,,,,,,9,,15/01612/REM,2016-07-12,2018-03-31,,,
,,,,,,,,,,,,,,,,,,,http://opendatacommunities.org/id/unitary-authority/east-riding,,141,Land North of Main Street,54.072839,-0.246677,https://newplanningaccess.eastriding.gov.uk/newplanningaccess/PLAN/11/00454/REM,0.03,not owned by a public authority,,permissioned,,,,,,7,,11/00454/REM,2016-07-12,2018-03-31,,,
,,,,,,,,,,,,,,,,,,,http://opendatacommunities.org/id/unitary-authority/east-riding,,142,Land South of Castle Road,53.775641,-0.437618,https://newplanningaccess.eastriding.gov.uk/newplanningaccess/PLAN/14/02054/STPLF,4.26,not owned by a public authority,,permissioned,,,,,,125,,14/02054/STPLF,2016-07-12,2018-03-31,,,
,,,,,,,,,,,,,,,,,,,http://opendatacommunities.org/id/unitary-authority/east-riding,,146,"Yew Tree House, Bridlington Road",54.011682,-0.418172,https://newplanningaccess.eastriding.gov.uk/newplanningaccess/PLAN/16/02200/OUT,0.9,not owned by a public authority,,permissioned,,,,,,21,,16/02200/OUT,2016-07-12,2018-03-31,,,
,,,,,,,,,,,,,,,,,,,http://opendatacommunities.org/id/unitary-authority/east-riding,,150,Land West of 9 Eastgate South,54.002728,-0.430979,https://newplanningaccess.eastriding.gov.uk/newplanningaccess/PLAN/14/00618/PLF,0.21,not owned by a public authority,,permissioned,,,,,,11,,14/00618/PLF,2016-07-12,2018-03-31,,,
,,,,,,,,,,,,,,,,,,,http://opendatacommunities.org/id/unitary-authority/east-riding,,151,Land and outbuildings North of Tumar Farm,53.790762,-0.065548,https://newplanningaccess.eastriding.gov.uk/newplanningaccess/PLAN/14/02013/PLF,0.6,not owned by a public authority,,permissioned,,,,,,5,,14/02013/PLF,2016-07-12,2018-03-31,,,
,,,,,,,,,,,,,,,,,,,http://opendatacommunities.org/id/unitary-authority/east-riding,,153,Glenallan 23 Thorntree Lane,53.7132,-0.863693,https://newplanningaccess.eastriding.gov.uk/newplanningaccess/PLAN/09/01438/PLF,0.27,not owned by a public authority,,permissioned,,,,,,5,,09/01438/PLF,2016-07-12,2018-03-31,,,
,,,,,,,,,,,,,,,,,,,http://opendatacommunities.org/id/unitary-authority/east-riding,,155,"The Old Post Office, Victoria Street",53.703492,-0.868244,https://newplanningaccess.eastriding.gov.uk/newplanningaccess/PLAN/17/02866/PLF,0.09,not owned by a public authority,,permissioned,,,,,,9,,17/02866/PLF,2016-07-12,2018-03-31,,,
,,,,,,,,,,,,,,,,,,,http://opendatacommunities.org/id/unitary-authority/east-riding,,157,111-117 Boothferry Road,53.705559,-0.876437,https://newplanningaccess.eastriding.gov.uk/newplanningaccess/PLAN/13/02244/PLF,0.08,not owned by a public authority,,permissioned,,,,,,15,,13/02244/PLF,2016-07-12,2018-03-31,,,
,,,,,,,,,,,,,,,,,,,http://opendatacommunities.org/id/unitary-authority/east-riding,,159,Twyers Park Hull Road,53.741702,-0.208461,https://newplanningaccess.eastriding.gov.uk/newplanningaccess/PLAN/05/01360/STPLF,3.2,not owned by a public authority,,permissioned,,,,,,92,,05/01360/STPLF,2016-07-12,2018-03-31,,,
,,,,,,,,,,,,,,,,,,,http://opendatacommunities.org/id/unitary-authority/east-riding,,160,Land North of Livingstone Road,53.71707,-0.437309,http://www2.eastriding.gov.uk/environment/planning-and-building-control/east-riding-local-plan/housing-monitoring/#latest-shlaa-online,0.91,not owned by a public authority,,not permissioned,,,,,,30,,HES-F,2016-07-12,2018-03-31,,,
,,,,,,,,,,,,,,,,,,,http://opendatacommunities.org/id/unitary-authority/east-riding,,162,No89 And Land To Rear On Southfield,53.718199,-0.442595,https://newplanningaccess.eastriding.gov.uk/newplanningaccess/PLAN/07/06998/PLF,0.65,not owned by a public authority,,permissioned,,,,,,6,,07/06998/PLF,2016-07-12,2018-03-31,,,
,,,,,,,,,,,,,,,,,,,http://opendatacommunities.org/id/unitary-authority/east-riding,,163,Land Southwest of Pava Road,53.911813,-0.160235,https://newplanningaccess.eastriding.gov.uk/newplanningaccess/PLAN/16/04003/PLF,0.06,not owned by a public authority,,permissioned,,,,,,3,,16/04003/PLF,2016-07-12,2018-03-31,,,
,,,,,,,,,,,,,,,,,,,http://opendatacommunities.org/id/unitary-authority/east-riding,,165,Land To The Rear of Fosters Hall Main Street,53.956368,-0.43263,https://newplanningaccess.eastriding.gov.uk/newplanningaccess/PLAN/16/01502/REM,0.5,not owned by a public authority,,permissioned,,,,,,10,,16/01502/REM,2016-07-12,2018-03-31,,,
,,,,,,,,,,,,,,,,,,,http://opendatacommunities.org/id/unitary-authority/east-riding,,166,Land East of Eastfield Road,53.709198,-0.101472,https://newplanningaccess.eastriding.gov.uk/newplanningaccess/PLAN/14/03920/STOUT,10.62,not owned by a public authority,,permissioned,,,,,,196,,14/03920/STOUT,2016-07-12,2018-03-31,,,
,,,,,,,,,,,,,,,,,,,http://opendatacommunities.org/id/unitary-authority/east-riding,,167,Land South West And East Austrothy House,53.706207,-0.100796,https://newplanningaccess.eastriding.gov.uk/newplanningaccess/PLAN/15/03002/REM,0.042,not owned by a public authority,,permissioned,,,,,,9,,15/03002/REM,2016-07-12,2018-03-31,,,
,,,,,,,,,,,,,,,,,,,http://opendatacommunities.org/id/unitary-authority/east-riding,,168,Land To The South of Manor Garth,53.706401,-0.112265,https://newplanningaccess.eastriding.gov.uk/newplanningaccess/PLAN/18/00065/PLF,0.07,not owned by a public authority,,permissioned,,,,,,4,,18/00065/PLF,2016-07-12,2018-03-31,,,
,,,,,,,,,,,,,,,,,,,http://opendatacommunities.org/id/unitary-authority/east-riding,,169,Roanne Nurseries and Lant East of Driffield Road,54.061667,-0.374056,https://newplanningaccess.eastriding.gov.uk/newplanningaccess/PLAN/17/02337/STREM,2.28,not owned by a public authority,,pending decision,,,,,,55,,17/02337/STREM,2016-07-12,2018-03-31,,,
,,,,,,,,,,,,,,,,,,,http://opendatacommunities.org/id/unitary-authority/east-riding,,170,Land West of Kilpin Grange,53.730919,-0.830378,https://newplanningaccess.eastriding.gov.uk/newplanningaccess/PLAN/07/04219/PLF,1.2,not owned by a public authority,,permissioned,,,,,,8,,07/04219/PLF,2016-07-12,2018-03-31,,,
,,,,,,,,,,,,,,,,,,,http://opendatacommunities.org/id/unitary-authority/east-riding,,171,"The Old Hall, 10 Church Lane",53.752768,-0.451137,https://newplanningaccess.eastriding.gov.uk/newplanningaccess/PLAN/14/01538/PLF,0.35,not owned by a public authority,,permissioned,,,,,,6,,14/01538/PLF,2016-07-12,2018-03-31,,,
,,,,,,,,,,,,,,,,,,,http://opendatacommunities.org/id/unitary-authority/east-riding,,172,Manor Farm Front Street,54.087244,-0.454382,https://newplanningaccess.eastriding.gov.uk/newplanningaccess/PLAN/05/08615/STPLF,0.67,not owned by a public authority,,permissioned,,,,,,27,,05/08615/STPLF,2016-07-12,2018-03-31,,,
,,,,,,,,,,,,,,,,,,,http://opendatacommunities.org/id/unitary-authority/east-riding,,174,"Land at Tonk Removal Service, Station Road",54.011644,-0.384212,https://newplanningaccess.eastriding.gov.uk/newplanningaccess/PLAN/16/03842/PLF,0.76,not owned by a public authority,,permissioned,,,,,,24,,16/03842/PLF,2016-07-12,2018-03-31,,,
,,,,,,,,,,,,,,,,,,,http://opendatacommunities.org/id/unitary-authority/east-riding,,176,"The Gables, Bridge Lane",53.667865,-1.073026,https://newplanningaccess.eastriding.gov.uk/newplanningaccess/PLAN/15/03483/REM,0.41,not owned by a public authority,,permissioned,,,,,,5,,15/03483/REM,2016-07-12,2018-03-31,,,
,,,,,,,,,,,,,,,,,,,http://opendatacommunities.org/id/unitary-authority/east-riding,,177,Harker Construction Limited The Paddock 102 High Street,53.698192,-0.965757,https://newplanningaccess.eastriding.gov.uk/newplanningaccess/PLAN/12/01832/PLF,0.29,not owned by a public authority,,permissioned,,,,,,7,,12/01832/PLF,2016-07-12,2018-03-31,,,
,,,,,,,,,,,,,,,,,,,http://opendatacommunities.org/id/unitary-authority/east-riding,,181,Land North Of 30 Main Street,54.019326,-0.578936,https://newplanningaccess.eastriding.gov.uk/newplanningaccess/PLAN/12/01304/PLF,0.2,not owned by a public authority,,permissioned,,,,,,5,,12/01304/PLF,2016-07-12,2018-03-31,,,
,,,,,,,,,,,,,,,,,,,http://opendatacommunities.org/id/unitary-authority/east-riding,,184,"New Teddies, South Promenade",53.728839,0.039274,https://newplanningaccess.eastriding.gov.uk/newplanningaccess/PLAN/09/01974/PLF,0.49,not owned by a public authority,,permissioned,,,,,,9,,09/01974/PLF,2016-07-12,2018-03-31,,,
,,,,,,,,,,,,,,,,,,,http://opendatacommunities.org/id/unitary-authority/east-riding,,191,"Ringley Farm, 79 High Street",54.131436,-0.181167,https://newplanningaccess.eastriding.gov.uk/newplanningaccess/PLAN/15/01744/OUT,0.16,not owned by a public authority,,permissioned,,,,,,5,,15/01744/OUT,2017-12-04,2018-03-31,,,
,,,,,,,,,,,,,,,,,,,http://opendatacommunities.org/id/unitary-authority/east-riding,,192,Land at Chantry Lane Junction,53.841001,-0.420115,https://newplanningaccess.eastriding.gov.uk/newplanningaccess/PLAN/15/00532/PLF,0.11,not owned by a public authority,,permissioned,,,,,,16,,15/00532/PLF,2017-12-04,2018-03-31,,,
,,,,,,,,,,,,,,,,,,,http://opendatacommunities.org/id/unitary-authority/east-riding,,193,"Keldgate Manor, Keldgate",53.837389,-0.425493,https://newplanningaccess.eastriding.gov.uk/newplanningaccess/PLAN/16/01259/STPLF,0.53,not owned by a public authority,,permissioned,,,,,,16,,16/01259/STPLF,2017-12-04,2018-03-31,,,
,,,,,,,,,,,,,,,,,,,http://opendatacommunities.org/id/unitary-authority/east-riding,,194,45 Scarborough Road,54.094009,-0.205994,https://newplanningaccess.eastriding.gov.uk/newplanningaccess/PLAN/15/01006/PLF,0.28,not owned by a public authority,,permissioned,,,,,,9,,15/01006/PLF,2017-12-04,2018-03-31,,,
,,,,,,,,,,,,,,,,,,,http://opendatacommunities.org/id/unitary-authority/east-riding,,195,42 New Burlington Road,54.081793,-0.196748,https://newplanningaccess.eastriding.gov.uk/newplanningaccess/PLAN/15/01855/PLF,0.01,not owned by a public authority,,permissioned,,,,,,5,,15/01855/PLF,2017-12-04,2018-03-31,,,
,,,,,,,,,,,,,,,,,,,http://opendatacommunities.org/id/unitary-authority/east-riding,,196,"Towning And Cross, Rear Of 50 To 58 Richmond Street",54.080056,-0.199815,https://newplanningaccess.eastriding.gov.uk/newplanningaccess/PLAN/15/02611/PLF,0.07,not owned by a public authority,,permissioned,,,,,,5,,15/02611/PLF,2017-12-04,2018-03-31,,,
,,,,,,,,,,,,,,,,,,,http://opendatacommunities.org/id/unitary-authority/east-riding,,197,"Brentwood Hotel, 7 - 8 Marlborough Terrace",54.082644,-0.186424,https://newplanningaccess.eastriding.gov.uk/newplanningaccess/PLAN/15/02959/PLF,0.04,not owned by a public authority,,permissioned,,,,,,14,,15/02959/PLF,2017-12-04,2018-03-31,,,
,,,,,,,,,,,,,,,,,,,http://opendatacommunities.org/id/unitary-authority/east-riding,,198,10 Trinity Mews,54.08825,-0.188079,https://newplanningaccess.eastriding.gov.uk/newplanningaccess/PLAN/16/01371/PLF,0.13,not owned by a public authority,,permissioned,,,,,,8,,16/01371/PLF,2017-12-04,2018-03-31,,,
,,,,,,,,,,,,,,,,,,,http://opendatacommunities.org/id/unitary-authority/east-riding,,200,22-24 Promenade,54.082877,-0.186658,https://newplanningaccess.eastriding.gov.uk/newplanningaccess/PLAN/16/02921/PLF,0.03,not owned by a public authority,,permissioned,,,,,,9,,16/02921/PLF,2017-12-04,2018-03-31,,,
,,,,,,,,,,,,,,,,,,,http://opendatacommunities.org/id/unitary-authority/east-riding,,201,62A Middle Street North,54.008248,-0.440977,https://newplanningaccess.eastriding.gov.uk/newplanningaccess/PLAN/15/03211/PLF,0.2,not owned by a public authority,,permissioned,,,,,,9,,15/03211/PLF,2017-12-04,2018-03-31,,,
,,,,,,,,,,,,,,,,,,,http://opendatacommunities.org/id/unitary-authority/east-riding,,202,"Riverhead Centre, Bishop Burton College, River Head",54.001772,-0.430947,https://newplanningaccess.eastriding.gov.uk/newplanningaccess/PLAN/16/02368/PLF,0.18,not owned by a public authority,,permissioned,,,,,,7,,16/02368/PLF,2017-12-04,2018-03-31,,,
,,,,,,,,,,,,,,,,,,,http://opendatacommunities.org/id/unitary-authority/east-riding,,203,"Beechwood House, Main Street",53.969245,-0.830527,https://newplanningaccess.eastriding.gov.uk/newplanningaccess/PLAN/15/00440/PLF,0.35,not owned by a public authority,,permissioned,,,,,,5,,15/00440/PLF,2017-12-04,2018-03-31,,,
,,,,,,,,,,,,,,,,,,,http://opendatacommunities.org/id/unitary-authority/east-riding,,204,Old School House Cottingham Street Old Goole,53.695341,-0.871403,https://newplanningaccess.eastriding.gov.uk/newplanningaccess/PLAN/11/01331/PLF,0.2,not owned by a public authority,,permissioned,,,,,,13,,11/01331/PLF,2017-12-04,2018-03-31,,,
,,,,,,,,,,,,,,,,,,,http://opendatacommunities.org/id/unitary-authority/east-riding,,205,Little Rascals First Avenue,53.704925,-0.872753,https://newplanningaccess.eastriding.gov.uk/newplanningaccess/PLAN/14/01749/PLF,0.13,not owned by a public authority,,permissioned,,,,,,7,,14/01749/PLF,2017-12-04,2018-03-31,,,
,,,,,,,,,,,,,,,,,,,http://opendatacommunities.org/id/unitary-authority/east-riding,,206,Land To The North East of 52 St Johns Court,53.706199,-0.869764,https://newplanningaccess.eastriding.gov.uk/newplanningaccess/PLAN/15/03558/PLF,0.07,not owned by a public authority,,permissioned,,,,,,9,,15/03558/PLF,2017-12-04,2018-03-31,,,
,,,,,,,,,,,,,,,,,,,http://opendatacommunities.org/id/unitary-authority/east-riding,,207,Edinburgh Street Development Site,53.705299,-0.867373,https://newplanningaccess.eastriding.gov.uk/newplanningaccess/PLAN/16/01720/PLF,0.09,not owned by a public authority,,permissioned,,,,,,7,,16/01720/PLF,2017-12-04,2018-03-31,,,
,,,,,,,,,,,,,,,,,,,http://opendatacommunities.org/id/unitary-authority/east-riding,,208,21 - 25 Aire Street,53.701277,-0.868328,https://newplanningaccess.eastriding.gov.uk/newplanningaccess/PLAN/16/03400/PLF,0.03,not owned by a public authority,,permissioned,,,,,,8,,16/03400/PLF,2017-12-04,2018-03-31,,,
,,,,,,,,,,,,,,,,,,,http://opendatacommunities.org/id/unitary-authority/east-riding,,209,Land North of Livingstone Road,53.717392,-0.434713,https://newplanningaccess.eastriding.gov.uk/newplanningaccess/PLAN/15/00017/STREM,1.54,not owned by a public authority,,pending decision,,,,,,81,,15/00017/STREM,2017-12-04,2018-03-31,,,
,,,,,,,,,,,,,,,,,,,http://opendatacommunities.org/id/unitary-authority/east-riding,,212,"Cross Keys, 2 Hull Road",53.747452,-0.856122,https://newplanningaccess.eastriding.gov.uk/newplanningaccess/PLAN/15/00516/PLF,0.13,not owned by a public authority,,permissioned,,,,,,14,,15/00516/PLF,2017-12-04,2018-03-31,,,
,,,,,,,,,,,,,,,,,,,http://opendatacommunities.org/id/unitary-authority/east-riding,,214,"The Pack Horse Inn, 93 Main Street",53.956092,-0.434826,https://newplanningaccess.eastriding.gov.uk/newplanningaccess/PLAN/18/00718/PLF,0.13,not owned by a public authority,,permissioned,,,,,,5,,18/00718/PLF,2017-12-04,2018-03-31,,,
,,,,,,,,,,,,,,,,,,,http://opendatacommunities.org/id/unitary-authority/east-riding,,215,Land West of Kilpin Grange,53.731342,-0.830714,https://newplanningaccess.eastriding.gov.uk/newplanningaccess/PLAN/15/03418/PLF,0.26,not owned by a public authority,,permissioned,,,,,,5,,15/03418/PLF,2017-12-04,2018-03-31,,,
,,,,,,,,,,,,,,,,,,,http://opendatacommunities.org/id/unitary-authority/east-riding,,216,40 High Street,53.864407,-0.664379,https://newplanningaccess.eastriding.gov.uk/newplanningaccess/PLAN/15/00039/PLF,0.04,not owned by a public authority,,permissioned,,,,,,5,,15/00039/PLF,2017-12-04,2018-03-31,,,
,,,,,,,,,,,,,,,,,,,http://opendatacommunities.org/id/unitary-authority/east-riding,,218,"Feathers Hotel, 56 Market Place",53.930878,-0.775069,https://newplanningaccess.eastriding.gov.uk/newplanningaccess/PLAN/15/00106/PLF,0.51,not owned by a public authority,,permissioned,,,,,,9,,15/00106/PLF,2017-12-04,2018-03-31,,,
,,,,,,,,,,,,,,,,,,,http://opendatacommunities.org/id/unitary-authority/east-riding,,219,"Co-operative, 13 George Street",53.930619,-0.779815,https://newplanningaccess.eastriding.gov.uk/newplanningaccess/PLAN/16/02134/PLF,0.49,not owned by a public authority,,permissioned,,,,,,34,,16/02134/PLF,2017-12-04,2018-03-31,,,
,,,,,,,,,,,,,,,,,,,http://opendatacommunities.org/id/unitary-authority/east-riding,,220,Land To The West And South Of 18 Riverside,53.699634,-0.962416,https://newplanningaccess.eastriding.gov.uk/newplanningaccess/PLAN/16/02460/OUT,0.25,not owned by a public authority,,permissioned,,,,,,10,,16/02460/OUT,2017-12-04,2018-03-31,,,
,,,,,,,,,,,,,,,,,,,http://opendatacommunities.org/id/unitary-authority/east-riding,,221,George Street Allotments And Adult Education Centre,53.692057,-1.023223,https://newplanningaccess.eastriding.gov.uk/newplanningaccess/PLAN/16/02669/PLF,0.35,not owned by a public authority,,permissioned,,,,,,9,,16/02669/PLF,2017-12-04,2018-03-31,,,
,,,,,,,,,,,,,,,,,,,http://opendatacommunities.org/id/unitary-authority/east-riding,,222,"Rose Croft, 95 Hull Road",53.825643,-0.395544,https://newplanningaccess.eastriding.gov.uk/newplanningaccess/PLAN/16/01933/OUT,0.26,not owned by a public authority,,permissioned,,,,,,5,,16/01933/OUT,2017-12-04,2018-03-31,,,
,,,,,,,,,,,,,,,,,,,http://opendatacommunities.org/id/unitary-authority/east-riding,,223,Thornleigh Cottage,53.887714,-0.860517,https://newplanningaccess.eastriding.gov.uk/newplanningaccess/PLAN/17/01327/PLF,0.24,not owned by a public authority,,permissioned,,,,,,6,,17/01327/PLF,2017-12-04,2018-03-31,,,
,,,,,,,,,,,,,,,,,,,http://opendatacommunities.org/id/unitary-authority/east-riding,,224,"Elm Tree Inn, 46 High Street",53.828156,-0.110881,https://newplanningaccess.eastriding.gov.uk/newplanningaccess/PLAN/17/02002/PLF,0.14,not owned by a public authority,,permissioned,,,,,,7,,17/02002/PLF,2018-06-30,2018-03-31,,,
,,,,,,,,,,,,,,,,,,,http://opendatacommunities.org/id/unitary-authority/east-riding,,225,"The Paddock, North Street",53.74895,-0.951369,https://newplanningaccess.eastriding.gov.uk/newplanningaccess/PLAN/17/00612/PLF,0.41,not owned by a public authority,,permissioned,,,,,,9,,17/00612/PLF,2018-06-30,2018-03-31,,,
,,,,,,,,,,,,,,,,,,,http://opendatacommunities.org/id/unitary-authority/east-riding,,226,30 Molescroft Road,53.851528,-0.444208,https://newplanningaccess.eastriding.gov.uk/newplanningaccess/PLAN/17/01574/PLF,0.49,not owned by a public authority,,permissioned,,,,,,28,,17/01574/PLF,2017-12-04,2018-03-31,,,
,,,,,,,,,,,,,,,,,,,http://opendatacommunities.org/id/unitary-authority/east-riding,,227,"Former Military Camp, Gowthorpe Lane, Gowthorpe",53.980685,-0.842126,https://newplanningaccess.eastriding.gov.uk/newplanningaccess/PLAN/18/00939/SRNOT,0.66,not owned by a public authority,,permissioned,,,,,,5,,18/00939/SRNOT,2017-12-05,2018-03-31,,,
,,,,,,,,,,,,,,,,,,,http://opendatacommunities.org/id/unitary-authority/east-riding,,228,"The London Hotel, 1 Royal Crescent",54.085107,-0.183273,https://newplanningaccess.eastriding.gov.uk/newplanningaccess/PLAN/18/00484/PLF,0.03,not owned by a public authority,,permissioned,,,,,,6,,18/00484/PLF,2017-12-04,2018-03-31,,,
,,,,,,,,,,,,,,,,,,,http://opendatacommunities.org/id/unitary-authority/east-riding,,229,"Integra Buildings Ltd, Main Street",53.736229,-0.140021,https://newplanningaccess.eastriding.gov.uk/newplanningaccess/PLAN/17/01337/OUT,0.88,not owned by a public authority,,permissioned,,,,,,22,,17/01337/OUT,2018-11-14,2018-03-31,,,
,,,,,,,,,,,,,,,,,,,http://opendatacommunities.org/id/unitary-authority/east-riding,,230,"F W Lawson Coal Depot, 2 Albion Street",54.002492,-0.43164,https://newplanningaccess.eastriding.gov.uk/newplanningaccess/PLAN/16/02695/PLF,0.42,not owned by a public authority,,permissioned,,,,,,16,,16/02695/PLF,2017-12-04,2018-03-31,,,
,,,,,,,,,,,,,,,,,,,http://opendatacommunities.org/id/unitary-authority/east-riding,,231,54 Elloughton Road,53.732519,-0.56947,https://newplanningaccess.eastriding.gov.uk/newplanningaccess/PLAN/15/03662/PLF,0.46,not owned by a public authority,,permissioned,,,,,,35,,15/03662/PLF,2018-11-14,2018-03-31,,,
,,,,,,,,,,,,,,,,,,,http://opendatacommunities.org/id/unitary-authority/east-riding,,232,Land To The North East Of Leisure Time 2 Pasture Road,53.704721,-0.873331,https://newplanningaccess.eastriding.gov.uk/newplanningaccess/PLAN/17/00885/OUT,0.05,not owned by a public authority,,permissioned,,,,,,6,,17/00885/OUT,2017-12-04,2018-03-31,,,
,,,,,,,,,,,,,,,,,,,http://opendatacommunities.org/id/unitary-authority/east-riding,,233,Waltham Chartered Accountants 64 - 66 Aire Street,53.702582,-0.869383,https://newplanningaccess.eastriding.gov.uk/newplanningaccess/PLAN/17/03875/ORNOT,0.03,not owned by a public authority,,permissioned,,,,,,11,,17/03875/ORNOT,2016-07-12,2018-03-31,,,
,,,,,,,,,,,,,,,,,,,http://opendatacommunities.org/id/unitary-authority/east-riding,,234,2 Magdalen Gate,53.741085,-0.196652,https://newplanningaccess.eastriding.gov.uk/newplanningaccess/PLAN/17/04208/PLF,0.02,not owned by a public authority,,permissioned,,,,,,5,,17/04208/PLF,2016-07-12,2018-03-31,,,
,,,,,,,,,,,,,,,,,,,http://opendatacommunities.org/id/unitary-authority/east-riding,,235,"Hessle High School And Sixth Form College, Boothferry Road",53.732287,-0.437225,https://newplanningaccess.eastriding.gov.uk/newplanningaccess/PLAN/17/02301/REG4,2.31,owned by a public authority,,permissioned,,,,,,62,,17/02301/REG4,2016-07-12,2018-03-31,,,
,,,,,,,,,,,,,,,,,,,http://opendatacommunities.org/id/unitary-authority/east-riding,,236,Land East of Eastfield Road,53.707318,-0.100134,https://newplanningaccess.eastriding.gov.uk/newplanningaccess/PLAN/17/03831/STREM,0.49,not owned by a public authority,,pending decision,,,,,,5,,17/03831/STREM,2016-07-12,2018-03-31,,,
,,,,,,,,,,,,,,,,,,,http://opendatacommunities.org/id/unitary-authority/east-riding,,237,Land South West And East Austrothy House,53.706188,-0.099258,https://newplanningaccess.eastriding.gov.uk/newplanningaccess/PLAN/15/03146/STREM,1.65,not owned by a public authority,,permissioned,,,,,,22,,15/03146/STREM,2016-07-12,2018-03-31,,,
,,,,,,,,,,,,,,,,,,,http://opendatacommunities.org/id/unitary-authority/east-riding,,238,"Pocklington Group Practice, 7 Barmby Road",53.931839,-0.781171,https://newplanningaccess.eastriding.gov.uk/newplanningaccess/PLAN/17/01940/PLF,0.06,not owned by a public authority,,permissioned,,,,,,9,,17/01940/PLF,2017-12-04,2018-03-31,,,
,,,,,,,,,,,,,,,,,,,http://opendatacommunities.org/id/unitary-authority/east-riding,,239,4 Great Gutter Lane East,53.761987,-0.449422,https://newplanningaccess.eastriding.gov.uk/newplanningaccess/PLAN/16/03762/OUT,0.14,not owned by a public authority,,permissioned,,,,,,5,,16/03762/OUT,2018-11-14,2018-03-31,,,
,,,,,,,,,,,,,,,,,,,http://opendatacommunities.org/id/unitary-authority/east-riding,,240,Former Sir Leo Schultz Centre,53.792231,-0.381989,https://newplanningaccess.eastriding.gov.uk/newplanningaccess/PLAN/16/00154/STPLF,6.15,not owned by a public authority,,permissioned,,,,,,128,,16/00154/STPLF,2017-12-04,2018-03-31,,,
,,,,,,,,,,,,,,,,,,,http://opendatacommunities.org/id/unitary-authority/east-riding,,241,Needler Hall Northgate,53.783587,-0.413952,https://newplanningaccess.eastriding.gov.uk/newplanningaccess/PLAN/17/02946/STPLF,0.65,not owned by a public authority,,permissioned,,,,,,53,,17/02946/STPLF,2018-11-20,2018-03-31,,,
,,,,,,,,,,,,,,,,,,,http://opendatacommunities.org/id/unitary-authority/east-riding,,242,Needler Hall Northgate,53.784194,-0.413773,https://newplanningaccess.eastriding.gov.uk/newplanningaccess/PLAN/17/04191/PLF,0.25,not owned by a public authority,,permissioned,,,,,,7,,17/04191/PLF,2018-11-20,2018-03-31,,,
,,,,,,,,,,,,,,,,,,,http://opendatacommunities.org/id/unitary-authority/east-riding,,95,Land At Pinkneys Lane Driffield,54.007623,-0.446645,http://www2.eastriding.gov.uk/environment/planning-and-building-control/east-riding-local-plan/housing-monitoring/#latest-shlaa-online,0.44,not owned by a public authority,,not permissioned,,,,,,15,,DRF-D (AD),2016-07-12,2018-03-31,,,
,,,,,,,,,,,,,,,,,,,http://opendatacommunities.org/id/unitary-authority/east-riding,,104,Land West of Snowdrop Garth Holme upon Spalding Moor,53.834477,-0.772855,http://www2.eastriding.gov.uk/environment/planning-and-building-control/east-riding-local-plan/housing-monitoring/#latest-shlaa-online,2.45,not owned by a public authority,,not permissioned,,,,,,59,,HSM-C (AD) - Not actually Brownfield - End Date added for consistency with previous year,2016-07-12,2018-03-31,,,
,,,,,,,,,,,,,,,,,,,http://opendatacommunities.org/id/unitary-authority/east-riding,,115,Land South of 5 Front Street  Middleton on the Wolds,53.932665,-0.558287,https://newplanningaccess.eastriding.gov.uk/newplanningaccess/PLAN/15/01467/REM,0.2,not owned by a public authority,,permissioned,,,,,,8,,15/01467/REM (PP),2016-07-12,2018-03-31,,,
,,,,,,,,,,,,,,,,,,,http://opendatacommunities.org/id/unitary-authority/east-riding,,121,Land West of 10 Stone Bridge Drive Wilberfoss,53.947118,-0.887172,http://www2.eastriding.gov.uk/environment/planning-and-building-control/east-riding-local-plan/housing-monitoring/#latest-shlaa-online,0.39,not owned by a public authority,,not permissioned,,,,,,12,,WIL-B (AD),2016-07-12,2018-03-31,,,
,,,,,,,,,,,,,,,,,,,http://opendatacommunities.org/id/unitary-authority/east-riding,,127,Land South of Wilson Street Anlaby with Anlaby Common,53.745516,-0.432452,https://newplanningaccess.eastriding.gov.uk/newplanningaccess/PLAN/15/03991/PLF,0.32,not owned by a public authority,,permissioned,,,,,,10,,15/03991/PLF (PP),2016-07-12,2018-03-31,,,
,,,,,,,,,,,,,,,,,,,http://opendatacommunities.org/id/unitary-authority/east-riding,,130,Land East of Glebe Gardens  Beeford,53.972564,-0.276784,https://newplanningaccess.eastriding.gov.uk/newplanningaccess/PLAN/15/02387/OUT,0.79,not owned by a public authority,,permissioned,,,,,,14,,15/02387/OUT (PP),2016-07-12,2018-03-31,,,
,,,,,,,,,,,,,,,,,,,http://opendatacommunities.org/id/unitary-authority/east-riding,,145,"Yew Tree House, Bridlington Road Driffield",54.011631,-0.419482,https://newplanningaccess.eastriding.gov.uk/newplanningaccess/PLAN/14/00022/PLF,0.11,not owned by a public authority,,permissioned,,,,,,1,,14/00022/PLF (PP),2016-07-12,2018-03-31,,,
,,,,,,,,,,,,,,,,,,,http://opendatacommunities.org/id/unitary-authority/east-riding,,152,"Wards Hotel, Main Road  Gilberdyke",53.753811,-0.739452,https://newplanningaccess.eastriding.gov.uk/newplanningaccess/PLAN/14/01311/PLF,0.21,not owned by a public authority,,permissioned,,,,,,10,,14/01311/PLF (PP),2016-07-12,2018-03-31,,,
,,,,,,,,,,,,,,,,,,,http://opendatacommunities.org/id/unitary-authority/east-riding,,173,Londesborough Arms 44 High Street Market Weighton,53.864552,-0.664618,https://newplanningaccess.eastriding.gov.uk/newplanningaccess/PLAN/16/02924/PLF,0.08,not owned by a public authority,,permissioned,,,,,,9,,16/02924/PLF (PP),2016-07-12,2018-03-31,,,
,,,,,,,,,,,,,,,,,,,http://opendatacommunities.org/id/unitary-authority/east-riding,,178,Cherry Tree Farm 43 High Street East Cowick East Riding Of Yorkshire DN14 9EP Snaith,53.681785,-0.997687,https://newplanningaccess.eastriding.gov.uk/newplanningaccess/PLAN/13/02857/PLF,0.29,not owned by a public authority,,permissioned,,,,,,5,,13/02857/PLF (PP),2016-07-12,2018-03-31,,,
,,,,,,,,,,,,,,,,,,,http://opendatacommunities.org/id/unitary-authority/east-riding,,179,Land North of the Stray South Cave,53.773906,-0.598114,https://newplanningaccess.eastriding.gov.uk/newplanningaccess/PLAN/13/03446/OUT,1.02,not owned by a public authority,,permissioned,,,,,,24,,13/03446/OUT (PP),2016-07-12,2018-03-31,,,
,,,,,,,,,,,,,,,,,,,http://opendatacommunities.org/id/unitary-authority/east-riding,,199,"Rose Park Residential Home, 4 Park Avenue Bridlington",54.088798,-0.184967,https://newplanningaccess.eastriding.gov.uk/newplanningaccess/PLAN/16/02018/PLF,0.05,not owned by a public authority,,permissioned,,,,,,7,,16/02018/PLF (PP),2017-12-04,2018-03-31,,,
,,,,,,,,,,,,,,,,,,,http://opendatacommunities.org/id/unitary-authority/east-riding,,210,3 - 5 Esplanade Hornsea,53.916358,-0.162246,https://newplanningaccess.eastriding.gov.uk/newplanningaccess/PLAN/15/01316/PLF,0.17,not owned by a public authority,,permissioned,,,,,,8,,15/01316/PLF (PP),2017-12-04,2018-03-31,,,
,,,,,,,,,,,,,,,,,,,http://opendatacommunities.org/id/unitary-authority/east-riding,,211,Land South Of 24 Bridgegate Howden,53.746548,-0.862704,https://newplanningaccess.eastriding.gov.uk/newplanningaccess/PLAN/14/03791/PLF,0.13,not owned by a public authority,,permissioned,,,,,,8,,14/03791/PLF (PP),2017-12-04,2018-03-31,,,
,,,,,,,,,,,,,,,,,,,http://opendatacommunities.org/id/unitary-authority/east-riding,,213,"Former HSBC, 16 Market Place Howden",53.744695,-0.86418,https://newplanningaccess.eastriding.gov.uk/newplanningaccess/PLAN/16/03540/PLF,0.14,not owned by a public authority,,permissioned,,,,,,6,,16/03540/PLF (PP),2017-12-04,2018-03-31,,,
,,,,,,,,,,,,,,,,,,,http://opendatacommunities.org/id/unitary-authority/east-riding,,217,Land South of 5 Front Street  Middleton on the Wolds,53.932407,-0.558568,https://newplanningaccess.eastriding.gov.uk/newplanningaccess/PLAN/15/02843/OUT,0.24,not owned by a public authority,,permissioned,,,,,,8,,15/02843/OUT (PP),2017-12-04,2018-03-31,,,
